,BuildingType,PrimaryPropertyType,PropertyName,Address,ZipCode,Neighborhood,Latitude,Longitude,YearBuilt,LargestPropertyUseType,ENERGYSTARScore,SiteEnergyUse,TotalGHGEmissions,GFAPerBuilding,GFAPerFloor,GFABuildingRate
0,NonResidential,Hotel,Mayflower park hotel,Way,98101.0,Downtown,47.6122,-122.33799,1927,Hotel,60.0,7226362.5,249.98,88434.0,7369.5,1.0
1,NonResidential,Hotel,Paramount Hotel,Street,98101.0,Downtown,47.61317,-122.33393,1996,Hotel,61.0,8387933.0,295.86,103566.0,9415.091,0.85455
2,NonResidential,Hotel,5673-The Westin Seattle,Avenue,98101.0,Downtown,47.61393,-122.3381,1969,Hotel,43.0,72587024.0,2089.28,956110.0,23319.756,0.79425
3,NonResidential,Hotel,HOTEL MAX,Street,98101.0,Downtown,47.61412,-122.33664,1926,Hotel,56.0,6794584.0,286.43,61320.0,6132.0,1.0
4,NonResidential,Hotel,WARWICK SEATTLE HOTEL (ID8),Street,98121.0,Downtown,47.61375,-122.34047,1980,Hotel,75.0,14172606.0,505.01,175580.0,9754.444,0.64688
6,NonResidential,Hotel,Camlin,Avenue,98101.0,Downtown,47.6139,-122.33283,1926,Hotel,27.0,5758795.0,176.14,83008.0,7546.182,1.0
8,NonResidential,Hotel,311wh-Pioneer Square,Avenue,98104.0,Downtown,47.60294,-122.33263,1904,Hotel,43.0,13723820.0,392.16,163984.0,10932.267,1.0
10,NonResidential,Hotel,Hotel Monaco Seattle,Avenue,98101.0,Downtown,47.60695,-122.33414,1969,Hotel,30.0,16016644.0,691.26,153163.0,13923.909,0.87413
11,NonResidential,Hotel,5679-W Seattle,Avenue,98101.0,Downtown,47.60713,-122.33323,1998,Hotel,36.0,26941110.0,740.97,333176.0,13327.04,0.81643
12,NonResidential,Hotel,Executive Pacific Plaza,Street,98104.0,Downtown,47.60699,-122.33346,1928,Hotel,48.0,6596057.5,328.23,65009.0,7223.222,1.0
13,NonResidential,Hotel,Crowne Plaza Hotel Seattle,Avenue,98101.0,Downtown,47.60809,-122.33212,1980,Hotel,58.0,22325364.0,648.62,315952.0,9574.303,0.81769
14,NonResidential,Hotel,Hotel Vintage Seattle,Avenue,98101.0,Downtown,47.60755,-122.33244,1922,Hotel,35.0,10750010.0,511.39,92190.0,8380.909,0.72665
17,NonResidential,Hotel,Renaissance Seattle Hotel,Street,98104.0,Downtown,47.60681,-122.33078,1983,Hotel,31.0,33556756.0,802.89,416281.0,14867.179,0.79581
19,NonResidential,Hotel,Arctic Club Seattle,Avenue,98104.0,Downtown,47.60376,-122.33194,1916,Hotel,39.0,10154608.0,349.32,104352.0,10435.2,1.0
20,NonResidential,Other,King County Courthouse,Avenue,98104.0,Downtown,47.60265,-122.33051,1916,Courthouse,76.0,44984468.0,1265.29,540360.0,54036.0,1.0
23,NonResidential,Hotel,WATERTOWN HOTEL,Way,98105.0,Northeast,47.65959,-122.31755,2001,Hotel,84.0,3663534.5,90.01,88592.0,14765.333,0.65475
27,NonResidential,Hotel,Marriott Springhill Suites (33),Avenue,98101.0,Downtown,47.61784,-122.32966,2001,Hotel,57.0,11061916.0,328.63,171866.0,17186.6,0.77726
29,NonResidential,Hotel,Hotel Five,Avenue,98121.0,Downtown,47.61558,-122.34186,1978,Hotel,57.0,4456714.5,128.44,68410.0,13682.0,0.76319
33,NonResidential,Hotel,Silver Cloud University,Avenue,98105.0,Northeast,47.66583,-122.29965,1994,Hotel,29.0,6668568.5,215.0,81871.0,20467.75,1.0
35,Campus,Mixed Use Property,Plant 2 Site,Way,98108.0,Greater Duwamish,47.53493,-122.31788,1992,Office,8.0,448385312.0,16870.98,494835.0,164945.0,1.0
37,SPS-District K-12,K-12 School,Lawton Elementary,Avenue,98199.0,Magnolia / Queen Anne,47.65671,-122.39047,1990,K-12 School,97.0,1650279.25,31.47,54986.0,27493.0,1.0
39,NonResidential,Small- and Mid-Sized Office,SBC52,Avenue,98107.0,Ballard,47.66587,-122.38476,1961,Office,57.0,6186461.5,130.56,94900.0,47450.0,1.0
40,NonResidential,Small- and Mid-Sized Office,El Centro de la Raza,Avenue,98144.0,Greater Duwamish,47.58034,-122.31132,1900,Office,83.0,2951331.25,83.86,52554.0,26277.0,1.0
41,NonResidential,K-12 School,Blanchet High School,Avenue,98103.0,Northwest,47.68891,-122.33553,1954,K-12 School,95.0,6994740.5,247.85,175015.0,58338.333,1.0
43,NonResidential,Hotel,Seattle Hilton Hotel,Avenue,98101.0,Downtown,47.60946,-122.33337,1969,Hotel,67.0,16163194.0,295.33,332210.0,13842.083,0.38
44,NonResidential,Large Office,5th and Pine,Street,98101.0,Downtown,47.6113,-122.33659,1973,Office,78.0,9536161.0,66.48,168115.0,33623.0,1.0
46,NonResidential,Small- and Mid-Sized Office,Gibraltar Tower,Avenue,98101.0,Downtown,47.61048,-122.33794,1910,Office,14.0,5071974.0,35.36,59400.0,7425.0,1.0
48,NonResidential,Hotel,Roosevelt Hotel,Avenue,98101.0,Downtown,47.61233,-122.33432,1930,Hotel,71.0,4841347.5,59.19,98634.0,4931.7,0.89818
49,NonResidential,Hotel,Sheraton Seattle Hotel,Avenue,98101.0,Downtown,47.61087,-122.33339,1982,Hotel,63.0,80469216.0,2451.58,994212.0,29241.529,0.85245
50,NonResidential,Hotel,Inn at the Market,Street,98101.0,Downtown,47.60997,-122.34138,1985,Hotel,98.0,5348309.0,134.38,71150.0,10164.286,1.0
51,NonResidential,Hotel,Moore Hotel INC,Avenue,98101.0,Downtown,47.61155,-122.34114,1908,Hotel,99.0,5401277.5,227.18,122810.0,17544.286,1.0
52,NonResidential,Hotel,QUALITY INN,Street,98109.0,Lake Union,47.61986,-122.34413,1959,Hotel,86.0,5284343.5,144.79,113173.0,22634.6,0.62406
53,NonResidential,Hotel,Rainier Hospitality,Avenue,98109.0,Lake Union,47.62001,-122.34274,2000,Hotel,84.0,6715187.0,199.95,150453.0,21493.286,0.76913
54,NonResidential,Hotel,Sequim Lodging Corp,Avenue,98109.0,Lake Union,47.62025,-122.34314,1997,Hotel,80.0,5827595.5,162.39,116300.0,19383.333,0.75752
55,NonResidential,Hotel,Homewood Suites by Hilton Seattle Downtonw,Avenue,98119.0,Magnolia / Queen Anne,47.62023,-122.35951,1998,Hotel,81.0,6836900.0,152.76,155602.0,25933.667,0.76386
56,NonResidential,K-12 School,Seattle Hebrew Academy,Street,98136.0,East,47.63442,-122.30793,1911,K-12 School,76.0,3234787.75,146.34,56072.0,18690.667,1.0
57,NonResidential,Hotel,Comfort Suites Seattle Center,Street,98109.0,Magnolia / Queen Anne,47.62519,-122.34456,1999,Hotel,94.0,5337334.0,171.64,122942.0,30735.5,0.63486
58,NonResidential,Small- and Mid-Sized Office,Dept of Social & Health Services,Street,98122.0,Central,47.60823,-122.30956,1962,Office,71.0,3375211.0,87.98,54984.0,27492.0,1.0
59,NonResidential,Senior Care Community,PSSA - The Mount,Avenue,98126.0,Southwest,47.55837,-122.37751,1922,Senior Care Community,54.0,42792072.0,1727.11,217603.0,43520.6,1.0
60,NonResidential,Senior Care Community,Foss Home and Village,Avenue,98133.0,Northwest,47.72426,-122.35599,1970,Senior Care Community,1.0,16402563.0,609.1,93397.0,46698.5,1.0
61,NonResidential,Hotel,SCCA - ALLIANCE HOUSE,Avenue,98109.0,Lake Union,47.61988,-122.33211,2008,Hotel,74.0,3706100.25,67.06,84103.0,14017.167,0.75349
63,NonResidential,Medical Office,Polyclinic North && South,Avenue,98122.0,East,47.61244,-122.3214,1965,Medical Office,48.0,16701055.0,430.84,179014.0,59671.333,1.0
64,NonResidential,Hotel,Sorrento Hotel,Street,98104.0,East,47.60898,-122.32693,1908,Hotel,71.0,7258758.5,262.75,76631.0,10947.286,1.0
66,NonResidential,Retail Store,Firestone Store#012432,Avenue,98109.0,Lake Union,47.62237,-122.33805,1929,Retail Store,96.0,1049748.625,39.06,58320.0,29160.0,1.0
67,NonResidential,Large Office,City Place III - SEDO,Avenue,98109.0,Lake Union,47.62424,-122.33646,2010,Office,96.0,13795954.0,138.85,316306.0,63261.2,1.0
68,NonResidential,Hotel,Residence Inn Seattle - Lake Union,Avenue,98109.0,Lake Union,47.62642,-122.33325,1990,Hotel,37.0,19459304.0,526.85,282863.0,40409.0,0.84174
72,NonResidential,Large Office,City Place IV - SEDO,Avenue,98109.0,Lake Union,47.62112,-122.33629,2010,Office,91.0,39605888.0,617.52,571329.0,47610.75,1.0
77,NonResidential,Large Office,Bill and Melinda Gates Foundation,Avenue,98109.0,Magnolia / Queen Anne,47.62419,-122.34443,2010,Office,93.0,36667044.0,674.09,920598.0,153433.0,0.6701
78,NonResidential,Small- and Mid-Sized Office,J.G. Scripps Building,Avenue,98033.0,Magnolia / Queen Anne,47.62053,-122.35842,1970,Office,68.0,3476212.5,48.76,76213.0,19053.25,0.65977
79,NonResidential,Hotel,MEDITERRANEAN INN (ID#116),Avenue,98109.0,Magnolia / Queen Anne,47.62291,-122.35708,2002,Hotel,56.0,5155568.5,152.14,96910.0,16151.667,0.61888
80,NonResidential,Hotel,UNIVERSITY INN,Way,98105.0,Northeast,47.65772,-122.31756,1962,Hotel,53.0,5448975.0,191.2,25008.5,12504.25,1.0
82,NonResidential,K-12 School,St. Joseph K-8 School,Avenue,98112.0,East,47.62548,-122.30828,1923,K-12 School,34.0,2646879.0,78.85,67743.0,22581.0,1.0
83,NonResidential,K-12 School,Holy Names Academy,Avenue,98112.0,East,47.62644,-122.30429,1908,K-12 School,100.0,6219841.5,243.23,194104.0,32350.667,1.0
84,NonResidential,Small- and Mid-Sized Office,2100 Building,Avenue,98144.0,Southeast,47.58408,-122.30125,2003,Office,63.0,4897760.0,34.14,99433.0,33144.333,0.64044
91,NonResidential,Hotel,Holiday Inn Express North Seattle Shoreline,Avenue,98133.0,Northwest,47.73141,-122.3458,2001,Hotel,89.0,3611538.0,127.29,51390.0,12847.5,1.0
93,SPS-District K-12,K-12 School,Ingraham High,Street,98133.0,Northwest,47.7257,-122.33684,1959,K-12 School,92.0,11765682.0,443.73,245587.0,245587.0,1.0
94,NonResidential,Hotel,7066-Seattle-Northgate,Avenue,98133.0,Northwest,47.72551,-122.3423,2002,Hotel,78.0,3242458.0,89.02,69138.0,23046.0,1.0
96,NonResidential,Hotel,Alexis Hotel,Avenue,98104.0,Downtown,47.6048,-122.3368,1904,Hotel,98.0,6505995.0,142.39,190980.0,38196.0,1.0
98,NonResidential,Hospital,Swedish Ballard,Avenue,98107.0,Ballard,47.66737,-122.37956,1954,Hospital (General Medical & Surgical),14.0,68090728.0,1990.5,71333.25,57066.6,1.0
102,NonResidential,Hotel,Hampton Inn Seattle Center,Avenue,98109.0,Magnolia / Queen Anne,47.62614,-122.3467,1996,Hotel,76.0,7946961.0,228.4,162222.0,40555.5,0.91247
115,NonResidential,Residence Hall,Emerson Hall,Others,98119.0,Magnolia / Queen Anne,47.65068,-122.36331,2001,Residence Hall/Dormitory,89.0,4448582.5,129.39,139600.0,34900.0,0.73138
116,SPS-District K-12,K-12 School,Nathan Hale High,Avenue,98125.0,North,47.70763,-122.29453,2011,K-12 School,96.0,8355988.5,222.78,236758.0,118379.0,1.0
120,NonResidential,Small- and Mid-Sized Office,Emerald Services,Way,98108.0,Greater Duwamish,47.536,-122.31768,2007,Office,21.0,3242077.75,49.58,64015.0,21338.333,1.0
121,NonResidential,Retail Store,Northgate Mall,Way,98125.0,North,47.70759,-122.3255,1951,Retail Store,98.0,27717034.0,723.47,530039.0,530039.0,1.0
123,NonResidential,Retail Store,Nordstrom Northgate 002,Way,98125.0,North,47.70619,-122.32586,1965,Retail Store,76.0,8765978.0,66.3,124342.0,31085.5,1.0
124,NonResidential,Hospital,Seattle Children's Hospital Main Campus,Way,98105.0,Northeast,47.66231,-122.28146,1953,Hospital (General Medical & Surgical),10.0,253832464.0,8145.52,146500.0,87900.0,1.0
125,NonResidential,Other,Verity Credit Union,Others,98133.0,Northwest,47.70956,-122.3345,1996,Financial Office,72.0,3191228.25,83.7,55442.0,18480.667,1.0
131,NonResidential,Warehouse,Rainier Bottling Plant,Way,98108.0,Greater Duwamish,47.55152,-122.31869,1904,Non-Refrigerated Warehouse,61.0,2100097.75,69.44,114297.0,28574.25,1.0
134,NonResidential,Warehouse,8109,Avenue,98134.0,Greater Duwamish,47.55901,-122.33328,1937,Non-Refrigerated Warehouse,87.0,6744317.0,297.43,234144.0,234144.0,1.0
135,NonResidential,Retail Store,Westwood Village - Building A,Street,98126.0,Delridge,47.52254,-122.36627,1966,Retail Store,72.0,2944296.25,35.78,64984.0,64984.0,1.0
136,NonResidential,Retail Store,Westwood Village - Building B,Street,98126.0,Delridge,47.52254,-122.36627,1965,Retail Store,37.0,9230223.0,369.14,67745.0,67745.0,1.0
137,SPS-District K-12,K-12 School,Denny/Sealth Campus,Street,98126.0,Delridge,47.52915,-122.36511,2010,K-12 School,97.0,12265516.0,272.85,367884.0,183942.0,1.0
144,NonResidential,Hotel,Silver Cloud Inn,Avenue,98109.0,Lake Union,47.62972,-122.32906,1998,Hotel,79.0,9373179.0,309.6,123920.0,24784.0,0.75791
147,NonResidential,Hotel,311jk-Seattle Downtown/Lake Union CY,Avenue,98109.0,Magnolia / Queen Anne,47.62782,-122.34045,1998,Hotel,76.0,11171988.0,338.16,207656.0,29665.143,0.73831
151,NonResidential,Hotel,Hotel Nexus,Way,98133.0,Northwest,47.70916,-122.33216,1968,Hotel,70.0,6197825.0,208.26,64893.0,16223.25,1.0
154,NonResidential,Small- and Mid-Sized Office,Washington Park Building,Street,98104.0,Downtown,47.60105,-122.33518,1900,Office,78.0,1677002.25,28.27,44558.0,14852.667,1.0
159,NonResidential,Hotel,Silver Cloud Hotel - Stadium,Avenue,98134.0,Greater Duwamish,47.59269,-122.33372,2005,Hotel,64.0,12726789.0,388.37,168449.0,18716.556,0.91352
160,NonResidential,Warehouse,Harbor Island: Warehouse E - DNRP-SWD,Avenue,98134.0,Greater Duwamish,47.57507,-122.35747,1916,Non-Refrigerated Warehouse,34.0,2411402.25,16.81,79600.0,19900.0,1.0
167,NonResidential,Hospital,Swedish Cherry Hill,Avenue,98122.0,Central,47.60705,-122.30966,1990,Hospital (General Medical & Surgical),34.0,143423024.0,4906.33,99586.5,119503.8,1.0
169,NonResidential,Warehouse,27020-Seattle / Stone Way North,Street,98103.0,Lake Union,47.65097,-122.34227,1991,Non-Refrigerated Warehouse,91.0,549181.375,9.63,75397.0,25132.333,0.89176
170,NonResidential,Hospital,Harborview Medical Center,Avenue,98104.0,East,47.60399,-122.32377,2000,Hospital (General Medical & Surgical),29.0,293090784.0,10734.57,128743.444,144836.375,1.0
174,NonResidential,K-12 School,University HTS Grade School,Way,98105.0,Northeast,47.66568,-122.31368,1928,K-12 School,98.0,1377627.0,72.88,55653.0,27826.5,1.0
175,NonResidential,Hotel,Hotel Deca,Avenue,98105.0,Northeast,47.66151,-122.31457,1931,Hotel,49.0,11935719.0,469.57,106860.0,6678.75,1.0
176,NonResidential,Small- and Mid-Sized Office,Lake City Center,Way,98125.0,North,47.71895,-122.29475,1972,Office,62.0,3147042.0,49.09,50759.0,10151.8,1.0
177,NonResidential,Worship Facility,University Congregational United Church of Christ,Avenue,98105.0,Northeast,47.66182,-122.31113,1952,Worship Facility,46.0,2439484.75,84.57,56772.0,28386.0,1.0
178,NonResidential,Worship Facility,University Presbyterian Church,Avenue,98105.0,Northeast,47.6626,-122.31164,1952,Worship Facility,42.0,4854429.5,149.93,103000.0,34333.333,1.0
186,NonResidential,Residence Hall,Women's Residence at Seneca,Avenue,98101.0,Downtown,47.6079,-122.33266,1913,Residence Hall/Dormitory,76.0,5572503.0,254.87,107572.0,11952.444,1.0
193,NonResidential,Medical Office,BMR-201 Elliott Avenue LLC,Avenue,98119.0,Magnolia / Queen Anne,47.61972,-122.36033,1927,Medical Office,1.0,28731502.0,661.04,190000.0,38000.0,0.79474
194,NonResidential,Hotel,Edgewater Seattle,Way,98121.0,Downtown,47.6124,-122.35075,1961,Hotel,8.0,25453690.0,1060.13,122309.0,30577.25,1.0
196,NonResidential,Hotel,337v2-Seattle Waterfront Marriott,Way,98121.0,Downtown,47.61069,-122.34653,2003,Hotel,29.0,26659244.0,780.84,254273.0,31784.125,0.84741
199,NonResidential,Small- and Mid-Sized Office,Daily Journal Building,Street,98104.0,Downtown,47.60271,-122.33557,1914,Office,98.0,1380293.625,44.22,56500.0,14125.0,1.0
200,NonResidential,Warehouse,(ID320) BMW SEATTLE - SERVICE CENTER,Avenue,98134.0,Greater Duwamish,47.59486,-122.32455,2008,Non-Refrigerated Warehouse,72.0,3785282.5,26.39,203504.0,50876.0,1.0
201,NonResidential,Large Office,Cox Media Group Seattle KIRO TV (322),Avenue,98121.0,Downtown,47.61757,-122.35122,1968,Office,20.0,9788717.0,68.24,100734.0,33578.0,0.73464
202,NonResidential,Small- and Mid-Sized Office,200 Cedar Street Building,Street,98121.0,Downtown,47.61703,-122.35012,1981,Office,57.0,5007401.0,68.19,77662.0,19415.5,0.76174
203,NonResidential,Large Office,Fourth and Battery,Avenue,98121.0,Downtown,47.61619,-122.34599,1978,Office,39.0,18661606.0,149.27,234000.0,19500.0,0.90688
204,NonResidential,Large Office,Westlake Tower,Avenue,98101.0,Downtown,47.61217,-122.33694,1989,Office,74.0,24755086.0,172.58,369996.0,14799.84,1.0
205,NonResidential,Retail Store,Nordstrom 001,Street,98101.0,Downtown,47.61229,-122.33629,1925,Retail Store,93.0,40062888.0,398.19,693450.0,69345.0,1.0
206,NonResidential,Large Office,1600 Seventh,Avenue,98191.0,Downtown,47.61316,-122.3343,1976,Office,89.0,40847752.0,313.3,791396.0,23981.697,1.0
207,NonResidential,Large Office,1700 Seventh Ave,Others,98101.0,Downtown,47.61399,-122.33523,2000,Office,90.0,30985420.0,359.11,747747.0,32510.739,0.72574
208,NonResidential,Small- and Mid-Sized Office,Lloyd building,Street,98101.0,Downtown,47.61356,-122.33665,1926,Office,90.0,3444270.0,170.51,63409.0,6340.9,0.87767
209,NonResidential,Large Office,The Tower Building,Avenue,98101.0,Downtown,47.61375,-122.33566,1930,Office,91.0,7739699.0,100.26,204790.0,12046.471,0.85351
210,NonResidential,Small- and Mid-Sized Office,Times Square Building,Street,98101.0,Downtown,47.61256,-122.33808,1916,Office,61.0,3757006.0,26.19,73399.0,14679.8,1.0
211,NonResidential,Large Office,Plaza 600,Street,98101.0,Downtown,47.61391,-122.33725,1969,Office,90.0,14633233.0,563.25,265851.0,13292.55,0.87838
212,NonResidential,Large Office,West 8th,Avenue,98121.0,Downtown,47.61578,-122.33726,2009,Office,95.0,27018020.0,229.25,758043.0,30321.72,0.69834
213,NonResidential,Large Office,Denny Building,Avenue,98121.0,Downtown,47.61641,-122.34112,1968,Office,91.0,8580279.0,222.19,206000.0,17166.667,1.0
214,NonResidential,Large Office,1918 Eighth Avenue,Avenue,98101.0,Downtown,47.61555,-122.33582,2009,Office,97.0,39523852.0,275.54,824887.0,22913.528,0.81213
215,NonResidential,Large Office,1800 Ninth,Avenue,98101.0,Downtown,47.61516,-122.33303,1990,Office,94.0,17867002.0,130.73,480840.0,30052.5,0.70552
216,NonResidential,Small- and Mid-Sized Office,Broderick Building,Avenue,98104.0,Downtown,47.60266,-122.33332,1900,Office,85.0,3903259.75,51.67,89550.0,12792.857,1.0
217,NonResidential,Small- and Mid-Sized Office,The Pioneer Building,Avenue,98104.0,Downtown,47.60219,-122.33347,1900,Office,66.0,4178233.5,31.97,89355.0,14892.5,1.0
218,NonResidential,Large Office,Dexter Horton Building,Avenue,98104.0,Downtown,47.6036,-122.33288,1922,Office,89.0,18576900.0,213.23,388934.0,25928.933,1.0
219,NonResidential,Large Office,Seattle Exchange Building,Avenue,98104.0,Downtown,47.60403,-122.33497,1929,Office,98.0,10062436.0,70.15,384302.0,17468.273,1.0
220,NonResidential,Large Office,Norton Building,Avenue,98104.0,Downtown,47.6037,-122.33447,1958,Office,69.0,24906132.0,940.47,378525.0,22266.176,0.7765
221,NonResidential,Large Office,999 Third Avenue,Avenue,98104.0,Downtown,47.60505,-122.33427,1983,Office,94.0,44683660.0,318.97,1323055.0,28150.106,1.0
222,NonResidential,Large Office,1000 Second Avenue,Avenue,98104.0,Downtown,47.60567,-122.33511,1986,Office,84.0,24603420.0,171.52,589921.0,14388.317,0.78059
224,NonResidential,Large Office,1101 Second Avenue (HOB),Avenue,98101.0,Downtown,47.60581,-122.33664,1968,Office,81.0,3743228.5,26.1,157941.0,19742.625,0.60116
225,NonResidential,Large Office,2nd and Seneca,Avenue,98101.0,Downtown,47.60614,-122.33674,1991,Office,95.0,18221224.0,139.72,635303.0,21907.0,0.68955
227,NonResidential,Large Office,1111 Third Avenue,Avenue,98101.0,Downtown,47.60655,-122.33533,1980,Office,81.0,32552428.0,231.32,776762.0,22845.941,0.79066
228,NonResidential,Large Office,Abraham Lincoln Building (Wallysons Inc),Avenue,98101.0,Downtown,47.60671,-122.33456,1972,Office,95.0,9641043.0,218.53,186768.0,13340.571,0.8727
229,NonResidential,Large Office,Safeco Plaza,Avenue,98154.0,Downtown,47.60615,-122.33388,1969,Office,89.0,45163308.0,627.87,1123435.0,22927.245,0.67156
230,NonResidential,Large Office,Fourth & Madison,Avenue,98104.0,Downtown,47.60549,-122.33319,2002,Office,93.0,41213584.0,287.32,1052469.0,28445.108,0.84378
231,NonResidential,Large Office,901 Fifth Avenue,Avenue,98164.0,Downtown,47.60616,-122.33165,1973,Office,28.0,69519808.0,546.65,617684.0,14706.762,0.72235
232,NonResidential,Large Office,The Central Building,Avenue,98104.0,Downtown,47.60471,-122.33261,1907,Office,91.0,8921778.0,175.95,201480.0,25185.0,1.0
233,Nonresidential COS,Large Office,Seattle Municipal Tower (2030),Avenue,98104.0,Downtown,47.60501,-122.32988,1990,Office,89.0,61576184.0,429.27,1354987.0,21507.73,0.88221
235,Nonresidential COS,Large Office,City Hall,Avenue,98104.0,Downtown,47.60377,-122.32971,2003,Office,69.0,13214416.0,298.61,199530.0,24941.25,0.84634
236,NonResidential,Large Office,Chinook Building,Avenue,98104.0,Downtown,47.60249,-122.32854,2006,Office,98.0,13843866.0,216.24,372242.0,28634.0,0.85842
237,NonResidential,Large Office,Yesler Building,Way,98104.0,Downtown,47.60193,-122.32812,1909,Office,99.0,2746560.75,70.17,114395.0,16342.143,0.92748
238,NonResidential,Retail Store,University Book Store,Way,98105.0,Northeast,47.66024,-122.31278,1978,Retail Store,83.0,6461937.0,89.47,89200.0,44600.0,1.0
239,NonResidential,Large Office,UW Tower Bldg Complex,Avenue,98195.0,Northeast,47.66072,-122.31466,1971,Office,77.0,28450436.0,198.34,474546.0,20632.435,1.0
240,NonResidential,Other,UW Tower Data Center,Avenue,98185.0,Northeast,47.6606,-122.31512,1969,Data Center,96.0,30038490.0,209.41,36000.0,7200.0,1.0
241,NonResidential,Small- and Mid-Sized Office,University District Office Buiding,Street,98105.0,Northeast,47.661,-122.31626,1961,Office,70.0,4728488.5,119.03,99005.0,19801.0,1.0
242,NonResidential,Large Office,4311 Roosevelt,Avenue,98105.0,Northeast,47.66065,-122.31689,2002,Office,88.0,4426136.0,30.86,135051.0,22508.5,0.67236
243,NonResidential,Large Office,4300 Roosevelt,Way,98105.0,Northeast,47.65999,-122.31741,2002,Office,93.0,7046345.5,49.12,220649.0,44129.8,0.62511
245,NonResidential,Large Office,Metropolitan Park West,Way,98101.0,Downtown,47.61597,-122.33086,1980,Office,79.0,24224888.0,168.88,413715.0,22984.167,0.84371
246,NonResidential,Mixed Use Property,METROPOLITAN PARK NORTH (ID371),Street,98101.0,Downtown,47.6177,-122.3306,2000,Parking,94.0,9765777.0,72.42,381381.0,34671.0,0.48707
247,NonResidential,Large Office,Metropolitan Park East,Avenue,98101.0,Downtown,47.61695,-122.32965,1988,Office,65.0,26823218.0,197.19,497513.0,24875.65,0.76132
248,NonResidential,Large Office,Fourth and Blanchard,Avenue,98121.0,Downtown,47.61431,-122.34244,1979,Office,79.0,25307744.0,176.43,543876.0,22661.5,0.78539
250,NonResidential,Large Office,Third and Broad,Avenue,98121.0,Downtown,47.6182,-122.352,1982,Office,64.0,20361158.0,141.95,396626.0,66104.333,0.68682
251,NonResidential,Large Office,5th and Bell,Avenue,98121.0,Downtown,47.61598,-122.34369,2002,Office,74.0,14913424.0,103.97,287471.0,47911.833,0.70922
252,NonResidential,Large Office,Fifth and Wall LLC,Street,98121.0,Downtown,47.61734,-122.34434,1947,Office,94.0,5357833.0,46.03,192630.0,64210.0,0.74816
253,NonResidential,Large Office,3101 Western Avenue,Avenue,98121.0,Downtown,47.6176,-122.35686,1984,Office,3.0,29949248.0,208.79,253103.0,31637.875,0.7551
254,NonResidential,Supermarket / Grocery Store,70500872 -- Holman Road,Others,98117.0,Northwest,47.7019,-122.36374,1956,Supermarket/Grocery Store,54.0,14293972.0,384.27,60880.0,60880.0,1.0
255,NonResidential,Small- and Mid-Sized Office,Collins Building,Avenue,98104.0,Downtown,47.60227,-122.33202,1900,Office,77.0,2933288.75,24.91,50176.0,10035.2,1.0
256,NonResidential,Large Office,Smith Tower,Avenue,98104.0,Downtown,47.60198,-122.33174,1912,Office,72.0,23262244.0,741.3,304346.0,7246.333,1.0
257,NonResidential,Warehouse,Dawn Food Products,Avenue,98108.0,Greater Duwamish,47.54066,-122.33023,1977,Non-Refrigerated Warehouse,97.0,1809101.5,78.92,128800.0,128800.0,1.0
258,NonResidential,Large Office,Skinner Building,Avenue,98101.0,Downtown,47.60932,-122.33388,1927,Office,76.0,13656587.0,355.05,321945.0,40243.125,1.0
259,NonResidential,Large Office,IBM-COS,Avenue,98101.0,Downtown,47.60842,-122.33305,1964,Office,77.0,18967014.0,530.66,336330.0,15287.727,1.0
260,NonResidential,Large Office,Puget Sound Plaza,Avenue,98101.0,Downtown,47.60869,-122.33588,1960,Office,79.0,27076922.0,1084.79,298426.0,14210.762,1.0
261,NonResidential,Large Office,Rainier Tower,Avenue,98101.0,Downtown,47.60896,-122.33481,1976,Office,69.0,48479988.0,337.97,635824.0,15138.667,1.0
262,NonResidential,Hotel,Fairmont Olympic Seattle,Street,98101.0,Downtown,47.60804,-122.33391,1923,Hotel,45.0,56485204.0,2573.75,542305.0,45192.083,1.0
263,NonResidential,Retail Store,RAINIER ELECTRONICS LLC,Avenue,98144.0,Southeast,47.57936,-122.29744,1980,Retail Store,80.0,11688601.0,162.45,291940.0,145970.0,1.0
264,NonResidential,Mixed Use Property,Thaw Building,Others,98108.0,Greater Duwamish,47.52871,-122.29443,1970,Non-Refrigerated Warehouse,42.0,4383100.5,116.03,88400.0,88400.0,1.0
265,NonResidential,Warehouse,Linden Bldg,Street,98133.0,Northwest,47.72912,-122.34677,1960,Non-Refrigerated Warehouse,96.0,930611.875,48.65,52311.0,52311.0,1.0
267,NonResidential,Large Office,501 Eastlake Ave. (ID394) Republican Building,Avenue,98109.0,Lake Union,47.62333,-122.3296,2001,Office,60.0,5803409.0,40.46,176532.0,35306.4,0.60309
268,NonResidential,Warehouse,Ferguson Terminal,Avenue,98107.0,Ballard,47.65825,-122.3683,1973,Non-Refrigerated Warehouse,2.0,3989399.0,70.47,52500.0,52500.0,1.0
269,NonResidential,Warehouse,SBC396,Avenue,98107.0,Ballard,47.66587,-122.38476,1959,Non-Refrigerated Warehouse,55.0,4560492.0,156.67,57300.0,28650.0,1.0
270,NonResidential,Large Office,2601 Elliott Avenue,Avenue,98121.0,Downtown,47.61429,-122.35263,1916,Office,90.0,18102026.0,224.36,350310.0,58385.0,1.0
271,NonResidential,Large Office,1201 Third Avenue,Avenue,98101.0,Downtown,47.60723,-122.33611,1988,Office,92.0,53079164.0,588.9,1400000.0,25454.545,0.79643
272,NonResidential,Hotel,WAC aggregate,Avenue,98101.0,Downtown,47.60968,-122.33379,1930,Hotel,58.0,33729336.0,1510.85,305548.0,14549.905,1.0
273,NonResidential,Large Office,US Bank Centre,Avenue,98101.0,Downtown,47.61054,-122.33466,1989,Office,89.0,56606136.0,530.18,1536606.0,33404.478,0.6664
274,NonResidential,Large Office,Logan Building,Street,98101.0,Downtown,47.61003,-122.33452,1958,Office,91.0,6423556.5,193.72,135918.0,13591.8,1.0
275,NonResidential,Retail Store,O'Shea Building,Street,98101.0,Downtown,47.61159,-122.33601,1914,Retail Store,25.0,5252131.0,36.61,79957.0,19989.25,1.0
277,NonResidential,Large Office,520 Pike Tower,Street,98101.0,Downtown,47.61125,-122.33494,1983,Office,93.0,18848780.0,131.4,500000.0,17241.379,1.0
278,NonResidential,Large Office,Fourth and Pike Building,Avenue,98101.0,Downtown,47.61005,-122.3361,1926,Office,72.0,6029020.0,65.2,132326.0,13232.6,1.0
279,NonResidential,Large Office,Washington Federal,Street,98101.0,Downtown,47.61033,-122.3357,1984,Office,45.0,7335905.5,51.14,109830.0,18305.0,0.87981
280,NonResidential,Hotel,Motif Seattle,Avenue,98101.0,Downtown,47.60996,-122.33572,1973,Hotel,6.0,37785552.0,1468.5,332067.0,17477.211,0.82148
281,NonResidential,Large Office,Joshua Green Building,Avenue,98101.0,Downtown,47.60991,-122.33687,1910,Office,49.0,11651200.0,318.08,130513.0,13051.3,1.0
283,NonResidential,Large Office,(ID413) JOSEPH VANCE BLDG,Avenue,98101.0,Downtown,47.60902,-122.33674,1929,Office,89.0,6366084.5,202.99,137350.0,9810.714,1.0
284,NonResidential,Large Office,Onni 1411 Fourth Development LP,Avenue,98101.0,Downtown,47.60923,-122.33625,1929,Office,84.0,5446624.0,238.09,151039.0,10069.267,1.0
285,NonResidential,Large Office,Century Square - COS Compliance,Avenue,98101.0,Downtown,47.61022,-122.33745,1985,Office,72.0,52226204.0,793.05,755000.0,25166.667,0.82164
286,NonResidential,Small- and Mid-Sized Office,Chromer Building,Avenue,98101.0,Downtown,47.60995,-122.33904,1906,Office,72.0,3518459.5,74.83,63540.0,15885.0,1.0
287,NonResidential,Large Office,Melbourne Tower,Avenue,98101.0,Downtown,47.60987,-122.33824,1927,Office,80.0,6962073.0,48.54,130893.0,13089.3,1.0
292,NonResidential,Large Office,Two Union Square,Street,98101.0,Downtown,47.61043,-122.33206,1989,Office,97.0,49517704.0,525.78,1605578.0,28671.036,0.75718
293,NonResidential,Large Office,One Union Square,Street,98101.0,Downtown,47.60967,-122.33229,1980,Office,96.0,26689658.0,216.43,794592.0,22072.0,1.0
294,NonResidential,Large Office,PARK PLACE OFFICE BLDG (ID424),Avenue,98101.0,Downtown,47.60909,-122.33202,1971,Office,74.0,19397324.0,135.23,456304.0,21728.762,0.79574
295,NonResidential,Large Office,First and Stewart,Street,98101.0,Downtown,47.61029,-122.34089,1986,Office,89.0,4757299.5,33.17,115857.0,9654.75,0.86932
296,NonResidential,Small- and Mid-Sized Office,World Trade Center West,Way,98121.0,Downtown,47.61116,-122.34748,1999,Office,72.0,4549892.0,31.72,87500.0,21875.0,0.8
297,NonResidential,Large Office,World Trade Center East-Seattle,Avenue,98121.0,Downtown,47.6117,-122.34778,1998,Office,72.0,13329024.0,92.92,374405.0,34036.818,0.50648
299,NonResidential,Large Office,Terminal Sales Building,Avenue,98101.0,Downtown,47.61108,-122.34217,1923,Office,96.0,5327249.5,281.55,102846.0,9349.636,1.0
300,NonResidential,Small- and Mid-Sized Office,The Marshall Building,Avenue,98121.0,Downtown,47.61304,-122.34059,1925,Office,83.0,2429021.0,44.48,52800.0,13200.0,1.0
306,NonResidential,Medical Office,VM Seattle Hospital & Medical Center - Lindeman Pavilion,Street,98101.0,East,47.61048,-122.32837,1945,Medical Office,65.0,13911761.0,201.15,266000.0,88666.667,0.60902
307,NonResidential,Medical Office,1101 Madison Tower,Others,98104.0,East,47.60921,-122.32425,1992,Medical Office,58.0,21156670.0,147.49,690158.0,49297.0,0.40913
308,NonResidential,Mixed Use Property,Fisher Plaza - East Building,Avenue,98109.0,Lake Union,47.61915,-122.34857,2001,Parking,100.0,55073120.0,456.22,378443.0,63073.833,0.53055
309,NonResidential,Mixed Use Property,Fisher Plaza - West Building,Avenue,98109.0,Lake Union,47.61915,-122.34857,2001,Parking,100.0,75073888.0,530.59,213834.0,35639.0,0.50933
310,NonResidential,Hotel,Best Western Executive Inn,Avenue,98109.0,Lake Union,47.62036,-122.34588,1979,Hotel,34.0,9474745.0,243.66,109017.0,21803.4,0.73023
311,NonResidential,Large Office,Elliott Bay Office Park,Avenue,98119.0,Magnolia / Queen Anne,47.62177,-122.36158,1981,Office,77.0,16373232.0,114.14,275734.0,55146.8,0.86055
312,NonResidential,Warehouse,FedEX van Terminal,Street,98104.0,Greater Duwamish,47.56064,-122.32522,2001,Non-Refrigerated Warehouse,59.0,1987934.625,13.86,123061.0,123061.0,1.0
313,NonResidential,Distribution Center,Washington State Ferries Building,Avenue,98108.0,Greater Duwamish,47.54868,-122.3255,1963,Distribution Center,45.0,2756214.75,117.11,59090.0,59090.0,1.0
314,NonResidential,Warehouse,NWCP-SEA Sylv Bldg,Street,98108.0,Greater Duwamish,47.5471,-122.32406,1963,Non-Refrigerated Warehouse,93.0,763364.5,5.32,106000.0,106000.0,1.0
315,NonResidential,Large Office,1551 Eastlake,Avenue,98102.0,Lake Union,47.63349,-122.32634,1962,Office,19.0,18309150.0,236.9,158600.0,52866.667,0.75788
316,NonResidential,Distribution Center,Frye Distribution Center,Street,98108.0,Greater Duwamish,47.53764,-122.3232,1960,Distribution Center,97.0,775729.1875,5.44,119661.0,119661.0,1.0
317,NonResidential,Large Office,1144 Eastlake Building,Avenue,98109.0,Lake Union,47.62958,-122.32826,2001,Office,81.0,4342597.0,30.27,139200.0,19885.714,0.67868
318,NonResidential,Small- and Mid-Sized Office,701 Dexter,Avenue,98119.0,Magnolia / Queen Anne,47.62566,-122.34287,1984,Office,95.0,3063504.5,21.36,95721.0,15953.5,0.64563
319,NonResidential,Large Office,1100 Dexter-RREEF SeaDPD ID 456,Avenue,98109.0,Magnolia / Queen Anne,47.62929,-122.34194,1996,Office,83.0,5661689.5,39.47,106641.5,42656.6,0.45974
320,NonResidential,Large Office,1441 N. 34th Street,Street,98103.0,Lake Union,47.64776,-122.33924,2001,Office,7.0,11319836.0,374.92,103697.0,34565.667,0.54043
321,NonResidential,Small- and Mid-Sized Office,Northgate Exec Center B,Street,98125.0,North,47.70105,-122.32659,1974,Office,56.0,5134607.5,35.8,74880.0,14976.0,1.0
322,NonResidential,Small- and Mid-Sized Office,Northgate Exec Center C,Avenue,98115.0,North,47.69999,-122.32663,1979,Office,53.0,6029121.5,42.03,88774.0,14795.667,1.0
323,NonResidential,Large Office,Northgate Plaza,Avenue,98115.0,North,47.69917,-122.3268,1983,Office,93.0,5535626.0,38.59,122250.0,24450.0,1.0
324,NonResidential,Small- and Mid-Sized Office,Northgate Office Building,Avenue,98115.0,North,47.70063,-122.32487,1979,Office,20.0,4742869.0,33.06,53730.0,13432.5,1.0
325,NonResidential,Small- and Mid-Sized Office,Delridge Building,Way,98101.0,Delridge,47.5671,-122.36416,1960,Office,55.0,4224872.5,93.23,55593.0,18531.0,1.0
326,NonResidential,Large Office,425 Pontius,Avenue,98109.0,Lake Union,47.62269,-122.33224,1982,Office,54.0,4695139.0,32.73,134056.0,33514.0,0.54526
327,NonResidential,Retail Store,Costco #0001 Seattle,Avenue,98199.0,Greater Duwamish,47.5653,-122.33076,2005,Retail Store,25.0,22394416.0,454.49,158415.0,158415.0,1.0
330,NonResidential,Small- and Mid-Sized Office,Queen Anne Plaza,Avenue,98109.0,Magnolia / Queen Anne,47.62003,-122.35706,1985,Office,81.0,2991674.75,20.86,86995.0,21748.75,0.66895
331,NonResidential,Retail Store,70100608-Ballard,Street,98107.0,Ballard,47.66057,-122.36857,1999,Retail Store,62.0,18390344.0,326.18,164437.0,164437.0,1.0
332,NonResidential,Large Office,Interurban Exchange II - SEDO,Avenue,98109.0,Lake Union,47.62402,-122.33755,2009,Office,95.0,5671256.0,40.47,184482.0,36896.4,0.64097
335,NonResidential,Large Office,428 Westlake,Avenue,98109.0,Lake Union,47.62286,-122.33804,2004,Office,96.0,3238216.0,22.57,139282.0,23213.667,0.62248
336,NonResidential,Large Office,City Place II - SEDO,Avenue,98109.0,Lake Union,47.62383,-122.3356,2009,Office,96.0,7851334.5,61.93,271071.0,54214.2,0.63589
337,NonResidential,Warehouse,08185-Lake Union,Avenue,98109.0,Lake Union,47.62572,-122.33389,1914,Non-Refrigerated Warehouse,56.0,2767491.0,29.53,127800.0,25560.0,1.0
338,NonResidential,Large Office,Arnold Building,Avenue,98109.0,Lake Union,47.62855,-122.33035,2002,Office,71.0,30083496.0,632.4,560516.0,112103.2,0.63142
339,NonResidential,Large Office,Yale,Avenue,98109.0,Lake Union,47.62621,-122.33128,2001,Office,49.0,11963428.0,94.64,226592.0,37765.333,0.58074
342,NonResidential,Large Office,Westlake Terry - East SEDO,Avenue,98109.0,Lake Union,47.62137,-122.33744,2006,Office,97.0,6917478.5,122.68,209816.0,52454.0,0.64887
343,NonResidential,Large Office,Westlake Terry - West SEDO,Avenue,98109.0,Lake Union,47.62131,-122.33814,2006,Office,97.0,7519466.5,69.59,303103.0,50517.167,0.6374
344,NonResidential,Mixed Use Property,Fred Rogers Building,Street,98109.0,Lake Union,47.62002,-122.33687,1954,Non-Refrigerated Warehouse,66.0,2755829.0,74.1,67380.0,22460.0,1.0
347,NonResidential,Small- and Mid-Sized Office,200 West Thomas,Street,98119.0,Magnolia / Queen Anne,47.62115,-122.3597,1974,Office,80.0,3415561.25,23.81,88062.0,17612.4,0.76351
348,NonResidential,Small- and Mid-Sized Office,North Tower,Street,98119.0,Magnolia / Queen Anne,47.62224,-122.3585,1972,Office,69.0,3632613.75,25.32,87178.0,17435.6,0.76581
349,NonResidential,Small- and Mid-Sized Office,South Tower,Street,98119.0,Magnolia / Queen Anne,47.62224,-122.3585,1970,Office,86.0,3493093.75,24.35,87178.0,17435.6,0.76581
350,NonResidential,Small- and Mid-Sized Office,200 First Ave W,Avenue,98119.0,Magnolia / Queen Anne,47.62014,-122.35768,1971,Office,75.0,3484915.5,24.29,88000.0,17600.0,0.75455
351,NonResidential,Medical Office,4225 Roosevelt 2ros4225,Way,98105.0,Northeast,47.65821,-122.31831,1988,Medical Office,5.0,19165116.0,477.87,196749.0,49187.25,0.55067
352,NonResidential,Medical Office,4245 Roosevelt 2ros4245,Way,98105.0,Northeast,47.65884,-122.3183,1994,Medical Office,21.0,8422861.0,77.99,191276.0,47819.0,0.50187
354,NonResidential,Warehouse,08176-West Seattle,Way,98126.0,Southwest,47.56885,-122.37121,1997,Non-Refrigerated Warehouse,83.0,1090496.625,22.44,98475.0,24618.75,1.0
355,NonResidential,Hospital,SCCA,Avenue,98109.0,Lake Union,47.62667,-122.32965,2000,Hospital (General Medical & Surgical),23.0,42709624.0,1032.63,351530.0,50218.571,0.572
356,NonResidential,Supermarket / Grocery Store,70100179-Lake City,Way,98125.0,North,47.7237,-122.29232,1995,Supermarket/Grocery Store,78.0,14512786.0,277.98,308965.0,154482.5,0.39191
357,NonResidential,Supermarket / Grocery Store,RESTAURANT DEPOT SEATTLE (ID503),Way,98134.0,Greater Duwamish,47.56895,-122.33775,2008,Supermarket/Grocery Store,100.0,6522551.5,45.47,63225.0,63225.0,1.0
359,NonResidential,Warehouse,Skyline-East Marginal,Way,98134.0,Greater Duwamish,47.56419,-122.34262,1999,Non-Refrigerated Warehouse,100.0,1396082.25,41.8,243044.0,243044.0,1.0
362,NonResidential,Retail Store,W000252-NORTH SEATTLE WA,Avenue,98133.0,Northwest,47.72053,-122.34739,1997,Retail Store,72.0,8773058.0,110.46,131387.0,131387.0,1.0
363,NonResidential,Warehouse,0643-Seattle - North 130th Street,Street,98133.0,Northwest,47.72377,-122.34095,1999,Non-Refrigerated Warehouse,38.0,784364.5,10.24,94400.0,31466.667,1.0
365,NonResidential,Supermarket / Grocery Store,Sam's Club #18-6687,Avenue,98133.0,Northwest,47.72803,-122.34214,1984,Wholesale Club/Supercenter,56.0,13424079.0,237.39,144776.0,144776.0,1.0
366,NonResidential,Retail Store,AURORA ACRES (ID518),Avenue,98133.0,Northwest,47.7249,-122.34332,1967,Retail Store,79.0,17225444.0,553.27,114000.0,114000.0,1.0
367,NonResidential,Supermarket / Grocery Store,00410-Hwy 99 & 130th,Avenue,98133.0,Northwest,47.7235,-122.34458,1997,Supermarket/Grocery Store,78.0,8663691.0,158.92,50083.0,50083.0,1.0
368,NonResidential,Large Office,Burke Building,Street,98103.0,Lake Union,47.65086,-122.35412,1988,Office,73.0,4991360.5,34.9,124071.0,41357.0,0.76912
369,NonResidential,Small- and Mid-Sized Office,The Evanston Building,Street,98103.0,Lake Union,47.64963,-122.35158,2000,Office,84.0,3897738.0,27.17,90000.0,22500.0,0.59413
370,NonResidential,Small- and Mid-Sized Office,The Waterside Building,Street,98103.0,Lake Union,47.64849,-122.35041,2001,Office,70.0,5413418.0,37.74,96041.0,32013.667,0.64901
371,NonResidential,Large Office,Adobe Seattle,Others,98103.0,Lake Union,47.64822,-122.34848,1999,Office,96.0,11325513.0,94.47,280957.0,93652.333,0.59129
372,NonResidential,Large Office,Plaza 701 N 34th,Street,98103.0,Lake Union,47.64882,-122.34905,1999,Office,89.0,8651835.0,85.01,243334.0,60833.5,0.57658
374,NonResidential,Large Office,Seattle Design Center (Plaza Center),Avenue,98108.0,Greater Duwamish,47.55146,-122.32832,1982,Office,95.0,7683885.0,53.57,390295.0,78059.0,0.68902
375,NonResidential,Warehouse,Northwest Corporate Park,Avenue,98108.0,Greater Duwamish,47.54983,-122.32858,1967,Non-Refrigerated Warehouse,87.0,1429146.375,17.17,90000.0,45000.0,1.0
378,NonResidential,Warehouse,Magnum Building,Avenue,98107.0,Ballard,47.66724,-122.38553,1941,Non-Refrigerated Warehouse,100.0,227566.7031,8.15,63240.0,31620.0,1.0
381,NonResidential,Warehouse,Nickerson Street Self  Storage,Street,98119.0,Magnolia / Queen Anne,47.65567,-122.37478,1997,Non-Refrigerated Warehouse,94.0,1123943.0,25.58,106041.0,26510.25,1.0
383,NonResidential,Large Office,Fifth and Jackson,Avenue,98104.0,Downtown,47.59963,-122.32796,2002,Office,88.0,7637986.0,53.25,181694.0,18169.4,0.78983
385,NonResidential,Warehouse,NWCP-SEA Bldg K,Avenue,98108.0,Greater Duwamish,47.54769,-122.3251,1966,Non-Refrigerated Warehouse,33.0,402051.3125,2.8,22780.0,22780.0,1.0
386,NonResidential,Distribution Center,Seattle Distribution Center Bldg A,Way,98168.0,Greater Duwamish,47.54187,-122.32714,1967,Distribution Center,62.0,5464762.0,237.36,124472.0,124472.0,1.0
387,NonResidential,Large Office,Pacific Building,Avenue,98104.0,Downtown,47.60411,-122.33225,1970,Office,95.0,8493420.0,59.21,227556.0,10343.455,0.56689
388,NonResidential,Distribution Center,Seattle Distribution Center Bldg B,Way,98168.0,Greater Duwamish,47.54187,-122.32714,1967,Distribution Center,72.0,1529510.25,42.65,50065.0,50065.0,1.0
389,NonResidential,Distribution Center,GLACIER NORTHWEST (6335 1st Ave S),Avenue,98108.0,Greater Duwamish,47.54621,-122.33486,1969,Distribution Center,26.0,2582687.0,76.68,57540.0,57540.0,1.0
390,NonResidential,Warehouse,NWCP-SEA Bldg A,Street,98108.0,Greater Duwamish,47.54853,-122.32814,1966,Non-Refrigerated Warehouse,49.0,1536998.25,10.72,85400.0,85400.0,1.0
391,NonResidential,Warehouse,NWCP-SEA Bldg B,Avenue,98108.0,Greater Duwamish,47.54912,-122.32819,1966,Non-Refrigerated Warehouse,63.0,519806.0938,3.62,55700.0,55700.0,1.0
392,NonResidential,Small- and Mid-Sized Office,Resource Center,Avenue,98108.0,Greater Duwamish,47.54965,-122.3278,1964,Office,96.0,1794187.25,46.93,53250.0,53250.0,1.0
393,NonResidential,Small- and Mid-Sized Office,400 Mercer Street,Street,98109.0,Magnolia / Queen Anne,47.62476,-122.34843,1987,Office,98.0,2179719.75,28.63,78672.0,13112.0,0.63866
394,NonResidential,Warehouse,21517-Seattle / Aurora AVE N,Avenue,98133.0,Northwest,47.71286,-122.34422,1986,Non-Refrigerated Warehouse,89.0,325513.0,6.32,64660.0,21553.333,1.0
396,NonResidential,Distribution Center,South Seattle Distribution Center- 3800,Avenue,98134.0,Greater Duwamish,47.5701,-122.33342,1968,Distribution Center,25.0,9357230.0,204.81,161678.0,161678.0,1.0
397,NonResidential,Distribution Center,South Seattle Distribution Center- 3844,Avenue,98134.0,Greater Duwamish,47.56874,-122.33303,1949,Distribution Center,1.0,21795830.0,152.71,101101.0,101101.0,1.0
398,NonResidential,Distribution Center,South Seattle Distribution Center- 3601,Avenue,98134.0,Greater Duwamish,47.57023,-122.33241,1980,Distribution Center,80.0,1061458.25,32.02,52613.0,52613.0,1.0
401,NonResidential,Supermarket / Grocery Store,Safeway 1845 - Greenwood Ave,Avenue,98103.0,Northwest,47.69267,-122.35506,2003,Supermarket/Grocery Store,41.0,14715262.0,414.43,58184.0,58184.0,0.87196
402,NonResidential,Supermarket / Grocery Store,70500858 -- North Seattle,Street,98155.0,North,47.73315,-122.3105,1980,Supermarket/Grocery Store,37.0,11054535.0,272.54,58480.0,58480.0,1.0
403,NonResidential,Large Office,Alley24,Avenue,98109.0,Lake Union,47.62029,-122.33078,2005,Office,95.0,9058916.0,54.92,336700.0,56116.667,0.62934
404,NonResidential,Retail Store,011-Seattle,Avenue,98109.0,Lake Union,47.62,-122.33027,1996,Retail Store,42.0,9937707.0,190.61,264008.0,66002.0,0.39398
405,NonResidential,Small- and Mid-Sized Office,Darigold HQ,Avenue,98144.0,Central,47.59367,-122.30957,1914,Office,32.0,5444253.5,38.55,62220.0,31110.0,1.0
406,NonResidential,Small- and Mid-Sized Office,Poplar Building,Others,98144.0,Greater Duwamish,47.59388,-122.31124,1970,Office,89.0,3181045.5,90.24,65430.0,65430.0,1.0
407,NonResidential,Large Office,Northcut Landing,Avenue,98105.0,Northeast,47.66517,-122.30186,2006,Office,26.0,6062770.5,49.17,102290.0,34096.667,0.5851
409,NonResidential,Warehouse,K2 and Iron Mountain (Seattle 4),Avenue,98108.0,Greater Duwamish,47.56407,-122.32765,1991,Non-Refrigerated Warehouse,92.0,8024064.5,262.45,323916.0,161958.0,1.0
410,NonResidential,Mixed Use Property,Pacific Tower,Avenue,98144.0,Greater Duwamish,47.5928,-122.31599,1932,Office,66.0,21027396.0,247.35,304052.0,21718.0,1.0
412,NonResidential,Distribution Center,Northwest Center Industries,Way,98108.0,Greater Duwamish,47.53687,-122.33316,1989,Distribution Center,94.0,1988334.5,42.25,98024.0,49012.0,1.0
414,NonResidential,Large Office,617 Eastlake,Avenue,98109.0,Lake Union,47.62488,-122.33007,1990,Office,62.0,5135040.0,35.8,144573.0,28914.6,0.53919
415,NonResidential,Retail Store,(71371A) NORTHGATE Macy's,Way,98125.0,North,47.70759,-122.3255,1950,Retail Store,97.0,7290824.5,129.29,302812.0,151406.0,1.0
416,NonResidential,Small- and Mid-Sized Office,Northway Square East,Street,98133.0,Northwest,47.70744,-122.33171,1974,Office,53.0,9080022.0,293.55,86400.0,17280.0,1.0
418,NonResidential,Small- and Mid-Sized Office,NorthWay West Building,Avenue,98144.0,Northwest,47.70732,-122.33279,1981,Office,56.0,6361236.5,44.35,86483.0,14413.833,1.0
419,NonResidential,Distribution Center,Pacific Plumbing Supply,Way,98106.0,Delridge,47.53926,-122.34143,1976,Distribution Center,75.0,1124543.125,22.1,51600.0,51600.0,1.0
420,NonResidential,Warehouse,Jones Stevedoring Seattle Building,Way,98106.0,Delridge,47.53689,-122.33847,1968,Non-Refrigerated Warehouse,61.0,2225512.0,57.73,140520.0,140520.0,1.0
421,NonResidential,Large Office,PEMCO,Avenue,98109.0,Magnolia / Queen Anne,47.63116,-122.34193,1986,Office,95.0,4636396.5,58.88,154029.0,30805.8,0.59501
425,NonResidential,Warehouse,Lenci Corporation,Others,98108.0,Greater Duwamish,47.52696,-122.32913,1980,Non-Refrigerated Warehouse,14.0,1847401.0,58.67,50417.0,50417.0,1.0
427,NonResidential,Medical Office,NWH Outpatient Medical Center,Avenue,98133.0,Northwest,47.70449,-122.33272,1961,Medical Office,21.0,15640994.0,295.48,133298.0,44432.667,1.0
428,NonResidential,Retail Store,"SEATTLE, WA-0106",Street,98125.0,North,47.70759,-122.3255,1965,Retail Store,78.0,6455828.5,91.1,168619.0,84309.5,1.0
430,NonResidential,Large Office,1260 Mercer,Street,98109.0,Lake Union,47.6244,-122.33157,2000,Office,91.0,6486377.5,45.22,175885.0,43971.25,0.59414
431,NonResidential,Warehouse,4727 Building,Avenue,98134.0,Greater Duwamish,47.56089,-122.33474,1969,Non-Refrigerated Warehouse,93.0,1028376.875,23.86,104786.0,52393.0,1.0
434,NonResidential,Small- and Mid-Sized Office,McKinstry SEA - 220 S Dawson Office,Street,98134.0,Greater Duwamish,47.5563,-122.33186,1948,Office,86.0,2058955.25,22.12,53620.0,53620.0,1.0
435,NonResidential,Small- and Mid-Sized Office,5050,Avenue,98134.0,Greater Duwamish,47.55623,-122.33316,1938,Office,62.0,3202213.0,65.3,50008.0,50008.0,1.0
436,NonResidential,Large Office,635 Elliott - South Bldg.,Avenue,98119.0,Magnolia / Queen Anne,47.6252,-122.36737,2009,Office,98.0,6657348.5,49.74,291176.0,72794.0,0.65596
437,NonResidential,Warehouse,4225 2nd Ave So.,Avenue,98134.0,Greater Duwamish,47.56549,-122.33221,1957,Non-Refrigerated Warehouse,63.0,2551022.25,107.16,50832.0,50832.0,1.0
438,NonResidential,Refrigerated Warehouse,Uwajimaya (Seattle 5),Avenue,98108.0,Greater Duwamish,47.56158,-122.32754,1971,Refrigerated Warehouse,70.0,2843033.5,20.29,76354.0,76354.0,1.0
439,NonResidential,Warehouse,Merlino Foods Building,Avenue,98134.0,Greater Duwamish,47.56558,-122.32889,1956,Non-Refrigerated Warehouse,65.0,2831565.5,39.5,98480.0,98480.0,1.0
440,NonResidential,Mixed Use Property,Wallingford Center,Street,98103.0,Lake Union,47.66113,-122.33572,1904,Retail Store,75.0,3441643.25,64.0,53002.0,26501.0,1.0
443,NonResidential,Large Office,AGC Building,Avenue,98109.0,Lake Union,47.63,-122.3396,1971,Office,58.0,13898181.0,365.79,124721.0,11338.273,1.0
444,NonResidential,Small- and Mid-Sized Office,Lake Union Building,Avenue,98109.0,Lake Union,47.63376,-122.33968,1970,Office,70.0,5662234.0,39.47,94002.0,13428.857,1.0
445,NonResidential,Warehouse,NWCP-SEA Bldg U,Street,98108.0,Greater Duwamish,47.55515,-122.3275,1974,Non-Refrigerated Warehouse,60.0,1252323.875,8.73,93020.0,93020.0,1.0
447,NonResidential,Supermarket / Grocery Store,Safeway 1965 - Rainier Ave,Avenue,98118.0,Southeast,47.52095,-122.26825,2002,Supermarket/Grocery Store,32.0,13133225.0,306.5,61053.0,61053.0,1.0
449,NonResidential,Small- and Mid-Sized Office,111 S. Jackson,Street,98104.0,Downtown,47.59895,-122.33379,1904,Office,88.0,2830674.75,19.73,78920.0,15784.0,1.0
450,NonResidential,Small- and Mid-Sized Office,FX McRory Building,Avenue,98104.0,Downtown,47.59855,-122.33327,1906,Office,64.0,6606832.5,134.69,99440.0,14205.714,1.0
451,NonResidential,Small- and Mid-Sized Office,Westland Building,Street,98104.0,Downtown,47.59856,-122.33379,1907,Office,82.0,2853189.5,19.89,73260.0,12210.0,1.0
452,NonResidential,Small- and Mid-Sized Office,The Globe Building,Street,98104.0,Downtown,47.59979,-122.3338,1900,Office,87.0,2178074.5,76.8,69817.0,17454.25,1.0
455,NonResidential,Large Office,Occidental Mall,Avenue,98104.0,Downtown,47.59962,-122.33247,1900,Office,79.0,7655751.0,130.31,164380.0,41095.0,1.0
456,NonResidential,Large Office,(ID616) Court in the Square,Avenue,98104.0,Downtown,47.59858,-122.33198,1907,Office,98.0,4336187.5,99.59,160580.0,22940.0,1.0
459,NonResidential,Mixed Use Property,Pacific Office Automation,Avenue,98134.0,Greater Duwamish,47.59334,-122.32905,1910,Office,37.0,2371575.0,31.58,56700.0,18900.0,1.0
460,NonResidential,Warehouse,1021-1045 6th Ave. S.,Avenue,98134.0,Greater Duwamish,47.59366,-122.32666,1922,Non-Refrigerated Warehouse,83.0,2153603.5,65.56,82852.0,82852.0,1.0
462,NonResidential,Distribution Center,Hullin Transfer Building,Street,98134.0,Greater Duwamish,47.57658,-122.33054,1962,Distribution Center,56.0,3155496.0,74.18,92792.0,46396.0,1.0
464,NonResidential,Large Office,"2200 Equities, LLC",Avenue,98134.0,Greater Duwamish,47.58361,-122.33369,1900,Office,80.0,4374646.0,30.5,129000.0,32250.0,0.8
465,NonResidential,Warehouse,Warehouse 1,Avenue,98134.0,Greater Duwamish,47.58781,-122.33264,1954,Non-Refrigerated Warehouse,69.0,861972.875,16.48,78814.0,78814.0,1.0
467,NonResidential,Distribution Center,Palmer Court Building,Avenue,98134.0,Greater Duwamish,47.59403,-122.33367,1910,Distribution Center,15.0,2688675.75,18.74,75600.0,12600.0,0.85714
469,NonResidential,Small- and Mid-Sized Office,The Reedo Building,Avenue,98104.0,Downtown,47.59701,-122.33378,1904,Office,31.0,5608600.5,138.35,66842.0,16710.5,1.0
470,NonResidential,Small- and Mid-Sized Office,Provident Building,Avenue,98104.0,Downtown,47.59639,-122.33368,1909,Office,81.0,2891605.0,20.18,75288.0,12548.0,0.85655
471,NonResidential,Large Office,83 S KING ST BLDG (ID633),Street,98104.0,Downtown,47.59806,-122.33475,1904,Office,81.0,9722890.0,67.78,184322.0,26331.714,1.0
472,NonResidential,Large Office,505 FIRST AVE S BLDG (ID634),Avenue,98104.0,Downtown,47.59767,-122.33467,2009,Office,43.0,25567108.0,182.14,287853.0,41121.857,1.0
473,NonResidential,Small- and Mid-Sized Office,1201 Building,Avenue,98134.0,Greater Duwamish,47.59202,-122.33486,1914,Office,53.0,5968153.5,180.76,64512.0,32256.0,1.0
475,NonResidential,Warehouse,West Coast Building,Avenue,98134.0,Greater Duwamish,47.58365,-122.33467,1926,Non-Refrigerated Warehouse,26.0,3929371.0,98.43,144050.0,20578.571,1.0
476,NonResidential,Small- and Mid-Sized Office,Green Room,Avenue,98104.0,Greater Duwamish,47.58252,-122.33465,1930,Office,16.0,5049446.5,47.25,60592.0,20197.333,1.0
477,NonResidential,Large Office,Starbucks Center,Avenue,98134.0,Greater Duwamish,47.58181,-122.33534,1912,Office,79.0,74130576.0,810.7,1380959.0,230159.833,1.0
478,NonResidential,Retail Store,The Home Depot,Avenue,98134.0,Greater Duwamish,47.57842,-122.33558,1993,Retail Store,57.0,7221482.5,100.42,107930.0,107930.0,1.0
479,NonResidential,Warehouse,99/55 South Spokane St. Whse,Street,98134.0,Greater Duwamish,47.57096,-122.3355,1926,Non-Refrigerated Warehouse,83.0,1618110.375,49.25,99084.0,99084.0,1.0
480,NonResidential,Distribution Center,Ferguson Building,Way,98106.0,Delridge,47.56676,-122.35247,1953,Distribution Center,28.0,2581741.75,42.74,72719.0,72719.0,1.0
481,NonResidential,Small- and Mid-Sized Office,INScape,Others,98134.0,East,47.59534849,-122.327269,1930,Office,91.0,2773647.5,33.41,76624.0,19156.0,1.0
482,NonResidential,Small- and Mid-Sized Office,45th Street Plaza,Street,98105.0,Northeast,47.66158,-122.31625,2001,Office,2.0,8570571.0,59.75,91706.0,15284.333,0.60108
483,NonResidential,Medical Office,BMR-530 Fairview Avenue LLC,Avenue,98109.0,Lake Union,47.62395,-122.33392,2008,Medical Office,6.0,19248732.0,477.85,129093.0,25818.6,0.69091
484,NonResidential,Large Office,West Seattle Corporate Center,Way,98106.0,Delridge,47.56787,-122.36419,1991,Office,41.0,8381834.5,58.43,138106.0,27621.2,0.88255
485,NonResidential,Retail Store,AIRPORT WAY SOUTH,Way,98108.0,Greater Duwamish,47.56664,-122.32346,1973,Retail Store,66.0,2409429.0,67.29,56572.0,56572.0,1.0
487,NonResidential,Medical Office,Arnold Pavilion,Street,98104.0,East,47.60979,-122.32298,2004,Medical Office,53.0,20560622.0,692.12,225982.0,225982.0,1.0
488,NonResidential,Mixed Use Property,2200 Westlake - SEDO,Avenue,98121.0,Downtown,47.61783,-122.33729,2006,Parking,31.0,39403320.0,734.72,516407.0,516407.0,1.0
490,NonResidential,Large Office,Russell Investments Center,Avenue,98101.0,Downtown,47.6074,-122.33777,2005,Office,97.0,56498868.0,481.06,1592914.0,37926.524,1.0
492,NonResidential,Medical Office,Elmer J. Nordstrom Medical Tower,Street,98104.0,East,47.61002,-122.32222,1985,Medical Office,46.0,17254810.0,190.1,422503.0,42250.3,0.51106
493,NonResidential,Medical Office,Jefferson Tower,Street,98122.0,Central,47.60649,-122.31121,1987,Medical Office,68.0,5792926.0,40.38,94500.0,13500.0,1.0
494,NonResidential,Retail Store,#8944 West Seattle,Way,98106.0,Delridge,47.53655,-122.36377,2005,Retail Store,79.0,5417598.0,94.74,94713.0,94713.0,1.0
495,NonResidential,Medical Office,7th and Madison,Avenue,98122.0,East,47.60707,-122.3288,2008,Medical Office,58.0,14751117.0,130.32,302902.0,33655.778,0.66543
496,NonResidential,Medical Office,Cabrini Medical Tower,Avenue,98104.0,East,47.60883,-122.32494,1973,Medical Office,50.0,15067340.0,357.39,319911.0,16837.421,0.51109
497,NonResidential,Large Office,Colman Building,Avenue,98104.0,Downtown,47.60353,-122.33558,1900,Office,94.0,8138616.5,282.46,205521.0,34253.5,1.0
498,NonResidential,Small- and Mid-Sized Office,Mutual Life Building,Avenue,98104.0,Downtown,47.60197,-122.33437,1900,Office,55.0,3065954.5,21.37,56700.0,9450.0,1.0
499,NonResidential,Small- and Mid-Sized Office,RDA Building,Avenue,98134.0,Greater Duwamish,47.59554,-122.32471,1925,Office,89.0,2729167.75,23.48,72000.0,18000.0,1.0
500,NonResidential,Large Office,1633 Westlake Building,Avenue,98109.0,Magnolia / Queen Anne,47.63347,-122.34078,2000,Office,93.0,5101504.5,35.56,191146.0,47786.5,0.50356
504,NonResidential,Large Office,818 Stewart,Street,98101.0,Downtown,47.61567,-122.33503,2008,Office,86.0,15725581.0,116.95,362046.0,25860.429,1.0
507,NonResidential,Large Office,One Convention Place,Street,98101.0,Downtown,47.6115,-122.33278,2001,Office,90.0,16020642.0,111.69,538933.0,23431.87,1.0
510,NonResidential,Small- and Mid-Sized Office,Queen Anne Square East (200),Street,98119.0,Magnolia / Queen Anne,47.62497,-122.35965,1982,Office,91.0,4391348.0,30.61,98668.0,19733.6,1.0
511,NonResidential,Large Office,Rainier Brewery,Way,98134.0,Greater Duwamish,47.57639,-122.32072,2007,Office,12.0,8751704.0,98.54,158931.0,158931.0,0.82143
512,NonResidential,Large Office,"Ocean Beauty Seafoods, LLC",Street,98119.0,Magnolia / Queen Anne,47.65692,-122.37059,1978,Office,1.0,22078064.0,357.86,105100.0,105100.0,1.0
513,NonResidential,Supermarket / Grocery Store,IUC- Whole Foods Interbay,Avenue,98119.0,Magnolia / Queen Anne,47.63718,-122.37734,2008,Supermarket/Grocery Store,31.0,12525174.0,0.0,57176.0,57176.0,1.0
514,NonResidential,Retail Store,Elliot Industrial,Avenue,98121.0,Magnolia / Queen Anne,47.63284,-122.37712,1978,Retail Store,51.0,2661488.0,60.7,50660.0,50660.0,1.0
515,NonResidential,Small- and Mid-Sized Office,Hays Elliot,Avenue,98119.0,Magnolia / Queen Anne,47.63156,-122.37551,1937,Office,59.0,2203026.5,55.73,61929.0,30964.5,1.0
516,NonResidential,Large Office,501 Elliott Ave West,Avenue,98119.0,Magnolia / Queen Anne,47.62302,-122.36476,2000,Office,1.0,25478086.0,177.62,165111.0,41277.75,0.66689
518,NonResidential,Small- and Mid-Sized Office,"2607 Building, LLC",Avenue,98121.0,Downtown,47.61588,-122.34965,1925,Office,65.0,802312.5,5.59,20565.0,6855.0,1.0
519,NonResidential,Large Office,351 Elliott Ave West,Avenue,98119.0,Magnolia / Queen Anne,47.62175,-122.36313,2000,Office,63.0,7857972.5,54.78,159937.0,31987.4,0.65004
520,NonResidential,Large Office,333 Elliott West,Avenue,98119.0,Magnolia / Queen Anne,47.62101,-122.36188,2008,Office,56.0,14856199.0,103.57,183964.0,36792.8,0.7458
521,NonResidential,Large Office,101 ELLIOTT AVENUE WEST,Avenue,98119.0,Magnolia / Queen Anne,47.61891,-122.35958,1986,Office,95.0,5514308.5,116.74,208210.0,41642.0,0.62131
522,NonResidential,Large Office,3131 Elliott Avenue,Avenue,98121.0,Downtown,47.61813,-122.35833,1986,Office,63.0,12729858.0,88.74,277486.0,39640.857,0.71068
523,NonResidential,Large Office,Pier 69 Corporate HQ,Way,98121.0,Downtown,47.614,-122.35375,1993,Office,77.0,10053489.0,70.09,187130.0,62376.667,1.0
524,NonResidential,Large Office,World Trade Center - North,Avenue,98121.0,Downtown,47.61287,-122.35022,2000,Office,99.0,17186624.0,119.81,251044.0,50208.8,0.53049
525,NonResidential,Warehouse,08495-Pier 57,Way,98101.0,Downtown,47.60703,-122.34038,1912,Non-Refrigerated Warehouse,81.0,1262235.25,8.8,154330.0,30866.0,1.0
527,NonResidential,Large Office,National Building,Avenue,98104.0,Downtown,47.6047,-122.33739,1905,Office,70.0,6797647.0,47.39,167860.0,27976.667,1.0
528,NonResidential,Large Office,Polson Building,Street,98104.0,Downtown,47.60247,-122.33621,1910,Office,86.0,4946798.5,97.82,112560.0,18760.0,1.0
529,NonResidential,Retail Store,Western Building,Avenue,98104.0,Downtown,47.60223,-122.33602,1910,Other,89.0,3241917.0,69.02,86204.0,14367.333,1.0
530,Nonresidential COS,Warehouse,Airport Way Ctr - Bldg C,Way,98134.0,Greater Duwamish,47.5829,-122.32417,1985,Non-Refrigerated Warehouse,51.0,8384523.0,119.46,145158.0,72579.0,1.0
531,NonResidential,Large Office,Holgate Center,Way,98134.0,Greater Duwamish,47.58716,-122.32214,1951,Office,66.0,10287986.0,157.48,112896.0,56448.0,1.0
532,NonResidential,Distribution Center,MACMILLAN-PIPER EYRES WAREHOUSE,Avenue,98134.0,Greater Duwamish,47.58685,-122.32501,1960,Distribution Center,95.0,1015060.188,7.08,110613.0,110613.0,1.0
533,NonResidential,Warehouse,6th & Holgate Building,Avenue,98103.0,Greater Duwamish,47.58553,-122.32511,1951,Non-Refrigerated Warehouse,97.0,2417401.25,95.86,149881.0,37470.25,1.0
534,NonResidential,Warehouse,(ID722)INDUSTRIAL TRANSFER WAREHOUSE,Avenue,98121.0,Greater Duwamish,47.58042,-122.32552,1951,Non-Refrigerated Warehouse,12.0,6468090.0,75.29,98220.0,32740.0,1.0
535,NonResidential,Distribution Center,North Coast Electric,Avenue,98134.0,Greater Duwamish,47.58096,-122.32313,1970,Distribution Center,55.0,2848317.25,19.86,84420.0,84420.0,1.0
538,NonResidential,Warehouse,Pacific Iron & Metal,Avenue,98134.0,Greater Duwamish,47.58241,-122.32866,1931,Non-Refrigerated Warehouse,16.0,4912143.0,178.62,61200.0,30600.0,1.0
539,NonResidential,Distribution Center,Gensco Incorporated,Avenue,98134.0,Greater Duwamish,47.58772,-122.32686,1987,Distribution Center,87.0,1555420.25,34.14,111908.0,111908.0,1.0
542,NonResidential,Supermarket / Grocery Store,70100122-Greenwood,Street,98117.0,Northwest,47.69197,-122.35877,1970,Supermarket/Grocery Store,91.0,16865978.0,293.56,141890.0,141890.0,0.74949
543,NonResidential,Small- and Mid-Sized Office,1455 Leary,Way,98107.0,Ballard,47.6633,-122.37549,2001,Office,5.0,4817062.0,33.58,92092.0,23023.0,0.77137
546,NonResidential,Large Office,Lakeview 837 N 34th,Street,98103.0,Lake Union,47.64912,-122.34823,2008,Office,73.0,8873485.0,61.86,202623.0,50655.75,0.56148
547,NonResidential,Small- and Mid-Sized Office,The Canal View Building,Street,98103.0,Lake Union,47.64932,-122.35187,2000,Office,33.0,5481549.0,38.21,77174.0,38587.0,0.66569
548,NonResidential,Large Office,1000 Dexter-RREEF  SeaDPD ID 741,Avenue,98109.0,Magnolia / Queen Anne,47.62817,-122.34212,1998,Office,57.0,6859198.0,47.82,110524.0,22104.8,1.0
551,NonResidential,Large Office,West Tower,Avenue,98119.0,Magnolia / Queen Anne,47.62225,-122.35915,2000,Office,88.0,8655604.0,68.06,241875.0,34553.571,0.64986
552,NonResidential,Large Office,190 Queen Anne,Others,98109.0,Magnolia / Queen Anne,47.61949,-122.35639,1974,Office,85.0,4750799.0,65.03,102930.0,20586.0,0.81813
554,NonResidential,Large Office,Fourth and Vine,Avenue,98121.0,Downtown,47.61732,-122.34791,1975,Office,65.0,9343428.0,119.93,150000.0,18750.0,0.84247
555,NonResidential,Large Office,Children's Hospital Research Building #2,Avenue,98101.0,Downtown,47.61628,-122.33391,1953,Office,82.0,16540550.0,147.82,274362.0,39194.571,1.0
556,NonResidential,Large Office,Blanchard Plaza (CoS Energy Reporting),Avenue,98121.0,Downtown,47.61599,-122.34165,1983,Office,85.0,17750994.0,246.83,378002.0,25200.133,0.69238
557,NonResidential,Large Office,ACTIVE VOICE,Avenue,98121.0,Downtown,47.61481,-122.33969,1963,Office,83.0,11480494.0,346.62,169020.0,15365.455,1.0
558,NonResidential,Other,WestinBuilding,Avenue,98121.0,Downtown,47.61438,-122.33871,1981,Data Center,98.0,274682208.0,1921.82,429405.0,13012.273,1.0
559,NonResidential,Large Office,Columbia Center - 2015,Avenue,98104.0,Downtown,47.60454,-122.33072,1985,Office,86.0,92937640.0,882.56,1952220.0,25687.105,0.83639
560,NonResidential,Large Office,Eighth & Olive - New,Way,98101.0,Downtown,47.61418,-122.33485,1981,Office,90.0,15878689.0,110.7,383515.0,20185.0,0.76591
561,NonResidential,Medical Office,Medical Dental Building,Way,98101.0,Downtown,47.6129,-122.33684,1925,Medical Office,68.0,22104512.0,582.28,363934.0,20218.556,0.92067
562,NonResidential,Retail Store,601 Pine St,Street,98101.0,Downtown,47.61203,-122.33486,1929,Retail Store,80.0,8303666.5,109.85,78920.0,19730.0,1.0
563,NonResidential,Large Office,Market Place I & II-2003 Western Avenue,Avenue,98121.0,Downtown,47.61051,-122.34439,1979,Office,93.0,5177270.5,109.16,131143.0,18734.714,0.33538
566,NonResidential,Large Office,Broadacres Building,Avenue,98101.0,Downtown,47.61036,-122.34037,1908,Office,97.0,3775187.5,133.8,132998.0,13299.8,1.0
567,NonResidential,Retail Store,Ross Dress for Less,Street,98101.0,Downtown,47.60956,-122.33715,1940,Retail Store,59.0,2443141.5,27.82,83118.0,27706.0,1.0
568,NonResidential,Retail Store,Kress Building,Avenue,98101.0,Downtown,47.60925,-122.33734,1924,Retail Store,39.0,7802205.5,54.4,77555.0,25851.667,1.0
569,NonResidential,Small- and Mid-Sized Office,Market Square,Avenue,98121.0,Downtown,47.60765,-122.34097,1909,Office,57.0,2886141.5,20.12,51218.0,8536.333,1.0
570,NonResidential,Large Office,Financial Center - COS Compliance,Avenue,98101.0,Downtown,47.60765,-122.3348,1970,Office,43.0,36378588.0,426.39,489182.0,16868.345,1.0
571,NonResidential,Large Office,Seattle Tower,Avenue,98101.0,Downtown,47.60769,-122.33544,1929,Office,62.0,16246106.0,639.72,216571.0,8021.148,0.9385
572,NonResidential,Large Office,1200 3rd Ave,Avenue,98104.0,Downtown,47.60741,-122.33565,1921,Office,13.0,19036416.0,132.71,189175.0,14551.923,1.0
573,NonResidential,Large Office,1015 3rd Ave,Avenue,98104.0,Downtown,47.60582,-122.33464,1998,Office,25.0,17074142.0,119.03,293803.0,22600.231,0.74649
574,NonResidential,Large Office,1201 Western Avenue,Avenue,98101.0,Downtown,47.60576,-122.33922,1910,Office,91.0,4585070.5,41.8,122356.0,17479.429,1.0
575,NonResidential,Small- and Mid-Sized Office,United Way of King County,Avenue,98104.0,Downtown,47.60366,-122.33328,1921,Office,89.0,1968655.125,13.72,52298.0,17432.667,1.0
576,NonResidential,Large Office,Hoge Building,Avenue,98101.0,Downtown,47.60304,-122.33362,1911,Office,75.0,6758565.5,169.06,116640.0,6861.176,1.0
577,NonResidential,Large Office,800 Fifth Avenue,Avenue,98104.0,Downtown,47.60573,-122.33028,1981,Office,95.0,37980712.0,264.78,1249055.0,29739.405,0.83898
579,NonResidential,Medical Office,First Hill Medical Building,Avenue,98104.0,East,47.60663,-122.32157,1988,Medical Office,15.0,8523594.0,89.41,188339.0,37667.8,0.47268
581,NonResidential,Small- and Mid-Sized Office,1st && King Street,Avenue,98104.0,Downtown,47.5981,-122.33369,1910,Office,83.0,4052720.0,31.43,95000.0,15833.333,0.85579
582,NonResidential,Large Office,Administration Building,Avenue,98104.0,Downtown,47.6029,-122.32927,1971,Office,79.0,15272491.0,390.67,224857.0,24984.111,1.0
583,NonResidential,Large Office,King Street Center,Others,98104.0,Downtown,47.59878,-122.33088,1998,Office,96.0,13568148.0,94.59,446261.0,55782.625,0.72037
585,NonResidential,Small- and Mid-Sized Office,Taylor Edwards Building,Avenue,98134.0,Greater Duwamish,47.58958,-122.33369,1907,Office,30.0,4353025.0,30.35,62370.0,10395.0,1.0
586,NonResidential,Warehouse,SEWA,Avenue,98134.0,Greater Duwamish,47.58454,-122.3269,1960,Non-Refrigerated Warehouse,83.0,2356376.75,73.58,73296.0,73296.0,1.0
591,NonResidential,Small- and Mid-Sized Office,McKinstry SEA - 5005 3rd Ave S Office,Avenue,98134.0,Greater Duwamish,47.55695,-122.33176,1950,Office,95.0,6235947.0,152.28,93610.0,93610.0,1.0
592,NonResidential,Large Office,Seattle Design Center (Atrium Building),Avenue,98108.0,Greater Duwamish,47.55238,-122.32762,1973,Office,67.0,6843855.0,60.92,156188.0,78094.0,1.0
593,NonResidential,Warehouse,NWCP-SEA Bldg C,Street,98108.0,Greater Duwamish,47.54923,-122.32446,1966,Non-Refrigerated Warehouse,11.0,1951856.25,13.61,115620.0,115620.0,1.0
594,NonResidential,Large Office,6100 Building,Avenue,98108.0,Greater Duwamish,47.54699,-122.32882,1975,Office,93.0,10775646.0,75.12,238148.0,47629.6,1.0
595,NonResidential,Distribution Center,Westcore River Street,Street,98108.0,Greater Duwamish,47.54326,-122.33134,1969,Distribution Center,100.0,151754.2969,1.06,71718.0,71718.0,1.0
596,NonResidential,Warehouse,OPS,Way,98108.0,Greater Duwamish,47.53628,-122.3329,1969,Non-Refrigerated Warehouse,31.0,4345698.0,131.64,55450.0,55450.0,1.0
597,NonResidential,Distribution Center,Cloverdale Business Park Building D,Street,98108.0,Greater Duwamish,47.52549,-122.33064,1979,Distribution Center,32.0,2763597.0,89.53,54880.0,54880.0,1.0
598,NonResidential,Retail Store,WEST SEATTLE (0637),Street,98126.0,Delridge,47.52222,-122.36892,1992,Retail Store,81.0,7305474.0,158.55,102500.0,102500.0,1.0
600,NonResidential,Supermarket / Grocery Store,70500849 -- Rainier Valley,Avenue,98144.0,Greater Duwamish,47.57903,-122.29982,1963,Supermarket/Grocery Store,57.0,7439009.0,195.43,50785.0,50785.0,1.0
601,NonResidential,Small- and Mid-Sized Office,200 SW Michigan,Others,98106.0,Delridge,47.54103,-122.33766,1929,Office,1.0,37951708.0,166.13,85126.0,28375.333,1.0
603,NonResidential,Distribution Center,Portside Distribution Center,Way,98134.0,Greater Duwamish,47.56613,-122.33838,1986,Distribution Center,43.0,15091579.0,455.39,411584.0,411584.0,1.0
605,NonResidential,Large Office,645 Elliott - North Building,Avenue,98119.0,Magnolia / Queen Anne,47.6252,-122.36737,2008,Office,77.0,9683979.0,67.51,242686.0,60671.5,0.58722
606,NonResidential,Small- and Mid-Sized Office,Washington Shoe Building,Avenue,98104.0,Downtown,47.5992,-122.33223,1900,Office,83.0,5392617.5,74.45,95760.0,15960.0,0.83459
607,NonResidential,Warehouse,City Commerce Park,Avenue,98134.0,Greater Duwamish,47.56733,-122.3352,1946,Non-Refrigerated Warehouse,57.0,3459543.0,24.12,179413.0,179413.0,1.0
609,NonResidential,Warehouse,3546 W Marginal Way SW,Way,98106.0,Delridge,47.5725,-122.3571,1966,Non-Refrigerated Warehouse,98.0,602245.0,4.2,170632.0,170632.0,1.0
610,NonResidential,Large Office,West Lake Union Center,Avenue,98109.0,Magnolia / Queen Anne,47.63264,-122.34171,1994,Office,87.0,11410228.0,106.12,381511.0,38151.1,1.0
611,NonResidential,Large Office,Fifth and Yesler,Avenue,98104.0,Downtown,47.60214,-122.32726,2009,Office,91.0,13631141.0,95.03,413264.0,24309.647,0.66584
612,NonResidential,Mixed Use Property,Russell Hall,Street,98105.0,Northeast,47.6586,-122.3124,2009,Office,63.0,4865551.5,79.39,122400.0,20400.0,0.55637
615,NonResidential,Warehouse,3701 S. Norfolk,Street,98118.0,Greater Duwamish,47.51304,-122.28394,1966,Non-Refrigerated Warehouse,47.0,3004271.0,20.94,123000.0,61500.0,1.0
616,NonResidential,Medical Office,Patricia Steele Building,Way,98122.0,East,47.6056366,-122.3214798,2003,Medical Office,70.0,9941308.0,69.3,275130.0,55026.0,0.58936
617,NonResidential,Warehouse,(ID#822) 98 NORFOLK,Avenue,98136.0,Greater Duwamish,47.51168,-122.28285,1978,Non-Refrigerated Warehouse,90.0,1052244.75,27.24,60448.0,60448.0,1.0
618,NonResidential,Hospital,Swedish First Hill,Way,98122.0,East,47.608951,-122.322402,1994,Hospital (General Medical & Surgical),54.0,291614432.0,12307.16,252281.429,126140.714,1.0
621,NonResidential,Medical Office,600 Broadway,Way,98122.0,East,47.60796711,-122.3195445,1990,Medical Office,59.0,12731388.0,133.5,289419.0,57883.8,0.45008
622,NonResidential,Other,Salal Credit Union Headquarters,Avenue,98115.0,North,47.6993,-122.32378,1987,Financial Office,18.0,7771933.5,54.18,90266.0,18053.2,1.0
623,NonResidential,Warehouse,Peoples Storage,Way,98107.0,Ballard,47.6582,-122.36434,2004,Non-Refrigerated Warehouse,87.0,1165598.875,14.49,87332.0,21833.0,0.92605
624,NonResidential,Hotel,Silver Cloud Inn - Broadway,Way,98122.0,East,47.61210727,-122.3205972,2003,Hotel,28.0,13410041.0,453.76,150545.0,25090.833,0.66776
626,NonResidential,Hotel,The Maxwell Hotel,Street,98109.0,Magnolia / Queen Anne,47.62562,-122.35121,2008,Hotel,8.0,9444484.0,278.97,111856.0,22371.2,0.80982
627,NonResidential,Warehouse,08501-Capitol Hill,Avenue,98122.0,East,47.61818,-122.31728,1988,Non-Refrigerated Warehouse,83.0,1083729.625,7.56,132828.0,33207.0,1.0
628,NonResidential,Warehouse,Pioneer Industries,Way,98106.0,Delridge,47.53935,-122.34402,1970,Non-Refrigerated Warehouse,1.0,13962749.0,284.01,70400.0,70400.0,1.0
629,NonResidential,Retail Store,#4706 Bitterlake,Avenue,98133.0,Northwest,47.71417,-122.34256,1995,Retail Store,60.0,10713006.0,295.12,101830.0,101830.0,1.0
633,NonResidential,Warehouse,3480 W Marginal Way SW,Way,98053.0,Southwest,47.57311,-122.3601,1965,Non-Refrigerated Warehouse,88.0,1069749.75,13.07,152365.0,152365.0,1.0
634,NonResidential,Medical Office,James Tower,Avenue,98122.0,Central,47.60705,-122.30966,1910,Medical Office,57.0,25471308.0,189.85,320946.0,53491.0,1.0
636,NonResidential,Warehouse,08458-Lake City,Way,98125.0,North,47.70799,-122.30185,1987,Non-Refrigerated Warehouse,96.0,686019.1875,16.27,80360.0,20090.0,1.0
638,NonResidential,Supermarket / Grocery Store,70500847 -- Harvard Market,Avenue,98122.0,East,47.61318,-122.32122,1996,Supermarket/Grocery Store,71.0,10077532.0,267.0,119190.0,39730.0,1.0
640,NonResidential,Mixed Use Property,Filson World Headquarters LP,Avenue,98134.0,Greater Duwamish,47.58718,-122.33467,1921,Office,3.0,7070998.5,49.29,66138.0,22046.0,0.8097
641,NonResidential,Large Office,4545 Building 751,Avenue,98105.0,Northeast,47.66181,-122.31231,1960,Office,1.0,17880184.0,128.73,113944.0,37981.333,0.57426
644,NonResidential,Low-Rise Multifamily,Pacific Pointe,Street,98103.0,Lake Union,47.64859,-122.33311,2000,Multifamily Housing,32.0,1997181.5,25.6,93079.0,31026.333,0.61223
651,NonResidential,Worship Facility,University Unitarian Church,Avenue,98115.0,Northeast,47.67738,-122.28996,1957,Worship Facility,90.0,778355.8125,31.74,22220.0,11110.0,1.0
657,NonResidential,Warehouse,SeaTac Marine Services,Avenue,98108.0,Greater Duwamish,47.54137,-122.33051,1976,Non-Refrigerated Warehouse,1.0,1618916.375,11.29,44100.0,44100.0,1.0
658,NonResidential,Distribution Center,Shultz Distribution,Street,98108.0,Greater Duwamish,47.54113,-122.32633,1965,Distribution Center,13.0,1224186.25,24.39,27800.0,27800.0,1.0
660,NonResidential,Warehouse,Seadrunar Recycling,Street,98134.0,Greater Duwamish,47.55436,-122.33631,2001,Non-Refrigerated Warehouse,3.0,2564004.0,17.87,46340.0,46340.0,1.0
663,NonResidential,Small- and Mid-Sized Office,RLIBuilding,Avenue,98122.0,Central,47.60191,-122.31438,1910,Office,69.0,1950713.25,36.02,38460.0,12820.0,1.0
669,NonResidential,Worship Facility,Woodland Park Methodist Church,Street,98103.0,Northwest,47.68576,-122.35481,1922,Worship Facility,54.0,945245.625,43.84,21022.0,10511.0,1.0
680,NonResidential,Distribution Center,Noble Building,Avenue,98118.0,Greater Duwamish,47.51127,-122.281,1967,Distribution Center,49.0,2143650.75,86.46,48001.0,48001.0,1.0
682,NonResidential,Warehouse,pape' Material Handling Seattle,Avenue,98118.0,Greater Duwamish,47.51018,-122.28192,1969,Non-Refrigerated Warehouse,10.0,2559461.75,77.04,37351.0,37351.0,1.0
683,NonResidential,Warehouse,WALL & CEILING SUPPLY CO INC,Avenue,98118.0,Greater Duwamish,47.51127,-122.281,1981,Non-Refrigerated Warehouse,73.0,345866.6875,2.41,30375.0,30375.0,1.0
689,NonResidential,Worship Facility,BALLARD CHURCH (ID19596),Street,98117.0,Ballard,47.68164,-122.3753,1914,Worship Facility,90.0,509836.1875,21.93,33589.0,16794.5,1.0
692,NonResidential,Small- and Mid-Sized Office,SBC19613,Avenue,98107.0,Ballard,47.66587,-122.38476,1979,Office,46.0,3220635.25,22.65,43500.0,14500.0,1.0
693,NonResidential,Small- and Mid-Sized Office,(ID19621) BALLARD ELKS,Avenue,98107.0,Ballard,47.67528,-122.40836,1978,Office,12.0,1896298.875,37.78,28492.0,14246.0,1.0
715,NonResidential,Retail Store,Lane St. Goodwill,Street,98144.0,Downtown,47.59692,-122.31543,1917,Retail Store,69.0,6787070.0,169.75,147545.0,73772.5,1.0
732,NonResidential,Small- and Mid-Sized Office,First and Cedar Building,Avenue,98121.0,Downtown,47.6158,-122.35126,1974,Office,59.0,4322873.0,141.2,61825.0,12365.0,0.78455
735,NonResidential,Small- and Mid-Sized Office,Seattle Labor Temple Association,Avenue,98121.0,Downtown,47.61683,-122.35176,1942,Office,96.0,1408291.375,9.82,64630.0,21543.333,1.0
736,NonResidential,Worship Facility,Belltown,Avenue,98121.0,Downtown,47.61636,-122.35094,1948,Worship Facility,15.0,1042108.5,42.19,20920.0,10460.0,1.0
742,NonResidential,Worship Facility,(ID19766) ALKI CONGREGATIONAL CHURCH,Avenue,98116.0,Southwest,47.57384,-122.41182,1926,Worship Facility,94.0,608359.6875,25.24,22128.0,11064.0,1.0
745,NonResidential,Retail Store,Office Depot,Avenue,98133.0,Northwest,47.72736,-122.34579,1968,Retail Store,98.0,859236.625,24.02,48139.0,48139.0,1.0
750,NonResidential,Worship Facility,First Lutheran Church of West Seattle,Avenue,98116.0,Southwest,47.56633,-122.38725,1949,Worship Facility,86.0,965651.125,43.8,21364.0,10682.0,1.0
773,NonResidential,Retail Store,000956-Seattle,Avenue,98105.0,Northeast,47.6646,-122.29932,1996,Retail Store,82.0,1169394.875,18.1,25735.0,25735.0,1.0
775,NonResidential,Retail Store,EAST BLDG N,Street,98105.0,Northeast,47.66246,-122.29898,1956,Retail Store,20.0,4801472.0,154.17,25862.0,12931.0,1.0
776,NonResidential,Retail Store,EAST BLDG S,Street,98105.0,Northeast,47.66246,-122.29898,2003,Retail Store,82.0,3377209.75,29.54,49965.0,24982.5,1.0
780,NonResidential,Small- and Mid-Sized Office,Hartford Building,Avenue,98104.0,Downtown,47.6026,-122.33232,1929,Office,95.0,511797.4063,14.22,20028.0,10014.0,1.0
782,NonResidential,Small- and Mid-Sized Office,Lowman & Hanford Building,Avenue,98104.0,Downtown,47.60247,-122.33372,1900,Office,100.0,552007.5,9.95,23622.0,3374.571,1.0
783,NonResidential,Small- and Mid-Sized Office,Howard Building,Avenue,98104.0,Downtown,47.60237,-122.33365,1902,Office,67.0,883197.6875,6.16,23563.0,7854.333,1.0
785,NonResidential,Mixed Use Property,Marion 823,Avenue,98104.0,Downtown,47.60427,-122.33385,1978,Retail Store,55.0,2186018.5,15.24,38539.0,19269.5,0.67879
786,NonResidential,Small- and Mid-Sized Office,Marion 814,Avenue,98104.0,Downtown,47.60427,-122.33385,1906,Office,24.0,1989287.0,13.87,26840.0,5368.0,1.0
787,NonResidential,Retail Store,Marion 804,Avenue,98104.0,Downtown,47.60427,-122.33385,1906,Retail Store,86.0,1245187.5,8.68,46800.0,23400.0,1.0
788,NonResidential,Small- and Mid-Sized Office,Marion 801,Avenue,98104.0,Downtown,47.60431,-122.33335,1979,Office,51.0,2067352.5,14.63,63990.0,21330.0,0.58368
789,NonResidential,Small- and Mid-Sized Office,S2315 - Belltown Worklofts,Avenue,98121.0,Downtown,47.61285,-122.34817,1908,Office,50.0,1345025.75,28.81,28800.0,9600.0,1.0
792,NonResidential,Small- and Mid-Sized Office,2717 3rd Avenue Building,Avenue,98121.0,Downtown,47.6172,-122.34979,1954,Office,75.0,1696978.75,60.43,33552.0,11184.0,0.85193
793,NonResidential,Retail Store,Store #5218_2603 Third Avenue,Avenue,98121.0,Downtown,47.61652,-122.34854,1931,Retail Store,32.0,1560461.75,33.78,26270.0,13135.0,1.0
794,NonResidential,Small- and Mid-Sized Office,Trianon Building,Avenue,98121.0,Downtown,47.61595,-122.34756,1926,Office,50.0,2385395.0,16.63,57620.0,19206.667,0.86428
797,NonResidential,Hotel,BELLTOWN INN (ID#19878),Avenue,98121.0,Downtown,47.61471,-122.34525,1990,Hotel,87.0,2443065.25,66.29,57800.0,11560.0,1.0
805,NonResidential,Other,WA3-124 (Fifth and Olive Retail),Way,98101.0,Downtown,47.61319,-122.33695,1955,Financial Office,2.0,1858224.625,12.95,31890.0,15945.0,1.0
806,NonResidential,Small- and Mid-Sized Office,CENTENNIAL BUILDING,Street,98101.0,Downtown,47.61267,-122.33852,1925,Office,53.0,1441900.5,41.69,44098.0,22049.0,0.69024
815,NonResidential,Medical Office,King Co Public Health,Avenue,98121.0,Downtown,47.6146,-122.34217,1952,Medical Office,51.0,1553208.375,10.83,26670.0,6667.5,1.0
829,NonResidential,Hotel,The Loyal Inn,Avenue,98121.0,Downtown,47.61822,-122.34132,1967,Hotel,61.0,2669564.25,72.78,44416.0,11104.0,1.0
847,NonResidential,Worship Facility,EMMANUEL BIBLE CHURCH,Street,98103.0,Northwest,47.66476,-122.35248,1928,Worship Facility,77.0,1145535.75,36.43,45991.0,22995.5,1.0
858,NonResidential,Residence Hall,Washington Phikeia Foundation,Street,98105.0,Northeast,47.66282,-122.305,1921,Residence Hall/Dormitory,85.0,605130.6875,4.22,21499.0,7166.333,1.0
859,NonResidential,Small- and Mid-Sized Office,Lisa Li Building,Avenue,98105.0,Northeast,47.66461,-122.30142,1989,Office,16.0,1791071.375,13.91,20384.0,10192.0,1.0
862,NonResidential,Retail Store,NW BLDG,Street,98105.0,Northeast,47.66246,-122.29898,1956,Retail Store,18.0,6778694.0,63.61,54284.0,27142.0,1.0
863,NonResidential,Retail Store,BLDG C,Street,98105.0,Northeast,47.66246,-122.29898,1956,Retail Store,67.0,2545405.0,28.41,23409.0,23409.0,1.0
867,NonResidential,Hotel,University Travelodge,Avenue,98105.0,Northeast,47.66355,-122.30123,1961,Hotel,91.0,1587454.75,46.57,12050.0,12050.0,1.0
873,NonResidential,Other,Griffin Building,Avenue,98121.0,Downtown,47.61362,-122.33959,1927,Financial Office,81.0,1857154.75,74.92,32356.0,8089.0,1.0
874,NonResidential,Hotel,La Quinta Inn & Suites,Avenue,98121.0,Downtown,47.61798,-122.33974,1960,Hotel,24.0,3993913.25,126.3,61180.0,8740.0,0.78817
875,NonResidential,Small- and Mid-Sized Office,800 Stewart,Street,98121.0,Downtown,47.61524,-122.33519,1978,Office,51.0,3460275.5,99.15,43506.0,8701.2,0.74141
882,NonResidential,Worship Facility,Green Lake United Methodist Church,Avenue,98115.0,Northwest,47.67572,-122.3285,1910,Worship Facility,88.0,496477.3125,18.66,23931.0,11965.5,1.0
883,NonResidential,Worship Facility,Green Lake Church of Seventh-day Adventists,Way,98103.0,Northwest,47.67491,-122.33316,1948,Worship Facility,57.0,845961.375,32.64,21393.0,10696.5,1.0
887,NonResidential,Mixed Use Property,WALDEN BUILDING,Street,98144.0,Southeast,47.57256,-122.29265,1990,Distribution Center,80.0,1132489.625,33.23,47560.0,23780.0,1.0
888,NonResidential,Senior Care Community,Cabrini Senior Housing,Avenue,98104.0,East,47.60897,-122.32507,2006,Senior Care Community,100.0,1076733.25,34.98,62334.0,10389.0,1.0
895,NonResidential,K-12 School,Ninth & Lenora Building,Avenue,98121.0,Downtown,47.61718,-122.33654,1957,K-12 School,72.0,1261536.75,38.87,21600.0,10800.0,1.0
896,NonResidential,K-12 School,Spruce Street School,Street,98101.0,Downtown,47.61687,-122.33533,1995,K-12 School,43.0,931148.625,6.49,22860.0,7620.0,1.0
900,NonResidential,Worship Facility,St. Bridget Church,Street,98105.0,Northeast,47.66516,-122.2738,1972,Worship Facility,88.0,888031.875,32.22,26366.0,26366.0,1.0
904,NonResidential,Worship Facility,Sephardic Bikur Holim Congregation,Avenue,98118.0,Southeast,47.54362,-122.2667,1965,Worship Facility,2.0,860364.1875,23.59,21732.0,10866.0,1.0
921,NonResidential,Retail Store,(ID20237) Big 5 Corp,Way,98105.0,Northeast,47.66033,-122.31348,1900,Retail Store,71.0,813641.0,5.67,32960.0,10986.667,1.0
923,NonResidential,Hotel,Collegiana Hospitality House,Avenue,98105.0,Northeast,47.66023,-122.31581,1930,Hotel,72.0,716279.6875,4.99,20571.0,6857.0,1.0
932,NonResidential,Worship Facility,University Temple United Methodist Church,Street,98105.0,Northeast,47.65926,-122.31241,1926,Worship Facility,17.0,3040195.5,118.37,47992.0,23996.0,1.0
934,NonResidential,Residence Hall,Brooklyn Plaza,Avenue,98105.0,Northeast,47.65711,-122.31409,1993,Residence Hall/Dormitory,16.0,2717863.25,89.57,28572.0,9524.0,1.0
952,NonResidential,Residence Hall,Chancery Place Apartments,Street,98104.0,East,47.60817,-122.32654,1982,Residence Hall/Dormitory,94.0,2882489.75,20.09,115775.0,7718.333,0.72762
953,NonResidential,Worship Facility,Temple Beth Am,Street,98115.0,Northeast,47.68752,-122.29852,2000,Worship Facility,52.0,1128179.125,27.14,31386.0,15693.0,1.0
954,Campus,K-12 School,University Prep Academy,Avenue,98115.0,Northeast,47.687,-122.30013,1989,K-12 School,44.0,6689184.0,202.65,4300.0,7166.667,1.0
963,NonResidential,Small- and Mid-Sized Office,Emerald Landing I,Way,98103.0,Lake Union,47.64834,-122.33188,2012,Office,68.0,2641681.75,20.08,84116.0,42058.0,0.68499
964,NonResidential,Hotel,Hotel Andra,Avenue,98121.0,Downtown,47.61345,-122.34068,1925,Hotel,8.0,8690648.0,355.8,104000.0,11555.556,1.0
966,NonResidential,Senior Care Community,Washington Care Center,Street,98144.0,Southeast,47.57188,-122.29531,1981,Senior Care Community,98.0,3321035.75,23.15,78374.0,26124.667,1.0
973,NonResidential,Small- and Mid-Sized Office,Holyoke,Avenue,98104.0,Downtown,47.60542,-122.3364,1900,Office,77.0,2178690.5,49.98,39960.0,7992.0,1.0
975,NonResidential,Hotel,The Hotel Seattle,Street,98101.0,Downtown,47.60721,-122.33451,1926,Hotel,98.0,2147968.25,120.91,36240.0,3294.545,1.0
980,NonResidential,Hotel,REYNOLDS WORK RELEASE,Avenue,98104.0,Downtown,47.60223,-122.32889,1909,Hotel,94.0,3321603.0,130.58,35820.0,5970.0,1.0
982,NonResidential,K-12 School,Holy Rosary School,Avenue,98116.0,Southwest,47.56542,-122.38502,1922,K-12 School,76.0,3987215.5,185.23,33462.0,16731.0,1.0
983,NonResidential,K-12 School,Seattle Lutheran High School,Street,98116.0,Southwest,47.56504,-122.38455,1965,K-12 School,98.0,2096835.5,89.29,49744.0,16581.333,1.0
984,NonResidential,Worship Facility,Hope Lutheran Church & School,Avenue,98116.0,Southwest,47.56342,-122.38509,1923,Worship Facility,60.0,1411305.5,43.45,37816.0,18908.0,1.0
990,NonResidential,Supermarket / Grocery Store,Trader Joe's,Way,98126.0,Southwest,47.56197,-122.38109,1946,Supermarket/Grocery Store,100.0,1906384.875,13.29,25762.0,12881.0,1.0
993,NonResidential,Small- and Mid-Sized Office,SK Food Group,Avenue,98126.0,Southwest,47.56175,-122.37835,1981,Office,60.0,2686765.0,34.15,43387.0,14462.333,1.0
1010,NonResidential,Warehouse,Central Park,Avenue,98108.0,Greater Duwamish,47.552,-122.32262,1985,Non-Refrigerated Warehouse,36.0,1811506.375,13.16,37500.0,37500.0,1.0
1011,NonResidential,Medical Office,Seattle Children's Hospital Odessa Brown Children's Clinic,Way,98122.0,Central,47.60132,-122.30477,1990,Medical Office,25.0,2615247.75,33.92,39000.0,19500.0,1.0
1020,NonResidential,Small- and Mid-Sized Office,ABM/ Johnson Barrow,Avenue,98144.0,Greater Duwamish,47.58528,-122.305,1961,Office,57.0,1467060.25,19.82,29740.0,29740.0,1.0
1024,NonResidential,Small- and Mid-Sized Office,American Red Cross,Avenue,98144.0,Southeast,47.5859,-122.29957,1970,Office,81.0,2130673.75,63.06,39170.0,19585.0,1.0
1030,NonResidential,Retail Store,OLD WESTERN STEEL CASTING CO,Avenue,98134.0,Greater Duwamish,47.57403,-122.3336,1914,Retail Store,75.0,557863.6875,3.89,20000.0,20000.0,1.0
1031,NonResidential,Warehouse,3300,Avenue,98134.0,Greater Duwamish,47.5741,-122.32541,1955,Non-Refrigerated Warehouse,91.0,248616.0,1.73,32400.0,16200.0,1.0
1033,NonResidential,Supermarket / Grocery Store,Safeway 0368 - Queen Anne,Avenue,98109.0,Magnolia / Queen Anne,47.63776,-122.35606,1962,Supermarket/Grocery Store,38.0,8905287.0,247.85,25159.0,25159.0,1.0
1041,NonResidential,Distribution Center,MCNIVEN,Street,98134.0,Greater Duwamish,47.56489,-122.3409,1955,Distribution Center,92.0,243518.2031,1.7,26680.0,26680.0,1.0
1042,NonResidential,Warehouse,VISKO BUILDING,Street,98106.0,Delridge,47.56447,-122.35335,1953,Non-Refrigerated Warehouse,6.0,1788148.0,61.71,31521.0,31521.0,1.0
1047,NonResidential,Distribution Center,3851 Distribution Center,Avenue,98134.0,Greater Duwamish,47.5678,-122.33622,1998,Distribution Center,72.0,1096646.25,39.05,35579.0,35579.0,1.0
1049,NonResidential,Distribution Center,3317,Avenue,98134.0,Greater Duwamish,47.57382,-122.32672,1975,Distribution Center,77.0,238969.7031,1.67,49950.0,49950.0,1.0
1054,NonResidential,Worship Facility,Magnolia United Church of Christ,Street,98199.0,Magnolia / Queen Anne,47.63927,-122.4032,1947,Worship Facility,87.0,731321.8125,31.6,22612.0,11306.0,1.0
1060,NonResidential,Warehouse,Mallory Safety & Supply LLC,Way,98134.0,Greater Duwamish,47.55302,-122.33605,1938,Non-Refrigerated Warehouse,12.0,1577040.875,61.53,30545.0,30545.0,1.0
1071,NonResidential,K-12 School,St. Anne School,Street,98112.0,Magnolia / Queen Anne,47.63111,-122.35814,1922,K-12 School,99.0,971990.3125,29.82,32691.0,10897.0,1.0
1073,NonResidential,Worship Facility,St. Anne Church & Rectory,Avenue,98119.0,Magnolia / Queen Anne,47.63159,-122.35839,1963,Worship Facility,55.0,1086678.125,47.59,24227.0,12113.5,1.0
1081,NonResidential,Distribution Center,Dekeriver LLC,Others,98108.0,Greater Duwamish,47.54365,-122.30785,1956,Distribution Center,61.0,651293.3125,18.85,27000.0,27000.0,1.0
1093,NonResidential,Small- and Mid-Sized Office,SPRAG,Avenue,98104.0,Lake Union,47.64243,-122.32618,1957,Office,99.0,361542.0938,2.52,21183.0,10591.5,1.0
1094,NonResidential,Small- and Mid-Sized Office,Eastlake Professional Center,Avenue,98102.0,Lake Union,47.64428,-122.32627,1961,Office,91.0,755618.1875,6.18,29392.0,9797.333,0.86956
1096,NonResidential,Large Office,Eastlake Center (North & South),Avenue,98102.0,Lake Union,47.6465,-122.3252,1985,Office,62.0,4704936.5,32.8,137738.0,27547.6,0.59703
1104,NonResidential,Residence Hall,(ID20861) KEYSTONE GROUP HOME,Avenue,98103.0,Lake Union,47.65014,-122.34424,1988,Residence Hall/Dormitory,49.0,1361427.75,39.5,21118.0,7039.333,1.0
1105,NonResidential,Large Office,Stone 34,Street,98103.0,Lake Union,47.64868,-122.34254,2013,Office,98.0,4489661.0,72.26,206126.0,41225.2,0.61536
1106,NonResidential,Small- and Mid-Sized Office,The Production Network,Way,98103.0,Lake Union,47.64866,-122.34509,1900,Office,48.0,1326178.125,11.27,20500.0,10250.0,1.0
1109,NonResidential,Senior Care Community,Ballard Center,Street,98117.0,Ballard,47.69875,-122.36725,1966,Senior Care Community,3.0,12148720.0,480.9,34636.0,17318.0,0.10498
1110,NonResidential,Worship Facility,Assumption Church,Avenue,98115.0,Northeast,47.67485,-122.29284,1930,Worship Facility,82.0,605186.3125,15.47,25521.0,12760.5,1.0
1111,NonResidential,K-12 School,ASB School,Avenue,98115.0,Northeast,47.67485,-122.29284,1986,K-12 School,79.0,1705515.25,68.14,23190.0,23190.0,1.0
1115,NonResidential,Small- and Mid-Sized Office,St. John Egan Hall,Street,98103.0,Northwest,47.68602,-122.35674,1960,Office,98.0,770333.0,32.63,20678.0,20678.0,1.0
1116,NonResidential,K-12 School,St. John School,Street,98103.0,Northwest,47.68642,-122.35707,1922,K-12 School,43.0,2595783.5,106.45,28820.0,9606.667,1.0
1119,NonResidential,Worship Facility,St. Paul Church & School,Avenue,98178.0,Southeast,47.51042,-122.26277,1954,Worship Facility,69.0,1829981.375,68.97,27876.0,13938.0,1.0
1120,SPS-District K-12,K-12 School,Queen Anne Elementary,Street,98109.0,Magnolia / Queen Anne,47.63796,-122.34897,1925,K-12 School,94.0,1298307.625,29.41,48789.0,48789.0,1.0
1123,NonResidential,Senior Care Community,Kin On Health Care Center,Street,98118.0,Southeast,47.55387,-122.27875,1966,Senior Care Community,51.0,6782435.0,235.26,48882.0,24441.0,0.85203
1124,NonResidential,Warehouse,NWCP-SEA Bldg E,Street,98108.0,Greater Duwamish,47.55374,-122.32498,1977,Non-Refrigerated Warehouse,62.0,439065.9063,3.06,22320.0,22320.0,1.0
1126,NonResidential,Small- and Mid-Sized Office,The Hathaway Building,Avenue,98108.0,Greater Duwamish,47.55316,-122.32616,1982,Office,69.0,1471914.25,10.26,40029.0,20014.5,1.0
1127,NonResidential,Small- and Mid-Sized Office,Building R,Street,98108.0,Greater Duwamish,47.55196,-122.32518,1970,Office,67.0,1269367.5,8.85,28304.0,14152.0,1.0
1131,NonResidential,Small- and Mid-Sized Office,Building O,Street,98108.0,Greater Duwamish,47.55127,-122.32576,1969,Office,41.0,2399353.5,81.96,25872.0,12936.0,1.0
1132,NonResidential,Warehouse,Building N,Street,98108.0,Greater Duwamish,47.55127,-122.32576,1969,Non-Refrigerated Warehouse,65.0,222600.0938,1.55,20500.0,20500.0,1.0
1133,NonResidential,Small- and Mid-Sized Office,4000 aurora building,Avenue,98103.0,Lake Union,47.6557,-122.34682,1958,Office,95.0,534703.6875,3.73,21436.0,10718.0,1.0
1139,NonResidential,Small- and Mid-Sized Office,Northlake Plaza,Street,98103.0,Lake Union,47.64904,-122.34609,1985,Office,94.0,1126157.25,28.09,31417.0,10472.333,0.74186
1144,NonResidential,Retail Store,BERGMAN'S LUGGAGE,Avenue,98101.0,Downtown,47.61165,-122.34011,1916,Retail Store,5.0,478690.0938,3.34,25920.0,12960.0,1.0
1146,NonResidential,Retail Store,"SWIFTY PRINTING & DIGITAL IMAGING, INC.",Avenue,98121.0,Downtown,47.61236,-122.34144,1919,Retail Store,93.0,1011667.5,13.71,25920.0,12960.0,1.0
1150,NonResidential,Small- and Mid-Sized Office,DSHS Belltown Center,Avenue,98121.0,Downtown,47.61297,-122.34324,1919,Office,75.0,1793851.375,46.48,25920.0,12960.0,1.0
1154,NonResidential,Small- and Mid-Sized Office,Administration - Cassel Crag,Avenue,98101.0,East,47.61098,-122.32766,1925,Office,92.0,2478960.0,149.91,39760.0,9940.0,1.0
1156,NonResidential,Small- and Mid-Sized Office,Administration - Blackford Hall,Street,98101.0,East,47.61063,-122.32741,1946,Office,1.0,3767135.0,148.55,22667.0,7555.667,1.0
1161,NonResidential,Small- and Mid-Sized Office,The Peck Building,Street,98103.0,Lake Union,47.65114,-122.34954,2001,Office,79.0,1291405.25,9.0,33740.0,6748.0,0.82187
1162,NonResidential,Retail Store,Dubliner Building,Avenue,98103.0,Lake Union,47.65115,-122.35024,1911,Retail Store,98.0,1021796.625,42.04,20516.0,10258.0,1.0
1163,NonResidential,Retail Store,The Fremont Building,Avenue,98103.0,Lake Union,47.65019,-122.35013,1906,Retail Store,88.0,1215156.25,8.47,27480.0,9160.0,1.0
1165,NonResidential,Mixed Use Property,Saturn Building,Avenue,98103.0,Lake Union,47.65061,-122.35159,1947,Office,95.0,1818867.875,30.32,46958.0,46958.0,1.0
1166,NonResidential,Distribution Center,124N35,Street,98103.0,Lake Union,47.65214,-122.356,1984,Distribution Center,5.0,1934224.25,66.53,26532.0,26532.0,1.0
1169,NonResidential,Small- and Mid-Sized Office,Fremont West Building,Street,98107.0,Lake Union,47.65297,-122.35839,1986,Office,47.0,2173143.75,18.34,35600.0,17800.0,1.0
1171,NonResidential,Worship Facility,First Free Methodist Church,Others,98119.0,Magnolia / Queen Anne,47.64905,-122.36055,1949,Worship Facility,81.0,1799664.125,82.34,62000.0,20666.667,1.0
1172,NonResidential,Small- and Mid-Sized Office,101 Nickerson,Street,98109.0,Magnolia / Queen Anne,47.64805,-122.35534,1981,Office,82.0,776248.6875,5.41,23600.0,11800.0,1.0
1174,NonResidential,Small- and Mid-Sized Office,4 Nick,Others,98109.0,Magnolia / Queen Anne,47.64976,-122.35684,1986,Office,43.0,2303732.75,16.06,40067.0,13355.667,1.0
1175,NonResidential,Small- and Mid-Sized Office,6 Nick,Others,98109.0,Magnolia / Queen Anne,47.64976,-122.35684,1989,Office,67.0,1074989.0,7.49,26419.0,8806.333,0.73799
1176,NonResidential,Small- and Mid-Sized Office,2 Nick,Others,98109.0,Magnolia / Queen Anne,47.64976,-122.35684,1979,Office,54.0,1469556.25,23.85,25262.0,8420.667,1.0
1178,NonResidential,Small- and Mid-Sized Office,Canal Place - 150 Building,Street,98109.0,Magnolia / Queen Anne,47.64901,-122.35516,1980,Office,57.0,1619177.125,11.29,34106.0,11368.667,1.0
1179,NonResidential,Small- and Mid-Sized Office,Canal Place - 130 Building,Street,98109.0,Magnolia / Queen Anne,47.64934,-122.35592,1980,Office,29.0,2313978.75,16.13,34545.0,11515.0,1.0
1180,NonResidential,Small- and Mid-Sized Office,Canal Place Office Park,Street,98109.0,Magnolia / Queen Anne,47.64865,-122.35435,1980,Office,86.0,2782066.5,19.39,70296.0,23432.0,1.0
1181,NonResidential,Small- and Mid-Sized Office,Union Trust Annex,Others,98104.0,Downtown,47.59979,-122.33339,1902,Office,77.0,1217509.125,8.49,27838.0,6959.5,1.0
1192,NonResidential,Small- and Mid-Sized Office,"Cochran, Inc",Avenue,98133.0,Northwest,47.72004,-122.34418,1951,Office,62.0,2050600.75,40.22,39815.0,19907.5,1.0
1196,NonResidential,Warehouse,Comcast,Avenue,98133.0,Northwest,47.72183,-122.34328,1972,Non-Refrigerated Warehouse,73.0,1485945.875,10.36,48112.0,48112.0,1.0
1198,NonResidential,Small- and Mid-Sized Office,Laurel Building,Others,98133.0,Northwest,47.73387,-122.34722,2001,Office,27.0,1772188.5,12.35,42793.0,21396.5,0.614
1203,NonResidential,Retail Store,PETSMART 0375 (ID21236),Avenue,98133.0,Northwest,47.72337,-122.34373,1998,Retail Store,43.0,1689372.625,36.74,26115.0,26115.0,1.0
1205,NonResidential,Worship Facility,Seattle North,Avenue,98105.0,Northeast,47.6702,-122.32066,1949,Worship Facility,78.0,1149140.25,45.33,26033.0,26033.0,1.0
1207,NonResidential,K-12 School,"Seattle Country Day School Bldgs 1,2 & 4",Avenue,98109.0,Magnolia / Queen Anne,47.64344,-122.3509,2007,K-12 School,82.0,1881516.125,61.98,48660.0,12165.0,1.0
1208,NonResidential,Senior Care Community,Queen Anne Healthcare,Avenue,98109.0,Magnolia / Queen Anne,47.6441,-122.34795,1970,Senior Care Community,73.0,5400049.5,180.38,46539.0,23269.5,1.0
1210,NonResidential,Residence Hall,(ID21262) El Rey Apts,Avenue,98121.0,Downtown,47.61283,-122.34392,1909,Residence Hall/Dormitory,47.0,2233262.0,79.58,29796.0,7449.0,1.0
1211,NonResidential,Retail Store,N0030 - Patagonia/DKA,Avenue,98121.0,Downtown,47.6123,-122.34395,1920,Retail Store,36.0,983595.875,17.12,26400.0,13200.0,1.0
1212,NonResidential,Small- and Mid-Sized Office,First & Lenora,Avenue,98121.0,Downtown,47.61185,-122.3434,1918,Office,98.0,1262255.75,8.8,38148.0,12716.0,1.0
1215,NonResidential,Worship Facility,Church of Scientology Washington State,Street,98119.0,Magnolia / Queen Anne,47.62232,-122.36101,1955,Worship Facility,4.0,1806468.0,12.59,31945.0,6389.0,1.0
1220,NonResidential,Small- and Mid-Sized Office,Salvation Army NW Div. HQ,Avenue,98109.0,Magnolia / Queen Anne,47.6189,-122.35713,1985,Office,43.0,4480961.0,31.24,85963.0,17192.6,0.61547
1226,NonResidential,Retail Store,DILLER BUILDING (ID21310),Avenue,98101.0,Downtown,47.60683,-122.33771,1900,Retail Store,92.0,1169948.875,26.38,34680.0,8670.0,1.0
1227,NonResidential,Worship Facility,Plymouth Congregational Church,Avenue,98101.0,Downtown,47.60867,-122.33265,1968,Worship Facility,24.0,5587347.0,247.97,75058.0,25019.333,0.54022
1230,NonResidential,Retail Store,Coliseum,Avenue,98101.0,Downtown,47.61103,-122.33549,1915,Retail Store,2.0,2100982.75,20.76,36504.0,36504.0,1.0
1231,NonResidential,Small- and Mid-Sized Office,Westlake Place,Avenue,98101.0,Downtown,47.61091,-122.33667,1907,Office,8.0,2998208.25,20.9,35200.0,5866.667,1.0
1232,NonResidential,Small- and Mid-Sized Office,4th Avenue Building,Avenue,98101.0,Downtown,47.60961,-122.33566,1907,Office,83.0,1538750.625,48.35,35840.0,7168.0,1.0
1233,NonResidential,Other,5265050802 - WM1084 Fifth and Union,Avenue,98101.0,Downtown,47.60985,-122.33527,1941,Bank Branch,60.0,1333432.125,9.3,25920.0,12960.0,1.0
1234,NonResidential,Small- and Mid-Sized Office,Fourth and Union,Avenue,98101.0,Downtown,47.60952,-122.33558,1928,Office,17.0,2883139.0,73.61,30525.0,7631.25,1.0
1252,NonResidential,Medical Office,Swedish Alcoa Building,Street,98122.0,East,47.61065,-122.32125,1962,Medical Office,2.0,2946756.25,85.55,30855.0,15427.5,0.66667
1253,NonResidential,Small- and Mid-Sized Office,FIRST BAPTIST CHURCH,Avenue,98122.0,East,47.61194,-122.32177,1910,Office,90.0,2828950.5,107.45,73549.0,24516.333,1.0
1256,NonResidential,Medical Office,Northwest Kidney Center (21365),Way,98114.0,East,47.60865416,-122.3205904,1963,Medical Office,42.0,3735308.5,60.04,39115.0,13038.333,1.0
1258,NonResidential,Worship Facility,First Presbyterian Church of Seattle,Avenue,98104.0,East,47.60821,-122.3296,1962,Worship Facility,55.0,2465983.5,123.41,37796.0,12598.667,1.0
1263,NonResidential,Warehouse,Superior Self Storage,Others,98107.0,Ballard,47.66388,-122.36831,1960,Non-Refrigerated Warehouse,80.0,161311.0938,1.12,36444.0,36444.0,1.0
1264,NonResidential,Warehouse,lee warehouse,Avenue,98107.0,Ballard,47.65907,-122.36783,1950,Non-Refrigerated Warehouse,63.0,966677.125,31.61,27553.0,27553.0,1.0
1268,NonResidential,Retail Store,Guitar Center (Block 38W) - SEDO,Avenue,98109.0,Lake Union,47.62399,-122.33804,1964,Retail Store,57.0,2553763.5,82.72,45271.0,22635.5,1.0
1269,NonResidential,Small- and Mid-Sized Office,Clements Rice Building (Block 38W) - SEDO,Avenue,98109.0,Lake Union,47.62437,-122.33802,1920,Office,62.0,1372213.375,35.77,28380.0,9460.0,0.57082
1270,NonResidential,Large Office,Interurban Exchange IV/V & Van Vorst - SEDO,Avenue,98109.0,Lake Union,47.62296,-122.3362,2009,Office,77.0,28053172.0,487.53,508160.0,101632.0,1.0
1271,NonResidential,Small- and Mid-Sized Office,511 Boren,Avenue,98109.0,Lake Union,47.62353,-122.33622,1926,Office,95.0,966907.375,32.09,26176.0,8725.333,1.0
1272,NonResidential,Small- and Mid-Sized Office,Fairview,Avenue,98109.0,Lake Union,47.62799,-122.33132,1926,Office,1.0,7442314.5,73.48,37740.0,37740.0,1.0
1275,NonResidential,Worship Facility,First Church Seattle,Way,98109.0,Magnolia / Queen Anne,47.61876,-122.3534,2009,Worship Facility,66.0,739210.5,20.64,23241.0,7747.0,1.0
1281,NonResidential,Small- and Mid-Sized Office,Sellen Construction Headquarters,Avenue,98109.0,Lake Union,47.62055,-122.33881,1999,Office,84.0,2003807.75,13.97,38038.0,9509.5,1.0
1282,NonResidential,Small- and Mid-Sized Office,Terry Ave Building,Avenue,98109.0,Lake Union,47.62028,-122.33717,2007,Office,92.0,2524228.25,77.8,64596.0,16149.0,0.61923
1283,NonResidential,Small- and Mid-Sized Office,219 Terry Building,Avenue,98109.0,Lake Union,47.62038,-122.33759,1928,Office,1.0,9190442.0,234.03,41466.0,13822.0,0.85381
1285,NonResidential,Large Office,202 Westlake,Avenue,98109.0,Lake Union,47.62004,-122.33807,2013,Office,92.0,7429423.0,86.51,130710.0,21785.0,0.22883
1286,NonResidential,Small- and Mid-Sized Office,224 Westlake,Avenue,98109.0,Lake Union,47.62054,-122.33807,1926,Office,77.0,1912760.75,13.33,35780.0,8945.0,1.0
1288,NonResidential,Mixed Use Property,Century,Street,98109.0,Magnolia / Queen Anne,47.6223,-122.35653,1964,Office,41.0,564754.1875,3.94,25132.0,6283.0,0.70922
1294,NonResidential,Small- and Mid-Sized Office,Doyle Building,Street,98101.0,Downtown,47.60994,-122.33997,1919,Office,72.0,2071670.25,77.48,47686.0,11921.5,1.0
1306,NonResidential,Mixed Use Property,E0010 - Elliott Court,Avenue,98121.0,Downtown,47.61113,-122.34556,1990,Parking,91.0,1717130.875,11.97,82065.0,20516.25,0.57595
1308,NonResidential,Small- and Mid-Sized Office,Alaska Trade Building,Avenue,98101.0,Downtown,47.61041,-122.34214,1910,Office,47.0,1862176.875,12.98,36160.0,9040.0,1.0
1314,NonResidential,Small- and Mid-Sized Office,U0010 - Union Stables,Avenue,98121.0,Downtown,47.6123,-122.34611,1909,Office,100.0,1634178.25,14.13,66900.0,13380.0,1.0
1320,NonResidential,Small- and Mid-Sized Office,RDM Building,Avenue,98102.0,Lake Union,47.6367,-122.3285,2000,Office,13.0,3205182.5,22.46,50499.0,16833.0,0.73188
1321,NonResidential,Small- and Mid-Sized Office,1910 Fairview - new,Others,98104.0,Lake Union,47.63616,-122.32718,1964,Office,68.0,3600571.25,41.22,54465.0,10893.0,0.82365
1322,NonResidential,K-12 School,ST NICHOLAS SCHOOL,Avenue,98102.0,East,47.63239,-122.32072,1930,K-12 School,56.0,4167253.75,182.81,45960.0,22980.0,1.0
1326,NonResidential,Small- and Mid-Sized Office,Space Needle Building,Avenue,98109.0,Lake Union,47.61992,-122.34539,1959,Office,97.0,436604.0938,3.04,21128.0,10564.0,1.0
1330,NonResidential,Hotel,Travelodge - WA - Seattle - 07033,Avenue,98109.0,Lake Union,47.62014,-122.34456,1959,Hotel,37.0,2804534.0,75.25,38520.0,9630.0,1.0
1331,NonResidential,Hotel,Seattle Pacific Hotel,Avenue,98109.0,Lake Union,47.62174,-122.34417,1961,Hotel,95.0,867184.375,30.22,29186.0,9728.667,0.85418
1333,NonResidential,Worship Facility,Seattle Unity Church,Avenue,98109.0,Lake Union,47.6201,-122.34071,1960,Worship Facility,56.0,581289.0,4.05,27338.0,27338.0,1.0
1338,NonResidential,Small- and Mid-Sized Office,Bayview Building,Avenue,98119.0,Magnolia / Queen Anne,47.61954,-122.35847,1930,Office,94.0,2590622.0,115.43,45864.0,15288.0,1.0
1340,NonResidential,K-12 School,Lakeside Middle School,Avenue,98125.0,Northwest,47.72726,-122.32835,1999,K-12 School,23.0,3485865.5,104.91,49252.0,24626.0,1.0
1351,NonResidential,Small- and Mid-Sized Office,Galer,Street,98102.0,Lake Union,47.63245,-122.32529,1987,Office,89.0,1426279.5,35.96,33176.0,11058.667,1.0
1359,NonResidential,Worship Facility,Seattle Chinese Baptist Church,Avenue,98108.0,Greater Duwamish,47.55072,-122.30265,1977,Worship Facility,80.0,326001.1875,2.27,21948.0,221.697,1.0
1364,NonResidential,Warehouse,1001 S Myrtle St,Street,98108.0,Greater Duwamish,47.53906,-122.32031,1977,Non-Refrigerated Warehouse,33.0,856088.625,5.97,29380.0,29380.0,1.0
1373,NonResidential,Worship Facility,Japanese Baptist Church,Way,98122.0,East,47.60321889,-122.3205567,1922,Worship Facility,87.0,331675.0,7.07,22688.0,11344.0,1.0
1392,NonResidential,Small- and Mid-Sized Office,Dept of Social & Health Services (WSDSHS) - COPY FOR MAKENSAY,Street,98118.0,Greater Duwamish,47.54693,-122.28718,1982,Office,84.0,1903455.875,13.27,41262.0,20631.0,1.0
1408,NonResidential,Worship Facility,FAIRVIEW CHURCH (ID21723),Way,98115.0,North,47.68566,-122.31849,1908,Worship Facility,79.0,2077039.375,86.81,45680.0,15226.667,1.0
1418,NonResidential,Senior Care Community,Mirabella Seattle,Avenue,98109.0,Lake Union,47.61935,-122.33389,2006,Senior Care Community,8.0,37797084.0,913.07,724148.0,51724.857,1.0
1422,NonResidential,Worship Facility,Mars Hill Church West Seattle,Avenue,98106.0,Southwest,47.53439,-122.37699,1957,Worship Facility,96.0,531737.1875,3.71,23562.0,23562.0,1.0
1430,NonResidential,Refrigerated Warehouse,Sun Food Trading Co,Avenue,98108.0,Greater Duwamish,47.56067,-122.32705,1914,Refrigerated Warehouse,75.0,1351267.875,9.42,45594.0,22797.0,1.0
1432,NonResidential,Warehouse,(ID21786) 615 S ALASKA,Street,98108.0,Greater Duwamish,47.56056,-122.32593,1975,Non-Refrigerated Warehouse,44.0,870625.8125,18.63,28126.0,28126.0,1.0
1433,NonResidential,Warehouse,NWCP-SEA OC Bldg,Avenue,98108.0,Greater Duwamish,47.54813,-122.32553,1964,Non-Refrigerated Warehouse,53.0,378714.4063,2.64,35000.0,35000.0,1.0
1434,NonResidential,Warehouse,OTM 162,Avenue,98108.0,Greater Duwamish,47.54948,-122.32536,1962,Non-Refrigerated Warehouse,6.0,1208407.625,26.55,26150.0,26150.0,1.0
1435,NonResidential,Small- and Mid-Sized Office,5950 6th Avenue S. Building,Avenue,98108.0,Greater Duwamish,47.54974,-122.3261,1967,Office,73.0,1088556.25,7.59,24000.0,12000.0,1.0
1436,NonResidential,K-12 School,Peyton,Avenue,98102.0,East,47.64132,-122.31644,1968,K-12 School,38.0,2478045.5,73.26,43594.0,8718.8,1.0
1456,NonResidential,Senior Care Community,HEALTH AND REHAB OF NORTH SEATTLE,Avenue,98133.0,Northwest,47.72618,-122.35642,1954,Senior Care Community,85.0,5655578.0,203.73,51298.0,25649.0,1.0
1458,NonResidential,Worship Facility,Shoreline,Street,98133.0,Northwest,47.72558,-122.3578,1962,Worship Facility,100.0,265774.9063,1.85,22047.0,22047.0,1.0
1462,NonResidential,Warehouse,South Park,Avenue,98108.0,Greater Duwamish,47.5213,-122.32182,1979,Non-Refrigerated Warehouse,3.0,3363535.5,103.28,31600.0,31600.0,1.0
1463,NonResidential,Warehouse,821 WEARHOUSE,Street,98108.0,Greater Duwamish,47.52024,-122.32137,2007,Non-Refrigerated Warehouse,63.0,876425.0,23.9,35289.0,35289.0,1.0
1464,NonResidential,Warehouse,PNP Properties Building,Street,98108.0,Greater Duwamish,47.51899,-122.321,1981,Non-Refrigerated Warehouse,50.0,1750419.0,80.09,28920.0,28920.0,1.0
1465,NonResidential,Warehouse,9243 10TH AVE S (ID21897),Avenue,98108.0,Greater Duwamish,47.5193,-122.3213,1978,Non-Refrigerated Warehouse,60.0,736428.625,32.77,22176.0,22176.0,1.0
1468,NonResidential,Small- and Mid-Sized Office,Northgate Exec Center A,Street,98125.0,North,47.70079,-122.32714,1974,Office,38.0,3568419.5,24.88,39927.0,13309.0,1.0
1470,NonResidential,Medical Office,North Seattle Professional Center,Avenue,98115.0,North,47.70007,-122.32533,1980,Medical Office,64.0,1002995.0,6.99,26930.0,13465.0,0.7642
1471,NonResidential,Medical Office,311 NGT Northgate Med,Avenue,98115.0,North,47.70087,-122.32379,1968,Medical Office,76.0,2890379.0,49.62,38745.0,19372.5,1.0
1474,NonResidential,Medical Office,Lakeview Medical Building,Others,98105.0,Northeast,47.66183,-122.29264,1967,Medical Office,86.0,1645605.125,53.73,38378.0,12792.667,1.0
1475,NonResidential,Warehouse,Bowman Building 9742,Way,98105.0,Northeast,47.66294,-122.29521,1980,Non-Refrigerated Warehouse,64.0,1275231.75,49.73,33576.0,16788.0,1.0
1476,NonResidential,Supermarket / Grocery Store,Safeway 0488 - 45th St,Street,98105.0,Northeast,47.66205,-122.29545,1975,Supermarket/Grocery Store,21.0,10642754.0,225.67,33005.0,33005.0,1.0
1488,NonResidential,Worship Facility,(ID21964) BALLARD BAPTIST CHURCH,Street,98107.0,Ballard,47.67477,-122.38241,1910,Worship Facility,80.0,431390.4063,17.38,21765.0,10882.5,1.0
1496,NonResidential,Worship Facility,Immaculate Conception Church,Avenue,98122.0,Central,47.6101,-122.30838,1901,Worship Facility,1.0,1751483.875,64.88,26560.0,13280.0,1.0
1497,NonResidential,Warehouse,Culbertson Warehouse,Avenue,98103.0,Lake Union,47.65022,-122.34174,1957,Non-Refrigerated Warehouse,49.0,116486.6016,0.81,20140.0,10070.0,1.0
1508,NonResidential,Retail Store,King Plaza 7101,Way,98118.0,Greater Duwamish,47.53846,-122.28305,1992,Retail Store,82.0,6917280.0,215.56,38845.0,19422.5,1.0
1509,NonResidential,Supermarket / Grocery Store,Safeway 0219 - Othello St,Street,98118.0,Greater Duwamish,47.53747,-122.28308,1953,Supermarket/Grocery Store,40.0,7619445.0,173.75,26092.0,26092.0,1.0
1512,NonResidential,Small- and Mid-Sized Office,THE CHAPMAN BLDG,Avenue,98108.0,Greater Duwamish,47.55045,-122.32749,1967,Office,98.0,1213869.75,55.3,25500.0,25500.0,1.0
1518,NonResidential,K-12 School,St. Alphonsus School,Avenue,98107.0,Ballard,47.6712,-122.37568,1922,K-12 School,97.0,1379932.5,60.34,35448.0,11816.0,1.0
1519,NonResidential,Supermarket / Grocery Store,BALLARD MARKET (ID22230),Street,98107.0,Ballard,47.66986,-122.37418,1966,Supermarket/Grocery Store,8.0,9336239.0,208.53,29214.0,29214.0,1.0
1522,NonResidential,Supermarket / Grocery Store,Safeway 1477 - Market St,Street,98107.0,Ballard,47.66828,-122.37428,2000,Supermarket/Grocery Store,34.0,14029480.0,384.85,89103.0,89103.0,0.51702
1525,NonResidential,Warehouse,Building B,Street,98107.0,Ballard,47.6644,-122.37246,1975,Non-Refrigerated Warehouse,3.0,3035962.25,78.22,41478.0,13826.0,1.0
1526,NonResidential,Warehouse,Building A,Way,98107.0,Ballard,47.66411,-122.37185,1980,Non-Refrigerated Warehouse,2.0,752104.0,5.24,39840.0,39840.0,1.0
1558,NonResidential,Worship Facility,Quest Church,Way,98107.0,Ballard,47.66327,-122.37439,1975,Worship Facility,92.0,786253.6875,29.24,40445.0,40445.0,1.0
1559,NonResidential,Retail Store,Office Max #560,Way,98107.0,Ballard,47.66318,-122.37283,1996,Retail Store,53.0,1137967.5,13.29,23500.0,23500.0,1.0
1560,NonResidential,Retail Store,Ballard Goodwill,Avenue,98134.0,Ballard,47.67518,-122.36549,1967,Retail Store,82.0,1404253.75,31.79,22420.0,22420.0,1.0
1563,NonResidential,Supermarket / Grocery Store,70500811 -- Interbay,Street,98119.0,Magnolia / Queen Anne,47.64909,-122.37788,1961,Supermarket/Grocery Store,35.0,8518313.0,237.54,25842.0,25842.0,1.0
1566,NonResidential,Small- and Mid-Sized Office,Canal Building,Avenue,98119.0,Magnolia / Queen Anne,47.65252,-122.37587,1982,Office,88.0,858780.625,14.9,25859.0,8619.667,1.0
1567,NonResidential,Warehouse,Commodore,Way,98199.0,Magnolia / Queen Anne,47.66238,-122.38831,1974,Non-Refrigerated Warehouse,1.0,1730600.625,34.26,25600.0,25600.0,1.0
1569,NonResidential,Small- and Mid-Sized Office,Salmon Bay Landing,Way,98199.0,Magnolia / Queen Anne,47.66106,-122.38576,2008,Office,89.0,1294615.25,9.03,41784.0,10446.0,0.79899
1570,NonResidential,Warehouse,West Commodore,Way,98199.0,Magnolia / Queen Anne,47.66206,-122.38948,1960,Non-Refrigerated Warehouse,71.0,1388345.125,37.49,56884.0,56884.0,1.0
1573,NonResidential,Retail Store,1023-Crown Hill (Relo),Avenue,98117.0,Ballard,47.6917,-122.37617,1989,Retail Store,66.0,2017967.75,46.44,32810.0,32810.0,1.0
1581,NonResidential,Small- and Mid-Sized Office,Nickerson Business Center,Avenue,98119.0,Magnolia / Queen Anne,47.65504,-122.37402,1961,Office,80.0,657385.8125,4.58,20022.0,10011.0,1.0
1582,NonResidential,Distribution Center,property #50,Street,98119.0,Magnolia / Queen Anne,47.65563,-122.37194,1960,Distribution Center,89.0,520011.8125,14.81,36498.0,18249.0,1.0
1584,NonResidential,Small- and Mid-Sized Office,Commodore Way,Way,98199.0,Magnolia / Queen Anne,47.66006,-122.38631,2007,Office,96.0,845044.125,5.94,30152.0,7538.0,0.81162
1585,NonResidential,Small- and Mid-Sized Office,Fisheries Building,Avenue,98199.0,Magnolia / Queen Anne,47.65881,-122.38382,1979,Office,71.0,727385.8125,5.07,22365.0,5591.25,1.0
1586,NonResidential,Small- and Mid-Sized Office,The Wharf Building,Avenue,98199.0,Magnolia / Queen Anne,47.65801,-122.3839,1994,Office,82.0,904059.875,6.3,30172.0,7543.0,1.0
1590,NonResidential,Warehouse,Ballard Hardware & Supply Co Inc,Avenue,98107.0,Ballard,47.66353,-122.38064,1927,Non-Refrigerated Warehouse,100.0,241478.5938,1.68,42500.0,10625.0,1.0
1595,NonResidential,Small- and Mid-Sized Office,5105 Leary Ave,Avenue,98107.0,Ballard,47.66497,-122.38047,1968,Office,26.0,1686405.0,34.52,23500.0,11750.0,1.0
1596,NonResidential,Small- and Mid-Sized Office,4925 Leary,Avenue,98107.0,Ballard,47.66431,-122.37988,1966,Office,93.0,579888.3125,16.67,22282.0,22282.0,1.0
1607,NonResidential,Small- and Mid-Sized Office,Lake City Professional Center,Street,98125.0,North,47.719,-122.29966,1931,Office,58.0,2235765.5,44.26,37500.0,18750.0,1.0
1609,NonResidential,K-12 School,Bliss Hall,Avenue,98125.0,Northwest,47.73143,-122.32784,1930,K-12 School,61.0,1164364.75,33.28,23983.0,7994.333,1.0
1610,NonResidential,Distribution Center,Jack Warehouse,Way,98106.0,Delridge,47.55832,-122.35239,1980,Distribution Center,22.0,809870.8125,30.49,24100.0,24100.0,1.0
1613,NonResidential,K-12 School,University Child Development School,Avenue,98105.0,Northeast,47.66665,-122.31818,2004,K-12 School,5.0,3846501.25,128.66,10447.667,15671.5,1.0
1621,NonResidential,Small- and Mid-Sized Office,Fishermen's Commerce Building,Avenue,98199.0,Magnolia / Queen Anne,47.65708,-122.38383,1983,Office,64.0,1286817.375,8.97,40571.0,10142.75,0.73259
1622,NonResidential,Small- and Mid-Sized Office,Icicle Seafoods,Avenue,98199.0,Magnolia / Queen Anne,47.65649,-122.38383,1983,Office,78.0,1755788.5,12.24,41707.0,10426.75,0.62455
1624,NonResidential,Warehouse,Keller Supply,Avenue,98119.0,Magnolia / Queen Anne,47.64913,-122.37929,1955,Non-Refrigerated Warehouse,9.0,1700057.375,28.28,39497.0,19748.5,1.0
1637,NonResidential,Small- and Mid-Sized Office,MERIDIAN NORTH OFFICE BUILDING,Avenue,98133.0,Northwest,47.70793,-122.33316,1982,Office,73.0,1211349.25,8.44,27574.0,13787.0,1.0
1643,NonResidential,Senior Care Community,Foundation House at Northgate,Avenue,98125.0,North,47.71069,-122.32674,1998,Senior Care Community,4.0,3936421.5,82.57,43661.0,8732.2,1.0
1648,NonResidential,Small- and Mid-Sized Office,Northgate Meridian Bldg,Way,98133.0,Northwest,47.70842,-122.3332,1987,Office,91.0,2472350.25,17.24,76105.0,25368.333,0.64119
1657,NonResidential,Medical Office,5th Ave Professional Center,Avenue,98125.0,North,47.70676,-122.32264,1988,Medical Office,55.0,1459199.75,33.42,28841.0,9613.667,1.0
1664,NonResidential,K-12 School,Holy Family School,Avenue,98106.0,Delridge,47.51698,-122.35946,1924,K-12 School,92.0,959352.0,42.96,42975.0,21487.5,1.0
1668,NonResidential,Small- and Mid-Sized Office,MMFS Upper Bldg,Avenue,98106.0,Delridge,47.53309,-122.33977,1988,Office,88.0,2619088.5,55.85,30659.0,15329.5,1.0
1671,NonResidential,Medical Office,Meridian Center for Health,Avenue,98133.0,Northwest,47.70558,-122.33486,1979,Medical Office,81.0,1633105.375,11.39,34759.0,17379.5,1.0
1672,NonResidential,Hospital,Main Hospital - All Wings,Others,98133.0,Northwest,47.71425,-122.33689,1966,Hospital (General Medical & Surgical),85.0,98960776.0,3278.11,51954.0,415632.0,1.0
1678,NonResidential,Supermarket / Grocery Store,Red Apple Market,Avenue,98144.0,Greater Duwamish,47.57894,-122.31287,1965,Supermarket/Grocery Store,16.0,5833800.0,129.89,21603.0,21603.0,1.0
1690,NonResidential,Medical Office,Central Campus,Avenue,98112.0,East,47.62014,-122.31228,1964,Medical Office,60.0,102673696.0,3238.24,591981.0,197327.0,1.0
1691,NonResidential,Distribution Center,Intermountain Supply,Avenue,98108.0,Delridge,47.53158,-122.33568,1979,Distribution Center,53.0,436252.5,3.04,42900.0,42900.0,1.0
1698,NonResidential,Warehouse,KOF Associates,Street,98144.0,Downtown,47.59783,-122.31554,1956,Non-Refrigerated Warehouse,92.0,313528.0938,2.19,25840.0,12920.0,1.0
1701,NonResidential,Small- and Mid-Sized Office,The Weller Building,Street,98144.0,Downtown,47.59728,-122.31587,2001,Office,89.0,1981115.25,19.12,70332.0,14066.4,0.68585
1726,NonResidential,Supermarket / Grocery Store,Safeway 1143 - 15th Ave,Avenue,98117.0,Ballard,47.6899,-122.37619,1994,Supermarket/Grocery Store,22.0,12250422.0,326.74,45522.0,45522.0,1.0
1733,NonResidential,Small- and Mid-Sized Office,Building F,Way,98134.0,Greater Duwamish,47.56999,-122.34703,1997,Office,57.0,2826828.0,23.6,40657.0,20328.5,1.0
1745,NonResidential,Residence Hall,St. James Cathedral & Rectory,Avenue,98104.0,East,47.6073,-122.32585,1904,Residence Hall/Dormitory,29.0,3652708.75,184.0,44086.0,44086.0,1.0
1746,NonResidential,Small- and Mid-Sized Office,Pigott Building,Avenue,98104.0,East,47.60663,-122.32526,1970,Office,94.0,1403820.0,9.79,54372.0,7767.429,0.61701
1754,NonResidential,Medical Office,HART First Hill LLC,Street,98104.0,East,47.60862,-122.32372,1945,Medical Office,52.0,25311526.0,1110.07,274568.0,274568.0,1.0
1755,NonResidential,Small- and Mid-Sized Office,Swedish Invex Building,Street,98122.0,East,47.60819,-122.32282,1956,Office,69.0,1245923.75,62.23,21282.0,7094.0,1.0
1762,NonResidential,Small- and Mid-Sized Office,Gateway Plaza,Way,98125.0,North,47.72986,-122.29278,1985,Office,100.0,409578.4063,2.86,33580.0,11193.333,0.61316
1766,NonResidential,Warehouse,Daily Racing Form,Avenue,98165.0,North,47.72051,-122.30103,1977,Non-Refrigerated Warehouse,100.0,113130.0,2.69,21936.0,21936.0,1.0
1778,NonResidential,Small- and Mid-Sized Office,Frye Commerce Center,Street,98103.0,Delridge,47.56877,-122.36369,1988,Office,69.0,3046543.0,21.24,66484.0,33242.0,1.0
1779,NonResidential,Small- and Mid-Sized Office,Swedish Cherry Building,Others,98122.0,East,47.60789,-122.32249,1959,Office,85.0,1356874.75,62.05,25151.0,8383.667,1.0
1780,NonResidential,Hotel,Hotel - The Baroness Hotel,Street,98104.0,East,47.60958,-122.32646,1928,Hotel,56.0,2640980.25,112.34,35770.0,5961.667,1.0
1782,NonResidential,Hotel,Hotel - Inn at Virginia Mason,Street,98101.0,East,47.60981,-122.32687,1928,Hotel,85.0,3239754.0,101.31,48006.0,5334.0,1.0
1785,Nonresidential COS,Small- and Mid-Sized Office,CSC Engineering (A),Street,98134.0,Greater Duwamish,47.5956,-122.32292,1973,Office,34.0,2796425.0,110.66,21315.0,10657.5,1.0
1806,NonResidential,Small- and Mid-Sized Office,18 West Mercer,Street,98119.0,Magnolia / Queen Anne,47.62481,-122.35762,1984,Office,69.0,2190460.0,24.31,57110.0,14277.5,0.72313
1811,NonResidential,Small- and Mid-Sized Office,Diamond Building,Avenue,98121.0,Downtown,47.61833,-122.35871,1979,Office,50.0,1748629.875,22.26,34030.0,11343.333,1.0
1818,NonResidential,Distribution Center,3223,Avenue,98134.0,Greater Duwamish,47.5746,-122.32637,1952,Distribution Center,7.0,1642471.5,38.57,41308.0,41308.0,1.0
1861,NonResidential,Warehouse,"Ocean Beauty Alaska Bldg, LLC",Street,98119.0,Magnolia / Queen Anne,47.65674,-122.37223,1957,Non-Refrigerated Warehouse,12.0,985401.8125,33.8,38255.0,38255.0,1.0
1870,NonResidential,Small- and Mid-Sized Office,Ship Canal,Street,98103.0,Lake Union,47.65103,-122.35541,1989,Office,71.0,2282551.25,59.24,48924.0,16308.0,1.0
1875,NonResidential,Small- and Mid-Sized Office,Areis Building,Avenue,98102.0,Lake Union,47.64168,-122.32562,1959,Office,88.0,1602084.375,11.17,50333.0,12583.25,0.64167
1878,NonResidential,Small- and Mid-Sized Office,2345 Eastlake,Avenue,98102.0,Lake Union,47.64113,-122.32625,2000,Office,73.0,1994967.75,13.91,57132.0,19044.0,0.61654
1884,NonResidential,Worship Facility,The Salvation Army,Avenue,98106.0,Delridge,47.52172,-122.35487,1957,Worship Facility,52.0,968026.3125,26.73,24224.0,12112.0,1.0
1885,NonResidential,Worship Facility,Westood Christian Community,Avenue,98106.0,Delridge,47.51989,-122.35489,1963,Worship Facility,78.0,400770.9063,13.12,23706.0,23706.0,1.0
1893,NonResidential,Supermarket / Grocery Store,Saars Marketplace Foods,Avenue,98118.0,Southeast,47.52262,-122.26922,1959,Supermarket/Grocery Store,97.0,2842819.5,55.86,67450.0,67450.0,1.0
1899,NonResidential,Small- and Mid-Sized Office,1419 Elliott Ave,Avenue,98119.0,Magnolia / Queen Anne,47.63063,-122.37428,1979,Office,100.0,1234095.5,60.57,43016.0,21508.0,0.87447
1901,NonResidential,Small- and Mid-Sized Office,1430-1448 Elliott Ave W,Avenue,98119.0,Magnolia / Queen Anne,47.63128,-122.37387,1940,Office,98.0,638507.125,24.76,20671.0,10335.5,1.0
1903,NonResidential,Warehouse,Tile for Less,Avenue,98134.0,Greater Duwamish,47.58065,-122.33356,1927,Non-Refrigerated Warehouse,57.0,499828.5938,14.36,21600.0,21600.0,1.0
1907,NonResidential,Worship Facility,Hillcrest Presbyterian Church,Avenue,98146.0,Southwest,47.50959,-122.37417,1977,Worship Facility,14.0,866126.375,6.04,35844.0,35844.0,1.0
1908,NonResidential,Small- and Mid-Sized Office,Wallingford Plaza,Street,98103.0,Lake Union,47.66116,-122.34172,1916,Office,85.0,1639136.25,18.87,31774.0,10591.333,1.0
1922,NonResidential,Warehouse,South Seattle Business Park- Bldg A,Way,98134.0,Greater Duwamish,47.56121,-122.33872,1953,Non-Refrigerated Warehouse,19.0,709990.8125,4.95,26094.0,26094.0,1.0
1923,NonResidential,Small- and Mid-Sized Office,South Seattle Business Park - Bldg B,Way,98134.0,Greater Duwamish,47.56121,-122.33872,1983,Office,68.0,1084553.75,7.56,23687.0,11843.5,1.0
1924,NonResidential,Small- and Mid-Sized Office,South Seattle Business Park - Bldg C,Way,98134.0,Greater Duwamish,47.56121,-122.33872,1983,Office,20.0,1435562.75,10.01,24221.0,12110.5,1.0
1925,NonResidential,Mixed Use Property,Pier 56,Way,98101.0,Downtown,47.60546,-122.34091,1900,Office,37.0,5381105.0,37.51,71919.0,35959.5,0.80418
1926,NonResidential,Small- and Mid-Sized Office,Pier 55,Way,98101.0,Downtown,47.60546,-122.34091,1900,Office,54.0,3999505.25,128.41,32027.0,16013.5,1.0
1929,NonResidential,Small- and Mid-Sized Office,Airport Way,Way,98134.0,Greater Duwamish,47.58802,-122.32111,1914,Office,84.0,2018385.75,50.07,34425.0,11475.0,1.0
1934,NonResidential,Medical Office,Swedish Health Services,Avenue,98116.0,Southwest,47.57296,-122.38643,1984,Medical Office,5.0,1961581.5,13.67,40304.0,13434.667,0.70226
1939,NonResidential,Distribution Center,The Long Building,Avenue,98108.0,Greater Duwamish,47.52878,-122.32771,1990,Distribution Center,50.0,1280263.75,42.45,29619.0,29619.0,1.0
1941,NonResidential,K-12 School,St. Mary Giddens School,Avenue,98144.0,Central,47.59692,-122.30601,1922,K-12 School,47.0,1431784.0,54.24,21592.0,10796.0,1.0
1943,NonResidential,K-12 School,St. Catherine School,Avenue,98115.0,North,47.69061,-122.31992,1931,K-12 School,69.0,805643.5,19.51,23923.0,11961.5,1.0
1944,NonResidential,Small- and Mid-Sized Office,ifo and associates,Street,98144.0,Central,47.59976,-122.31441,1907,Office,47.0,1748444.25,37.08,25200.0,8400.0,1.0
1946,NonResidential,Small- and Mid-Sized Office,CJ and J Pacific,Street,98144.0,Central,47.59693,-122.31124,1963,Office,80.0,1328461.25,9.26,28296.0,14148.0,1.0
1949,NonResidential,Small- and Mid-Sized Office,Planned Parenthood Western,Street,98122.0,Central,47.61744,-122.30514,1999,Office,55.0,1965075.625,22.48,31357.0,10452.333,1.0
1950,NonResidential,Distribution Center,80,Street,98134.0,Greater Duwamish,47.55945,-122.33601,1968,Distribution Center,94.0,1157976.5,8.07,160000.0,160000.0,1.0
1951,NonResidential,Warehouse,Prologis Park Seattle 2,Street,98134.0,Greater Duwamish,47.55601,-122.33627,1960,Non-Refrigerated Warehouse,11.0,4590246.5,174.62,53550.0,53550.0,1.0
1952,NonResidential,Warehouse,Messenger Corp,Street,98134.0,Greater Duwamish,47.55716,-122.33744,1924,Non-Refrigerated Warehouse,62.0,1628540.0,67.05,38412.0,38412.0,1.0
1960,NonResidential,Small- and Mid-Sized Office,LONG Building Technologies,Avenue,98108.0,Greater Duwamish,47.55498,-122.32497,1953,Office,98.0,655422.375,19.61,24291.0,24291.0,1.0
1961,NonResidential,Warehouse,NWCP-SEA Bldg D,Street,98108.0,Greater Duwamish,47.55458,-122.32639,1966,Non-Refrigerated Warehouse,5.0,1269847.75,8.85,36544.0,36544.0,1.0
1964,NonResidential,Distribution Center,Terminal Leasing,Way,98134.0,Greater Duwamish,47.5822,-122.321,1947,Distribution Center,70.0,659761.875,17.04,21349.0,21349.0,1.0
1965,NonResidential,Warehouse,Bayview Building,Street,98134.0,Greater Duwamish,47.58082,-122.32031,1936,Non-Refrigerated Warehouse,33.0,416885.5938,2.91,38630.0,38630.0,1.0
1969,Nonresidential COS,Warehouse,Airport Way Ctr - Bldg D,Way,98134.0,Greater Duwamish,47.5829,-122.32417,1985,Non-Refrigerated Warehouse,78.0,764094.5,21.5,22803.0,22803.0,1.0
1971,NonResidential,Refrigerated Warehouse,Pacific Food Importers,Way,98134.0,Greater Duwamish,47.58252,-122.32193,1951,Refrigerated Warehouse,94.0,642645.1875,4.48,41550.0,41550.0,1.0
1974,NonResidential,K-12 School,St. Edward School,Street,98118.0,Southeast,47.55095,-122.27978,1912,K-12 School,49.0,2203758.5,102.35,42252.0,21126.0,1.0
1976,NonResidential,Worship Facility,GRACE APOSTOLIC CHURCH,Way,98118.0,Southeast,47.5419,-122.28302,1981,Worship Facility,96.0,440419.1875,12.92,22895.0,7631.667,1.0
1991,NonResidential,Warehouse,1024-1048 6th Ave S,Avenue,98134.0,Greater Duwamish,47.59294,-122.32555,1937,Non-Refrigerated Warehouse,67.0,808968.1875,18.03,52325.0,52325.0,1.0
1994,NonResidential,Retail Store,646 S HOLGATE ST,Street,98134.0,Greater Duwamish,47.58698,-122.32397,1944,Retail Store,100.0,162960.0,1.14,25880.0,25880.0,1.0
1995,NonResidential,Warehouse,"Total Reclaim, Inc",Avenue,98134.0,Greater Duwamish,47.58336,-122.32525,1960,Non-Refrigerated Warehouse,99.0,819354.625,12.55,45842.0,45842.0,1.0
1998,NonResidential,Warehouse,Ingersoll Rand Building,Avenue,98134.0,Greater Duwamish,47.57895,-122.32551,1966,Non-Refrigerated Warehouse,20.0,1167887.75,40.85,20520.0,20520.0,1.0
1999,NonResidential,Warehouse,CF Resource,Avenue,98134.0,Greater Duwamish,47.57833,-122.32563,1945,Non-Refrigerated Warehouse,12.0,495481.0,3.45,22972.0,22972.0,1.0
2000,NonResidential,Warehouse,625 Building,Others,98134.0,Greater Duwamish,47.57934,-122.32501,1953,Non-Refrigerated Warehouse,80.0,523614.0938,8.7,24990.0,24990.0,1.0
2003,NonResidential,Distribution Center,FleetPride,Street,98108.0,Greater Duwamish,47.56758,-122.32638,1966,Distribution Center,10.0,735907.8125,17.29,24354.0,24354.0,1.0
2004,NonResidential,Distribution Center,Stusser Electric,Street,98108.0,Greater Duwamish,47.56823,-122.32506,1959,Distribution Center,58.0,847419.375,15.35,33600.0,33600.0,1.0
2008,NonResidential,Refrigerated Warehouse,820 South Adams Building: 820 South Adams Street,Street,98108.0,Greater Duwamish,47.5668,-122.32149,1957,Refrigerated Warehouse,100.0,1610794.75,59.0,25520.0,25520.0,1.0
2024,NonResidential,Small- and Mid-Sized Office,Willow Creek (Buildings 1 & 2),Way,98115.0,North,47.70008,-122.30321,1974,Office,87.0,920430.625,6.42,24291.0,12145.5,1.0
2025,NonResidential,Retail Store,Les Schwab Tire Center #396,Way,98115.0,North,47.70053,-122.3038,1958,Retail Store,44.0,526752.8125,3.67,20738.0,10369.0,1.0
2029,NonResidential,Medical Office,Pac Med Northgate,Avenue,98144.0,North,47.7044,-122.32285,1986,Medical Office,1.0,2654316.0,18.5,28385.0,14192.5,0.75142
2036,NonResidential,Small- and Mid-Sized Office,Ed Wyse Building,Avenue,98134.0,Greater Duwamish,47.57013,-122.3244,1983,Office,75.0,1139980.625,38.87,23143.0,23143.0,1.0
2037,NonResidential,Small- and Mid-Sized Office,Lamar Advertising Company,Avenue,98134.0,Greater Duwamish,47.57075,-122.32724,1962,Office,73.0,2107743.75,60.12,28800.0,28800.0,1.0
2038,NonResidential,Warehouse,Dutch Boy Building,Avenue,98134.0,Greater Duwamish,47.57294,-122.32811,1952,Non-Refrigerated Warehouse,85.0,405050.4063,2.82,39600.0,39600.0,1.0
2039,NonResidential,Warehouse,SB Warehouse,Avenue,98134.0,Greater Duwamish,47.57199,-122.32811,1952,Non-Refrigerated Warehouse,91.0,468396.9063,9.25,39600.0,39600.0,1.0
2040,NonResidential,Distribution Center,2900,Avenue,98134.0,Greater Duwamish,47.57747,-122.32844,1937,Distribution Center,37.0,1108310.875,16.5,41248.0,41248.0,1.0
2045,NonResidential,Worship Facility,West Side Presbyterian Church,Avenue,98116.0,Southwest,47.57177,-122.38716,1948,Worship Facility,75.0,1228113.5,43.64,35864.0,17932.0,1.0
2049,NonResidential,Worship Facility,St. George Parish,Avenue,98108.0,Greater Duwamish,47.55464,-122.31576,1954,Worship Facility,69.0,822636.625,38.38,20484.0,20484.0,1.0
2050,NonResidential,Medical Office,Springbrook Building,Way,98105.0,Northeast,47.66169,-122.28558,1984,Medical Office,4.0,1849331.25,12.89,45264.0,11316.0,0.61068
2054,NonResidential,Worship Facility,Phinney Ridge Lutheran Church,Avenue,98103.0,Northwest,47.68351,-122.35482,1951,Worship Facility,58.0,1195165.25,30.99,41600.0,20800.0,1.0
2056,NonResidential,Small- and Mid-Sized Office,Bonneville International,Avenue,98102.0,Lake Union,47.63567,-122.32522,1960,Office,31.0,2563985.5,17.87,34110.0,17055.0,1.0
2067,NonResidential,Warehouse,South Seattle Building,Avenue,98134.0,Greater Duwamish,47.57832,-122.32649,1970,Non-Refrigerated Warehouse,87.0,533742.8125,3.72,43390.0,43390.0,1.0
2068,NonResidential,Warehouse,WES 2233 LLC,Avenue,98134.0,Greater Duwamish,47.58238,-122.32719,1959,Non-Refrigerated Warehouse,84.0,419978.6875,9.29,35400.0,35400.0,1.0
2069,NonResidential,Distribution Center,Stoneway,Avenue,98104.0,Greater Duwamish,47.58517,-122.32853,1966,Distribution Center,19.0,858701.0,8.22,28144.0,28144.0,1.0
2070,NonResidential,Warehouse,Pacific Coast Feather Corporate Office and Warehouse,Avenue,98199.0,Greater Duwamish,47.5842,-122.32826,1916,Non-Refrigerated Warehouse,41.0,2491238.25,43.17,71283.0,23761.0,1.0
2072,NonResidential,Small- and Mid-Sized Office,1550 4th Ave S,Avenue,98134.0,Greater Duwamish,47.58895,-122.32833,1979,Office,99.0,1042652.625,7.27,47368.0,23684.0,1.0
2074,NonResidential,Small- and Mid-Sized Office,Jefferson Building,Street,98122.0,Central,47.60592,-122.31367,1984,Office,84.0,2602213.75,41.96,72613.0,14522.6,0.68617
2077,SPS-District K-12,K-12 School,Hawthorne Elementary,Avenue,98118.0,Southeast,47.56591,-122.28339,1989,K-12 School,97.0,1436510.375,20.3,51672.0,17224.0,1.0
2078,Nonresidential COS,Medical Office,SE Seattle Community Health Center,Avenue,98118.0,Southeast,47.56364,-122.28572,1990,Medical Office,36.0,2108861.75,14.7,38352.0,19176.0,0.71105
2092,NonResidential,Small- and Mid-Sized Office,10th Ave.,Avenue,98122.0,East,47.61345,-122.3198,1907,Office,95.0,1046187.625,18.04,36000.0,18000.0,1.0
2095,NonResidential,Mixed Use Property,"Automobili Italiane, Inc.",Avenue,98122.0,East,47.61324,-122.31724,1913,Parking,59.0,1162163.125,26.52,36000.0,36000.0,1.0
2096,NonResidential,Warehouse,LOFT BUILDING,Avenue,98122.0,East,47.61467,-122.31777,1915,Non-Refrigerated Warehouse,38.0,1929851.5,49.18,43200.0,21600.0,1.0
2097,NonResidential,Small- and Mid-Sized Office,Turner,Avenue,98134.0,Greater Duwamish,47.59501,-122.32852,1913,Office,71.0,2912454.75,46.85,53840.0,13460.0,0.76096
2098,NonResidential,Retail Store,Outdoor Emporium,Avenue,98134.0,Greater Duwamish,47.58801,-122.32944,1975,Retail Store,88.0,1164537.75,23.5,43794.0,43794.0,1.0
2099,NonResidential,Warehouse,Old Pipe Building,Avenue,98134.0,Greater Duwamish,47.57466,-122.33089,1968,Non-Refrigerated Warehouse,18.0,2701833.75,78.57,48280.0,48280.0,1.0
2101,NonResidential,Supermarket / Grocery Store,Safeway 0423 - 35th Ave,Avenue,98115.0,Northeast,47.68269,-122.28912,1965,Supermarket/Grocery Store,42.0,8839812.0,219.93,32822.0,32822.0,1.0
2104,NonResidential,Worship Facility,Messiah Lutheran Church,Others,98115.0,Northeast,47.68061,-122.29002,1950,Worship Facility,65.0,809291.8125,34.04,20385.0,10192.5,1.0
2105,NonResidential,Worship Facility,Sand Point Community Church,Street,98115.0,Northeast,47.67984,-122.27739,1946,Worship Facility,53.0,216115.0,1.51,24295.0,24295.0,1.0
2106,NonResidential,Small- and Mid-Sized Office,Hawthorne Hills Professional Center,Street,98105.0,Northeast,47.66888,-122.28333,1967,Office,83.0,620994.3125,4.33,20317.0,10158.5,1.0
2109,NonResidential,Supermarket / Grocery Store,Metropolitan Market,Avenue,98105.0,Northeast,47.66824,-122.28394,1973,Supermarket/Grocery Store,6.0,9851260.0,260.32,24377.0,24377.0,1.0
2115,NonResidential,Supermarket / Grocery Store,OAKTREE PLAZA ASSOC,Avenue,98133.0,Northwest,47.70224,-122.34409,1986,Supermarket/Grocery Store,6.0,6674179.5,158.63,45155.0,45155.0,1.0
2119,NonResidential,Warehouse,Kenyon Industrial Park Building D,Avenue,98108.0,Greater Duwamish,47.5316,-122.333,1966,Non-Refrigerated Warehouse,3.0,2186148.5,41.77,32000.0,32000.0,1.0
2120,NonResidential,Warehouse,Kenyon Industrial Park Building B,Street,98108.0,Greater Duwamish,47.5316,-122.333,1970,Non-Refrigerated Warehouse,15.0,4302455.5,175.53,44000.0,44000.0,1.0
2121,NonResidential,Warehouse,Kenyon Business Park Building A,Avenue,98108.0,Greater Duwamish,47.5316,-122.333,1973,Non-Refrigerated Warehouse,44.0,2771820.5,124.4,36000.0,36000.0,1.0
2124,NonResidential,Warehouse,Cloverdale Business Park Building C,Street,98108.0,Greater Duwamish,47.52549,-122.33064,1979,Non-Refrigerated Warehouse,71.0,2373568.25,59.14,48020.0,48020.0,1.0
2125,NonResidential,Warehouse,Cloverdale Business Park Building E,Street,98108.0,Greater Duwamish,47.52549,-122.33064,1979,Non-Refrigerated Warehouse,55.0,1176342.25,39.05,27420.0,27420.0,1.0
2131,NonResidential,K-12 School,Our Lady of the Lake School,Street,98115.0,Northeast,47.694,-122.28967,1949,K-12 School,71.0,2053956.375,85.15,43645.0,21822.5,1.0
2133,NonResidential,Retail Store,Store #5216_8500 35Th Avenue Ne,Avenue,98115.0,Northeast,47.69066,-122.29023,1952,Retail Store,68.0,1399062.75,21.46,26853.0,26853.0,1.0
2141,NonResidential,Warehouse,Lander Station Business Park,Street,98134.0,Greater Duwamish,47.57881,-122.33273,1992,Non-Refrigerated Warehouse,60.0,1486681.75,26.27,29394.0,29394.0,1.0
2143,NonResidential,Warehouse,A2A LLC,Avenue,98134.0,Greater Duwamish,47.57941,-122.3336,1926,Non-Refrigerated Warehouse,69.0,438557.0,12.17,20400.0,10200.0,1.0
2144,NonResidential,Small- and Mid-Sized Office,2724 1st Avenue South,Avenue,98134.0,Greater Duwamish,47.57893,-122.33374,1926,Office,16.0,903541.875,6.3,20460.0,20460.0,1.0
2146,NonResidential,Refrigerated Warehouse,bnr corporation,Avenue,98134.0,Greater Duwamish,47.58217,-122.33263,1955,Refrigerated Warehouse,45.0,1074350.375,7.49,21870.0,10935.0,1.0
2148,NonResidential,Medical Office,Navos Psychiatric Hospital,Street,98126.0,Delridge,47.53419,-122.36624,1970,Medical Office,89.0,3133849.5,106.35,43615.0,43615.0,1.0
2149,NonResidential,Small- and Mid-Sized Office,Navos Erlick Perez,Street,98126.0,Delridge,47.53419,-122.36624,1970,Office,26.0,1144267.5,7.98,36879.0,12293.0,1.0
2151,NonResidential,Warehouse,20731-West Seattle / Delridge Way SW,Way,98106.0,Delridge,47.53846,-122.36175,1982,Non-Refrigerated Warehouse,80.0,308400.4063,2.15,36600.0,18300.0,1.0
2159,NonResidential,Warehouse,Tri-North,Avenue,98134.0,Greater Duwamish,47.55718,-122.33288,1941,Non-Refrigerated Warehouse,49.0,2100216.5,61.6,48890.0,48890.0,1.0
2160,NonResidential,Small- and Mid-Sized Office,UFCW21 Building,Avenue,98134.0,Greater Duwamish,47.55658,-122.33322,2000,Office,3.0,4416909.5,30.79,43473.0,14491.0,1.0
2162,NonResidential,Retail Store,Westwood Village - Building E,Street,98126.0,Delridge,47.52254,-122.36627,1990,Retail Store,19.0,3740373.75,35.48,40265.0,40265.0,1.0
2163,NonResidential,Retail Store,Westwood Village - Building F,Street,98126.0,Delridge,47.52254,-122.36627,2005,Retail Store,79.0,1608884.25,37.61,26208.0,26208.0,1.0
2168,NonResidential,Small- and Mid-Sized Office,Fobes Building - 558,Avenue,98104.0,Downtown,47.59657,-122.33394,1910,Office,92.0,796042.375,11.44,32250.0,6450.0,1.0
2170,NonResidential,Retail Store,(ID24653) Greenwood Shopping Center,Street,98103.0,Northwest,47.69061,-122.35731,1953,Retail Store,95.0,1298039.875,14.17,51000.0,51000.0,1.0
2185,NonResidential,Small- and Mid-Sized Office,820,Avenue,98134.0,Greater Duwamish,47.59508,-122.33378,1920,Office,80.0,576174.125,4.02,20150.0,10075.0,1.0
2186,NonResidential,Small- and Mid-Sized Office,Fobes Building - 562,Avenue,98104.0,Downtown,47.59639,-122.33368,1909,Office,40.0,1682454.875,11.73,36000.0,5142.857,1.0
2190,NonResidential,Small- and Mid-Sized Office,Guardian Security Systems,Avenue,98134.0,Greater Duwamish,47.58686,-122.33469,1927,Office,90.0,928584.875,9.65,22580.0,22580.0,1.0
2192,NonResidential,Warehouse,Seattle Curtain Mfg Co,Avenue,98122.0,Central,47.60192,-122.31641,1926,Non-Refrigerated Warehouse,18.0,743528.125,33.52,20000.0,20000.0,1.0
2202,NonResidential,Senior Care Community,Aljoya Thornton Place,Street,98133.0,North,47.70178,-122.32352,2009,Senior Care Community,100.0,11019641.0,292.8,244500.0,40750.0,1.0
2207,NonResidential,Retail Store,Grainger Branch 756,Avenue,98134.0,Greater Duwamish,47.55772,-122.33017,1964,Retail Store,69.0,1748644.5,58.36,37247.0,37247.0,1.0
2212,NonResidential,Retail Store,"JG Crown Hill, LLC",Avenue,98117.0,Ballard,47.69274,-122.37602,1993,Retail Store,11.0,3027867.5,77.23,25384.0,25384.0,1.0
2214,NonResidential,Small- and Mid-Sized Office,1943 First Avenue,Avenue,98134.0,Greater Duwamish,47.58462,-122.3347,1910,Office,96.0,1441445.625,10.05,49052.0,16350.667,1.0
2215,NonResidential,Warehouse,Millwork Supply,Avenue,98134.0,Greater Duwamish,47.58318,-122.3347,1900,Non-Refrigerated Warehouse,34.0,586589.1875,25.15,52110.0,26055.0,1.0
2218,NonResidential,Small- and Mid-Sized Office,KR Trigger Building,Avenue,98134.0,Greater Duwamish,47.57529,-122.33475,1923,Office,96.0,771512.6875,14.99,26310.0,26310.0,1.0
2222,NonResidential,Retail Store,(ID24857) EMPIRE CENTER,Way,98118.0,Southeast,47.54723,-122.28455,1966,Retail Store,88.0,12434593.0,413.1,37883.0,37883.0,1.0
2225,NonResidential,K-12 School,Our Lady of Guadalupe School,Street,98126.0,Delridge,47.53887,-122.37564,1962,K-12 School,95.0,1274049.75,54.27,29874.0,9958.0,1.0
2227,NonResidential,Worship Facility,Magnolia,Avenue,98199.0,Magnolia / Queen Anne,47.64,-122.39743,1965,Worship Facility,35.0,992794.6875,47.08,20140.0,20140.0,1.0
2231,NonResidential,Small- and Mid-Sized Office,RCC,Avenue,98144.0,Central,47.60104,-122.30155,1971,Office,93.0,1508561.875,28.05,39953.0,19976.5,1.0
2234,NonResidential,Retail Store,Promenade North 1,Avenue,98144.0,Central,47.60009,-122.3017,1998,Retail Store,15.0,1676426.5,11.69,21200.0,10600.0,1.0
2235,NonResidential,Supermarket / Grocery Store,Promenade South 1,Street,98144.0,Central,47.59881,-122.30189,1980,Supermarket/Grocery Store,27.0,6058494.0,42.24,30630.0,30630.0,1.0
2236,NonResidential,Retail Store,Promenade South 2,Street,98144.0,Central,47.59881,-122.30189,1980,Retail Store,25.0,1896626.375,13.22,23421.0,11710.5,1.0
2239,SPS-District K-12,K-12 School,Salmon Bay K-8,Street,98117.0,Ballard,47.6763,-122.38051,1931,K-12 School,83.0,5722325.5,256.31,117116.0,39038.667,1.0
2240,NonResidential,Worship Facility,Ballard First Lutheran Church,Street,98117.0,Ballard,47.67628,-122.38238,1928,Worship Facility,66.0,893053.1875,31.54,24120.0,12060.0,1.0
2241,NonResidential,Worship Facility,Trinity United Methodist Church,Avenue,98117.0,Ballard,47.6764,-122.38502,1929,Worship Facility,88.0,1148202.25,51.15,35736.0,11912.0,1.0
2244,NonResidential,Warehouse,24943-60S-E,Street,98134.0,Greater Duwamish,47.57298,-122.33644,1941,Non-Refrigerated Warehouse,10.0,1206165.75,27.75,51050.0,51050.0,1.0
2245,NonResidential,Retail Store,(ID24948) BARGREEN-ELLINGSON,Avenue,98134.0,Greater Duwamish,47.57044,-122.33475,1954,Retail Store,40.0,1302192.875,42.66,21900.0,10950.0,1.0
2246,NonResidential,Distribution Center,3420/3430 E. Marginal Way Whse,Way,98134.0,Greater Duwamish,47.57227,-122.33843,1952,Distribution Center,100.0,150167.7969,1.6,16300.0,16300.0,1.0
2247,NonResidential,Warehouse,3401 Colorado Ave S. Whse,Avenue,98134.0,Greater Duwamish,47.57339,-122.33735,1964,Non-Refrigerated Warehouse,1.0,1386445.375,9.67,33462.0,33462.0,1.0
2254,NonResidential,Warehouse,KLC GROUP LLC,Street,98104.0,Downtown,47.59774,-122.31936,1930,Non-Refrigerated Warehouse,65.0,415364.5938,14.37,23903.0,23903.0,1.0
2270,Campus,K-12 School,O'Dea High School,Avenue,98104.0,East,47.60776,-122.32481,1923,K-12 School,75.0,2177064.75,78.19,46100.0,11525.0,1.0
2278,NonResidential,Worship Facility,Bethel Presbyterian Church,Avenue,98133.0,Northwest,47.70901,-122.35498,1951,Worship Facility,96.0,608755.375,28.78,21936.0,10968.0,1.0
2289,NonResidential,Small- and Mid-Sized Office,EJ and J Pacific,Avenue,98118.0,Southeast,47.56029,-122.2858,1967,Office,55.0,904236.0,6.3,23250.0,11625.0,1.0
2292,NonResidential,Warehouse,McKinstry SEA - 4800 Denver Warehouse,Avenue,98134.0,Greater Duwamish,47.55966,-122.33146,1960,Non-Refrigerated Warehouse,32.0,2794837.0,120.72,30000.0,30000.0,1.0
2314,NonResidential,Mixed Use Property,Olive 8,Way,98101.0,Downtown,47.61376,-122.33445,2009,Multifamily Housing,65.0,26416770.0,449.59,1074552.0,27552.615,0.89566
2328,NonResidential,Small- and Mid-Sized Office,(ID25268) LANDMARK BUILDING,Way,98125.0,North,47.70868,-122.30089,1980,Office,78.0,1027230.875,14.64,23022.0,5755.5,1.0
2331,NonResidential,Warehouse,Pedersens Rentals,Avenue,98134.0,Greater Duwamish,47.56318,-122.32889,1962,Non-Refrigerated Warehouse,12.0,3064039.5,125.59,31569.0,31569.0,1.0
2332,NonResidential,Warehouse,Pedersen Party Rentals,Avenue,98134.0,Greater Duwamish,47.56362,-122.32876,1956,Non-Refrigerated Warehouse,57.0,177812.7969,1.24,22509.0,22509.0,1.0
2333,NonResidential,Warehouse,(ID25278) 4400 BUILDING,Avenue,98134.0,Greater Duwamish,47.56424,-122.32902,1956,Non-Refrigerated Warehouse,75.0,1073156.375,36.82,39984.0,39984.0,1.0
2342,NonResidential,Worship Facility,All Pilgrims Christian Church,Way,98102.0,East,47.62322037,-122.320017,1906,Worship Facility,91.0,719905.1875,27.93,26440.0,26440.0,1.0
2359,NonResidential,K-12 School,Epiphany School,Avenue,98122.0,Central,47.61791,-122.28594,2009,K-12 School,92.0,1162561.125,28.64,7125.0,14250.0,1.0
2383,NonResidential,Small- and Mid-Sized Office,1848 Building,Avenue,98109.0,Lake Union,47.63614,-122.33982,1949,Office,77.0,840549.375,5.86,23355.0,7785.0,1.0
2384,NonResidential,Small- and Mid-Sized Office,Waterworks Offices + Marina,Avenue,98109.0,Magnolia / Queen Anne,47.63575,-122.33895,1965,Office,30.0,3542708.5,101.21,30840.0,7710.0,1.0
2392,NonResidential,Worship Facility,St. Therese Parish,Others,98122.0,Central,47.61118,-122.288,1900,Worship Facility,100.0,317794.4063,13.09,21850.0,21850.0,1.0
2403,NonResidential,Hotel,Pioneer Square Hotel,Way,98104.0,Downtown,47.60154,-122.3352,1914,Hotel,77.0,2799595.0,122.0,45500.0,11375.0,1.0
2413,NonResidential,Warehouse,1109 N NORTHLAKE WAY,Way,98103.0,Lake Union,47.64793,-122.34358,1938,Non-Refrigerated Warehouse,27.0,466672.6875,3.25,23050.0,23050.0,1.0
2415,NonResidential,Retail Store,PETCO,Street,98105.0,Northeast,47.66097,-122.3192,1930,Retail Store,82.0,1582655.875,20.66,46059.0,46059.0,1.0
2432,NonResidential,Medical Office,Seattle Healing Arts,Avenue,98115.0,Northeast,47.67437,-122.3181,1970,Medical Office,72.0,817409.625,6.53,23595.0,11797.5,1.0
2438,NonResidential,Small- and Mid-Sized Office,Herman Blumenthal Building,Others,98104.0,Downtown,47.59938,-122.33328,1900,Office,96.0,847097.8125,34.08,28142.0,9380.667,1.0
2440,NonResidential,Small- and Mid-Sized Office,Union Trust Building,Street,98104.0,Downtown,47.59979,-122.33318,1902,Office,99.0,713326.875,13.69,39030.0,9757.5,1.0
2441,NonResidential,Small- and Mid-Sized Office,Buttnick City Loan,Avenue,98104.0,Downtown,47.60071,-122.33377,1909,Office,58.0,2092696.0,63.81,47215.0,15738.333,1.0
2447,NonResidential,Retail Store,Capital Hill,Avenue,98122.0,East,47.61478,-122.31847,1916,Retail Store,100.0,336745.4063,2.35,36940.0,18470.0,1.0
2449,NonResidential,Retail Store,The Ford Building,Avenue,98122.0,East,47.61466,-122.31984,1920,Retail Store,78.0,1264626.875,18.19,30240.0,30240.0,1.0
2460,NonResidential,Small- and Mid-Sized Office,International Building,Street,98104.0,Downtown,47.59644,-122.32415,1979,Office,2.0,3605755.5,25.14,35202.0,11734.0,1.0
2467,NonResidential,Senior Care Community,FAERLAND TERRACE,Avenue,98101.0,East,47.61318,-122.32747,1969,Senior Care Community,1.0,7202141.5,183.79,95117.0,15852.833,0.72579
2469,NonResidential,Worship Facility,(ID25743) FIRST COVENANT CHURCH,Street,98122.0,East,47.61426,-122.32661,1910,Worship Facility,69.0,331059.5,5.66,24600.0,12300.0,1.0
2482,NonResidential,Hospital,Park West Skilled Nursing,Avenue,98116.0,Southwest,47.58767,-122.38672,1961,Hospital (General Medical & Surgical),100.0,2037720.625,14.21,54863.0,18287.667,1.0
2492,NonResidential,Small- and Mid-Sized Office,Pine Building,Street,98122.0,East,47.61543,-122.32657,1917,Office,94.0,1031667.5,17.41,27544.0,9181.333,1.0
2514,NonResidential,Supermarket / Grocery Store,Safeway 1551 - E John St,Street,98112.0,East,47.62048,-122.31386,1998,Supermarket/Grocery Store,17.0,14585813.0,393.07,44739.0,44739.0,1.0
2519,NonResidential,Worship Facility,Philadelphia church,Avenue,98117.0,Ballard,47.68517,-122.38733,1956,Worship Facility,20.0,866806.0,37.28,21562.0,10781.0,1.0
2524,NonResidential,Senior Care Community,Park Shore Senior Living,Avenue,98112.0,East,47.63429,-122.27652,1963,Senior Care Community,51.0,20628680.0,792.6,153312.0,9582.0,1.0
2530,NonResidential,Mixed Use Property,2201 / Enso Condominiums - SEDO,Avenue,98121.0,Downtown,47.61811,-122.33908,2009,Office,87.0,27684480.0,393.29,1206670.0,63508.947,0.83272
2535,NonResidential,Worship Facility,IGLESIA NI CRISTO,Avenue,98118.0,Southeast,47.53857,-122.28026,1968,Worship Facility,73.0,826488.6875,22.38,24200.0,24200.0,1.0
2559,NonResidential,K-12 School,Christ the King Middle School,Others,98133.0,Northwest,47.71387,-122.3535,1938,K-12 School,62.0,1219863.125,55.06,23222.0,11611.0,1.0
2567,NonResidential,K-12 School,Northwest School,Avenue,98122.0,East,47.61339,-122.32594,1904,K-12 School,52.0,3625407.5,121.63,60000.0,20000.0,1.0
2575,NonResidential,Other,Salal Credit Union,Avenue,98109.0,Magnolia / Queen Anne,47.63303,-122.34268,1980,Bank Branch,61.0,1440554.25,10.04,30408.0,10136.0,1.0
2579,NonResidential,Small- and Mid-Sized Office,McHugh,Avenue,98109.0,Magnolia / Queen Anne,47.63439,-122.34078,1920,Office,89.0,1465795.75,34.03,30109.0,10036.333,1.0
2583,NonResidential,Small- and Mid-Sized Office,Queen Anne Evangelical Lutheran Church,Avenue,98119.0,Magnolia / Queen Anne,47.63985,-122.36712,1960,Office,92.0,917100.3125,38.59,25481.0,12740.5,1.0
2584,NonResidential,Senior Care Community,Caroline Kline Galland Home,Avenue,98118.0,Southeast,47.53515,-122.26556,1967,Senior Care Community,76.0,19423344.0,717.93,141297.0,141297.0,1.0
2593,NonResidential,Small- and Mid-Sized Office,Supply Laundry Building,Street,98109.0,Lake Union,47.62298,-122.33082,1912,Office,73.0,2119806.25,35.99,27788.0,13894.0,1.0
2603,NonResidential,Hotel,Comfort Inn and Suites,Avenue,98133.0,Northwest,47.729,-122.34473,1990,Hotel,73.0,1943899.25,58.52,41704.0,10426.0,0.79417
2606,NonResidential,Warehouse,101 S. Dakota,Others,98134.0,Greater Duwamish,47.56683,-122.33358,1941,Non-Refrigerated Warehouse,53.0,588856.125,22.33,22324.0,11162.0,1.0
2614,NonResidential,Small- and Mid-Sized Office,1605 Boylston,Street,98122.0,East,47.61545,-122.3238,1922,Office,84.0,1072151.375,12.57,27600.0,9200.0,1.0
2623,NonResidential,Senior Care Community,Columbia Lutheran Home,Avenue,98103.0,Northwest,47.66312,-122.35311,1961,Senior Care Community,98.0,6135173.0,203.21,55974.0,27987.0,1.0
2628,NonResidential,Senior Care Community,Saint Anne Nursing and Rehab Center,Street,98125.0,North,47.70883,-122.28887,1954,Senior Care Community,95.0,1981360.0,70.92,22583.0,22583.0,1.0
2631,NonResidential,Small- and Mid-Sized Office,Solid Ground,Street,98103.0,Lake Union,47.66117,-122.3391,1997,Office,35.0,2305643.5,16.07,31686.0,10562.0,0.76778
2632,NonResidential,Small- and Mid-Sized Office,Lake Union Place,Street,98103.0,Lake Union,47.6483,-122.33438,1981,Office,92.0,720170.6875,5.02,26694.0,8898.0,0.77396
2636,NonResidential,Warehouse,Hansen Bros.,Avenue,98133.0,Northwest,47.70833,-122.34429,1972,Non-Refrigerated Warehouse,69.0,227509.5,1.59,29400.0,29400.0,1.0
2637,NonResidential,Hotel,Georgetown Inn,Avenue,98108.0,Greater Duwamish,47.54774,-122.32091,1992,Hotel,85.0,1244150.0,41.88,22452.0,7484.0,1.0
2642,NonResidential,Other,192741-University,Way,98105.0,Northeast,47.66148,-122.31279,1912,Bank Branch,22.0,1581352.75,11.02,25767.0,12883.5,1.0
2643,NonResidential,Retail Store,4518 University,Way,98105.0,Northeast,47.66188,-122.31279,1953,Retail Store,75.0,1822834.25,38.21,33910.0,8477.5,1.0
2654,NonResidential,Warehouse,Mariner Square LLC,Way,98103.0,Lake Union,47.64748,-122.33435,1979,Non-Refrigerated Warehouse,38.0,4103800.75,48.13,78716.0,39358.0,1.0
2655,NonResidential,K-12 School,St. Benedict School,Avenue,98103.0,Lake Union,47.66389,-122.33692,1910,K-12 School,92.0,1594733.625,69.2,33300.0,16650.0,1.0
2656,NonResidential,Supermarket / Grocery Store,70500869 -- Wallingford,Street,98103.0,Lake Union,47.66185,-122.33594,1957,Supermarket/Grocery Store,29.0,9232576.0,226.73,28808.0,28808.0,1.0
2667,NonResidential,Small- and Mid-Sized Office,4701 University Way Bldg,Way,98105.0,Northeast,47.66345,-122.3134,1957,Office,58.0,1100499.75,7.67,27966.0,27966.0,0.74955
2668,NonResidential,Supermarket / Grocery Store,Safeway 3091 - Brooklyn Ave,Avenue,98105.0,Northeast,47.66429,-122.31389,1950,Supermarket/Grocery Store,37.0,7588060.5,156.18,26226.0,26226.0,1.0
2671,NonResidential,Mixed Use Property,2967-University District,Street,98105.0,Northeast,47.6616,-122.31393,1976,Bank Branch,17.0,1159807.125,8.09,34948.0,17474.0,0.54919
2684,NonResidential,Small- and Mid-Sized Office,W0164 Washington Building,Street,98104.0,Downtown,47.6011,-122.33197,1900,Office,94.0,683274.0,4.76,20880.0,20880.0,1.0
2691,NonResidential,Medical Office,Rainier Beach Medical & Dental Clinic,Avenue,98118.0,Southeast,47.5195,-122.26935,2010,Medical Office,8.0,1941728.75,19.81,25880.0,12940.0,1.0
2699,NonResidential,Worship Facility,Calvary Christian Assembly,Way,98133.0,Northeast,47.67842,-122.31949,1950,Worship Facility,83.0,1544995.75,47.03,46485.0,15495.0,1.0
2704,NonResidential,Small- and Mid-Sized Office,(ID#26681) RAVENNA OFFICE BLDG,Avenue,98115.0,Northwest,47.67819,-122.3231,1965,Office,96.0,1402048.5,28.46,56896.0,14224.0,1.0
2706,NonResidential,Worship Facility,Church in Seattle,Avenue,98115.0,Northwest,47.67783,-122.32577,1978,Worship Facility,60.0,577123.125,14.79,27500.0,13750.0,1.0
2707,NonResidential,Small- and Mid-Sized Office,Graybar Building,Avenue,98104.0,Downtown,47.59856,-122.33248,1930,Office,90.0,541943.3125,3.78,36630.0,18315.0,1.0
2709,NonResidential,Small- and Mid-Sized Office,Mottman Building,Avenue,98104.0,Downtown,47.59971,-122.33065,1906,Office,95.0,1103594.75,7.69,41920.0,8384.0,1.0
2710,NonResidential,Small- and Mid-Sized Office,Masin Building 1,Avenue,98104.0,Downtown,47.60048,-122.33157,1905,Office,92.0,1537570.25,26.94,36879.0,7375.8,1.0
2715,NonResidential,Small- and Mid-Sized Office,220_3rd_ave_s_03262013,Avenue,98104.0,Downtown,47.60026,-122.3299,1905,Office,70.0,1078535.75,7.52,33640.0,16820.0,1.0
2716,NonResidential,Warehouse,Seattle Lighting Fixture,Avenue,98104.0,Downtown,47.59986,-122.32987,1906,Non-Refrigerated Warehouse,18.0,1567040.75,10.92,43484.0,10871.0,1.0
2721,NonResidential,Hotel,American Hotel,Street,98104.0,Downtown,47.5985,-122.32677,1925,Hotel,49.0,4857581.5,173.67,33018.0,8254.5,1.0
2723,NonResidential,Small- and Mid-Sized Office,Dearborn Bldg.,Others,98134.0,Downtown,47.5962,-122.32548,1970,Office,91.0,987063.6875,11.18,26510.0,13255.0,1.0
2737,NonResidential,Warehouse,Dunn Lumber Retail/Offices,Others,98105.0,Lake Union,47.65429,-122.32618,1938,Non-Refrigerated Warehouse,80.0,942415.1875,6.76,40028.0,40028.0,1.0
2738,NonResidential,Small- and Mid-Sized Office,North Lake Office Bldg.,Way,98105.0,Lake Union,47.65373,-122.32721,2007,Office,23.0,2188051.25,15.25,44510.0,14836.667,0.59047
2739,NonResidential,Worship Facility,Lake City Presbyterian Church,Street,98125.0,North,47.71705,-122.28577,1954,Worship Facility,90.0,666687.5,20.96,21624.0,21624.0,1.0
2751,NonResidential,Hotel,Panama Hotel,Street,98104.0,Downtown,47.59983,-122.32598,1910,Hotel,99.0,1200180.875,53.25,40552.0,8110.4,1.0
2761,NonResidential,Retail Store,C & T BLDG,Street,98104.0,Downtown,47.59935,-122.32468,1917,Retail Store,100.0,977230.3125,6.73,24550.0,12275.0,1.0
2775,NonResidential,Residence Hall,4503,Avenue,98105.0,Northeast,47.6617,-122.31007,1929,Residence Hall/Dormitory,82.0,637685.0,4.45,22124.0,7374.667,1.0
2778,NonResidential,Residence Hall,Chi Omega Fraternity of Washington,Avenue,98105.0,Northeast,47.66289,-122.30863,1926,Residence Hall/Dormitory,82.0,1594504.875,65.95,27487.0,9162.333,1.0
2779,NonResidential,Residence Hall,Sigma Chi Fraternity,Avenue,98105.0,Northeast,47.66164,-122.30874,1926,Residence Hall/Dormitory,55.0,1656420.25,53.65,23616.0,5904.0,1.0
2781,NonResidential,Residence Hall,Upstairs Downstairs Apartments,Avenue,98105.0,Northeast,47.66238,-122.30801,1976,Residence Hall/Dormitory,78.0,998633.5,6.96,33448.0,11149.333,1.0
2783,NonResidential,Senior Care Community,Seattle Keiro,Way,98122.0,Central,47.60133,-122.31088,1987,Senior Care Community,48.0,8268496.5,249.46,74840.0,37420.0,1.0
2785,NonResidential,K-12 School,First Place,Avenue,98122.0,Central,47.6032,-122.30596,1925,K-12 School,40.0,1522596.75,55.23,22344.0,11172.0,1.0
2800,NonResidential,Mixed Use Property,Trader Joes/AAA,Way,98105.0,Northeast,47.66272,-122.31798,1999,Parking,9.0,5652231.0,39.4,32928.0,16464.0,1.0
2803,NonResidential,Warehouse,Northwest Wholesale Florists,Street,98108.0,Greater Duwamish,47.54761,-122.32759,1960,Non-Refrigerated Warehouse,33.0,1368120.5,29.7,44476.0,44476.0,1.0
2804,NonResidential,Small- and Mid-Sized Office,"Pacific Georgetown Center, LLC",Avenue,98108.0,Greater Duwamish,47.54494,-122.32543,1969,Office,66.0,1295485.25,27.06,35017.0,35017.0,1.0
2805,NonResidential,Residence Hall,Alpha Delta Pi Chapter House,Others,98177.0,Northeast,47.66281,-122.30819,1950,Residence Hall/Dormitory,66.0,1632498.625,60.83,29084.0,9694.667,1.0
2815,NonResidential,Worship Facility,Japanese Presbyterian Church,Avenue,98144.0,Southeast,47.58671,-122.30201,1963,Worship Facility,98.0,470666.6875,19.28,22952.0,11476.0,1.0
2829,NonResidential,Warehouse,N W WAREHOUSE,Others,98108.0,Greater Duwamish,47.54443,-122.32688,1976,Non-Refrigerated Warehouse,43.0,592088.125,19.14,21040.0,21040.0,1.0
2830,NonResidential,Warehouse,Cedar Heights,Others,98108.0,Greater Duwamish,47.54491,-122.32758,1951,Non-Refrigerated Warehouse,52.0,1321065.0,46.61,28032.0,14016.0,1.0
2831,NonResidential,Distribution Center,Pacific Rubber Inc,Way,98108.0,Greater Duwamish,47.54333,-122.32792,1974,Distribution Center,82.0,550324.1875,20.46,25620.0,25620.0,1.0
2832,NonResidential,Warehouse,(ID27141) TSUE CHONG BUILDING,Street,98144.0,Downtown,47.59775,-122.32219,1992,Non-Refrigerated Warehouse,14.0,1632472.0,11.38,33238.0,11079.333,1.0
2833,NonResidential,K-12 School,St. James Cathedral Place,Others,98104.0,East,47.60745,-122.32542,1912,K-12 School,8.0,1181428.75,38.36,27800.0,6950.0,1.0
2835,NonResidential,Large Office,719 2nd Ave (Millennium Tower),Avenue,98104.0,Downtown,47.60331,-122.33389,2000,Office,82.0,13270687.0,92.52,706176.0,117696.0,1.0
2839,NonResidential,Supermarket / Grocery Store,West Seattle Thriftway,Street,98136.0,Southwest,47.54427,-122.38609,1998,Supermarket/Grocery Store,22.0,8687690.0,206.33,33706.0,33706.0,1.0
2851,SPS-District K-12,K-12 School,Viewlands Elementary,Avenue,98177.0,Northwest,47.70597,-122.36113,1954,K-12 School,93.0,1709307.5,49.55,42128.0,42128.0,1.0
2896,NonResidential,Supermarket / Grocery Store,Safeway 1550 - Roosevelt Way,Way,98115.0,Northeast,47.68217,-122.31675,1997,Supermarket/Grocery Store,18.0,13906080.0,364.27,76585.0,76585.0,0.49618
2897,NonResidential,Worship Facility,Cross & Crown Church,Avenue,98105.0,Northeast,47.66295,-122.31494,1938,Worship Facility,75.0,964236.0,38.18,26373.0,8791.0,1.0
2917,NonResidential,Warehouse,West Coast Wire Rope & Rigging Inc,Avenue,98108.0,Greater Duwamish,47.53326,-122.32579,1953,Non-Refrigerated Warehouse,34.0,965425.1875,29.39,42420.0,42420.0,1.0
2927,NonResidential,Warehouse,L&W Food Corporation,Way,98108.0,Greater Duwamish,47.56501,-122.3248,1974,Non-Refrigerated Warehouse,100.0,1063269.125,17.65,35046.0,35046.0,1.0
2929,NonResidential,Warehouse,MVI 7th Avenue,Avenue,98108.0,Greater Duwamish,47.56448,-122.32484,1974,Non-Refrigerated Warehouse,89.0,405062.0,2.82,43380.0,43380.0,1.0
2930,NonResidential,Small- and Mid-Sized Office,4010 Associates,Street,98020.0,Lake Union,47.65576,-122.34208,1995,Office,8.0,2720238.25,77.84,20410.0,6803.333,1.0
2938,NonResidential,Small- and Mid-Sized Office,Meridian Center Building,Avenue,98133.0,Northwest,47.70349,-122.33424,1983,Office,87.0,624125.625,4.35,24696.0,8232.0,0.7449
2945,NonResidential,Worship Facility,St. Andrew Kim,Avenue,98125.0,Northwest,47.71479,-122.32824,2002,Worship Facility,47.0,689803.0,21.87,24955.0,24955.0,1.0
2963,NonResidential,Hotel,Hotel1000,Avenue,98104.0,Downtown,47.60505,-122.3361,2006,Hotel,23.0,17457560.0,423.57,392552.0,39255.2,0.94338
2982,NonResidential,K-12 School,Seattle Jewish Community School,Avenue,98125.0,North,47.71923,-122.32171,1988,K-12 School,86.0,1573155.0,62.94,32961.0,16480.5,1.0
2993,Campus,K-12 School,The Bush School - Lower / Middle School,Street,98112.0,Central,47.62291,-122.28879,1950,K-12 School,87.0,3296526.25,115.34,109794.0,109794.0,1.0
2996,NonResidential,Supermarket / Grocery Store,70500866 -- Northgate,Way,98125.0,North,47.70941,-122.31707,1996,Supermarket/Grocery Store,56.0,11521140.0,338.58,44755.0,44755.0,1.0
2999,NonResidential,Small- and Mid-Sized Office,ELYSIAN BREWING CO & OFFICES,Street,98122.0,East,47.61393,-122.31589,1920,Office,65.0,2701872.0,128.07,23422.0,7807.333,1.0
3003,NonResidential,Mixed Use Property,Madison Crossing,Street,98122.0,East,47.61554,-122.31098,1998,Multifamily Housing,93.0,3392129.0,83.65,53034.0,10606.8,0.72423
3009,NonResidential,Warehouse,Auto Accessories Inc.,Avenue,98112.0,East,47.61481,-122.31536,1920,Non-Refrigerated Warehouse,99.0,79711.79688,0.87,23040.0,11520.0,1.0
3012,NonResidential,Warehouse,20172- Seattle / Capitol,Avenue,98122.0,East,47.61469,-122.31596,1958,Non-Refrigerated Warehouse,66.0,595936.5,4.15,61880.0,30940.0,1.0
3014,NonResidential,Small- and Mid-Sized Office,900 E Pine St,Street,98122.0,East,47.61556,-122.32048,1925,Office,97.0,1027394.313,7.31,27938.0,13969.0,1.0
3022,Campus,K-12 School,The Bush School - Upper School,Others,98112.0,Central,47.62291,-122.28879,2000,K-12 School,69.0,1622231.375,55.73,30562.0,15281.0,1.0
3024,NonResidential,Retail Store,(ID27903) PACIFIC RIM CENTER,Street,98104.0,Downtown,47.59951,-122.32033,2000,Retail Store,67.0,3724098.25,39.31,54969.0,18323.0,1.0
3028,NonResidential,Small- and Mid-Sized Office,Jewish Family Service,Avenue,98122.0,East,47.61546,-122.31195,1958,Office,73.0,2076289.625,54.02,25834.0,8611.333,1.0
3032,NonResidential,Worship Facility,ST MARKS CATHEDRAL,Avenue,98102.0,East,47.63193,-122.32126,1929,Worship Facility,38.0,3481727.5,150.23,37700.0,37700.0,1.0
3041,NonResidential,Mixed Use Property,1700 Madison Apts. Bldg. 2,Street,98122.0,Central,47.61608,-122.30967,2004,Multifamily Housing,100.0,1021754.688,7.12,97229.0,16204.833,1.0
3045,NonResidential,Small- and Mid-Sized Office,9620 Stone Ave N,Avenue,98103.0,Northwest,47.69898,-122.34162,1982,Office,77.0,954352.6875,24.97,25111.0,8370.333,1.0
3057,NonResidential,Worship Facility,Our Lady of Fatima Church & Rectory,Street,98199.0,Magnolia / Queen Anne,47.64725,-122.39977,1953,Worship Facility,10.0,1641667.0,68.39,31805.0,15902.5,1.0
3058,NonResidential,K-12 School,Our Lady of Fatima School & Gym,Street,98199.0,Magnolia / Queen Anne,47.64725,-122.39977,1953,K-12 School,95.0,1267348.5,43.97,20811.0,20811.0,1.0
3060,Nonresidential COS,Warehouse,CSC Meter Shop (G),Avenue,98134.0,Greater Duwamish,47.59393,-122.32211,1967,Non-Refrigerated Warehouse,1.0,1987334.75,66.43,22058.0,11029.0,1.0
3065,NonResidential,Distribution Center,"Park Manor, LLC",Street,98108.0,Greater Duwamish,47.5616,-122.32603,1971,Distribution Center,1.0,4236396.5,67.96,28320.0,28320.0,1.0
3072,NonResidential,Worship Facility,(ID28053)CONGREGATION BETH SHALOM,Avenue,98115.0,Northeast,47.67816,-122.28998,1955,Worship Facility,78.0,861643.6875,22.18,29079.0,29079.0,1.0
3073,NonResidential,Small- and Mid-Sized Office,Madison Park,Street,98112.0,East,47.63441,-122.28061,1982,Office,82.0,726917.5,5.07,28848.0,9616.0,0.66667
3076,NonResidential,Small- and Mid-Sized Office,Brown Bear Car Wash,Way,98107.0,Ballard,47.65564,-122.36191,1988,Office,7.0,1835804.0,38.71,20535.0,10267.5,1.0
3079,NonResidential,Warehouse,NWCP-SEA Mayn Bldg,Avenue,98108.0,Greater Duwamish,47.54769,-122.3251,1965,Non-Refrigerated Warehouse,65.0,485971.0,3.39,30800.0,30800.0,1.0
3088,NonResidential,Warehouse,1001-1005 6th Ave. S,Avenue,98134.0,Greater Duwamish,47.59416,-122.3267,1922,Non-Refrigerated Warehouse,73.0,924192.6875,7.8,37400.0,37400.0,1.0
3094,NonResidential,Large Office,605 Union Station,Avenue,98104.0,Downtown,47.59666,-122.32768,2000,Office,88.0,15026352.0,106.86,268130.0,24375.455,1.0
3095,NonResidential,Small- and Mid-Sized Office,625 Union Station,Avenue,98104.0,Downtown,47.59706,-122.32813,2000,Office,79.0,3782378.25,26.37,68452.0,6222.909,1.0
3096,NonResidential,Large Office,705 5th Avenue,Avenue,98104.0,Downtown,47.59634,-122.32807,2000,Office,88.0,14709151.0,102.54,273185.0,24835.0,1.0
3097,NonResidential,K-12 School,Villa Academy - Main bldg.,Street,98105.0,Northeast,47.66368,-122.27324,1924,K-12 School,97.0,3736960.0,156.45,97500.0,32500.0,1.0
3098,NonResidential,Small- and Mid-Sized Office,Queen Anne Square West (220),Street,98119.0,Magnolia / Queen Anne,47.62495,-122.36036,1982,Office,75.0,3020001.5,21.05,54015.0,10803.0,1.0
3108,NonResidential,Large Office,Bay Vista Office Building,Avenue,98121.0,Downtown,47.61706,-122.35141,1982,Office,67.0,8382140.5,58.44,119701.0,4987.542,1.0
3114,NonResidential,Retail Store,Pike Plaza,Avenue,98101.0,Downtown,47.6087,-122.33884,1991,Retail Store,89.0,5214621.5,81.18,103000.0,34333.333,1.0
3115,NonResidential,Supermarket / Grocery Store,70500883 -- West Seattle,Avenue,98116.0,Southwest,47.56137,-122.38524,2008,Supermarket/Grocery Store,61.0,8025696.0,176.75,37864.0,37864.0,1.0
3116,NonResidential,Supermarket / Grocery Store,70500887 -- Broadway Market,Way,98122.0,East,47.62256,-122.32092,1950,Supermarket/Grocery Store,84.0,9290214.0,72.02,66497.0,33248.5,1.0
3118,NonResidential,Supermarket / Grocery Store,70500881 -- Uptown,Street,98109.0,Magnolia / Queen Anne,47.62473,-122.34727,2006,Supermarket/Grocery Store,79.0,8305255.0,193.36,45980.0,11495.0,1.0
3121,NonResidential,Retail Store,Harvard Market,Way,98122.0,East,47.61378771,-122.3214255,1996,Retail Store,88.0,5313217.0,83.45,45743.0,15247.667,1.0
3125,NonResidential,Warehouse,Rainier Malt House,Way,98108.0,Greater Duwamish,47.55066,-122.31787,1904,Non-Refrigerated Warehouse,55.0,1498457.875,12.43,72859.0,18214.75,1.0
3130,NonResidential,Warehouse,Sandpoint #5,Avenue,98115.0,Northeast,47.68454,-122.26235,1940,Non-Refrigerated Warehouse,69.0,15206762.0,391.7,384772.0,384772.0,1.0
3131,NonResidential,Medical Office,Sandpoint #25,Street,98115.0,Northeast,47.6824,-122.26223,1960,Medical Office,32.0,2193115.0,32.72,30287.0,30287.0,1.0
3132,NonResidential,Small- and Mid-Sized Office,Sandpoint #29,Street,98115.0,Northeast,47.68254,-122.26299,1960,Office,32.0,3947209.25,145.11,21931.0,21931.0,1.0
3133,NonResidential,Small- and Mid-Sized Office,Olympic Block,Way,98104.0,Downtown,47.60148,-122.33379,1985,Office,84.0,4307238.5,30.03,73102.0,12183.667,1.0
3141,NonResidential,Supermarket / Grocery Store,Safeway 1586 - 15th Ave,Avenue,98115.0,North,47.71864,-122.312,2011,Supermarket/Grocery Store,74.0,11702959.0,303.69,51400.0,51400.0,1.0
3144,NonResidential,Small- and Mid-Sized Office,NORTH POINTE,Street,98103.0,Lake Union,47.64779,-122.33352,1993,Office,64.0,1634669.375,11.4,26263.0,26263.0,1.0
3160,NonResidential,Supermarket / Grocery Store,Safeway 1885 - 1st Ave,Avenue,98119.0,Magnolia / Queen Anne,47.6239,-122.35756,2003,Supermarket/Grocery Store,23.0,8926736.0,94.63,33997.0,8499.25,1.0
3162,NonResidential,Large Office,City Place V - SEDO,Avenue,98109.0,Lake Union,47.62037,-122.33627,2012,Office,97.0,17463744.0,163.19,526423.0,47856.636,1.0
3163,NonResidential,Mixed Use Property,Prudential Building,Way,98104.0,Downtown,47.60121,-122.33518,1902,Office,97.0,1357119.875,9.46,74211.0,12368.5,1.0
3165,NonResidential,Warehouse,21615-Seattle/10020 MartinLutherKing,Way,98178.0,Southeast,47.51098,-122.27817,1988,Non-Refrigerated Warehouse,99.0,1544193.75,15.5,45700.0,22850.0,1.0
3173,NonResidential,Large Office,Home Plate Center,Avenue,98134.0,Greater Duwamish,47.58995,-122.33472,2012,Office,63.0,11624548.0,92.07,157345.0,26224.167,1.0
3175,NonResidential,Residence Hall,Elm Hall,Others,98195.0,Northeast,47.65642,-122.31475,2012,Residence Hall/Dormitory,90.0,6275367.5,175.46,136758.0,27351.6,1.0
3176,NonResidential,Residence Hall,Alder Hall,Way,98195.0,Northeast,47.65599,-122.31385,2012,Residence Hall/Dormitory,72.0,8767617.0,191.97,192259.0,27465.571,1.0
3187,NonResidential,Hospital,Seattle Children's Hospital Building Hope,Avenue,98145.0,Northeast,47.66201,-122.28386,2013,Hospital (General Medical & Surgical),58.0,57764408.0,1789.69,330000.0,41250.0,1.0
3192,NonResidential,Retail Store,MARQUEEN / MQH,Avenue,98109.0,Magnolia / Queen Anne,47.62503,-122.35642,1918,Retail Store,67.0,3886545.0,144.41,43832.0,14610.667,1.0
3198,NonResidential,Supermarket / Grocery Store,SAFEWAY 2932,Avenue,98116.0,Southwest,47.57984,-122.38577,2011,Supermarket/Grocery Store,78.0,14697487.0,352.77,67263.0,67263.0,1.0
3199,NonResidential,Large Office,Market Place Tower,Avenue,98121.0,Downtown,47.61156,-122.34401,1988,Office,88.0,13458948.0,147.84,354086.0,27237.385,0.57828
3201,NonResidential,Worship Facility,Center for Spiritual Living,Way,98105.0,Northeast,47.6709,-122.27054,2008,Worship Facility,37.0,1933811.625,57.59,70292.0,35146.0,1.0
3203,NonResidential,Other,2020 Fifth Avenue Dat Center,Avenue,98121.0,Downtown,47.61449,-122.33956,1975,Data Center,100.0,41680640.0,290.57,90679.0,12954.143,0.6127
3206,NonResidential,Small- and Mid-Sized Office,Bullitt Center,Street,98122.0,Central,47.61432,-122.31257,2013,Office,100.0,342726.0938,-0.8,52000.0,8666.667,1.0
3214,NonResidential,K-12 School,The Northwest School 401,Others,98122.0,East,47.61386,-122.32647,2014,K-12 School,22.0,2912264.0,51.59,35780.0,17890.0,1.0
3216,NonResidential,Large Office,Interbay Worklofts,Avenue,98119.0,Magnolia / Queen Anne,47.63449,-122.37661,2013,Office,100.0,1363191.625,9.5,105061.0,35020.333,0.73142
3218,NonResidential,Small- and Mid-Sized Office,Seattle Goodwill Job Training/ Education Center,Others,98144.0,Downtown,47.59666,-122.31253,2013,Office,67.0,2502131.0,20.1,62662.0,20887.333,0.7608
3221,NonResidential,Hotel,Hotel Ballard,Avenue,98107.0,Ballard,47.66629,-122.3826,2013,Hotel,62.0,3497215.5,24.38,62381.0,15595.25,0.63213
3228,NonResidential,Senior Care Community,Aegis on Madison,Others,98112.0,Central,47.61885,-122.30341,2013,Senior Care Community,25.0,7531325.0,184.81,79805.0,13300.833,1.0
3230,NonResidential,K-12 School,Paul G Allen Athletic Center,Avenue,98125.0,Northwest,47.73143,-122.32784,2014,K-12 School,82.0,1662054.125,22.76,48925.0,24462.5,1.0
3264,NonResidential,Hospital,Virginia Mason Medical Center - 2149,Street,98101.0,East,47.60986,-122.32774,1920,Hospital (General Medical & Surgical),74.0,163945984.0,6330.91,374466.0,46808.25,1.0
3268,NonResidential,Supermarket / Grocery Store,70500891 -- Ballard,Avenue,98107.0,Ballard,47.67034,-122.3873,2010,Supermarket/Grocery Store,44.0,7768057.5,82.58,41198.0,5149.75,1.0
3276,NonResidential,Residence Hall,Cedar Hall,Street,98105.0,Northeast,47.65718,-122.31632,2011,Residence Hall/Dormitory,91.0,4926695.0,103.65,176225.0,176225.0,1.0
3278,NonResidential,Residence Hall,Lander Hall,Others,98195.0,Northeast,47.65577,-122.3153,1953,Residence Hall/Dormitory,19.0,15965859.0,437.2,166991.0,166991.0,1.0
3279,NonResidential,Residence Hall,Mercer Hall,Street,98195.0,Northeast,47.65447,-122.31733,1970,Residence Hall/Dormitory,16.0,6960904.5,48.53,89392.0,89392.0,1.0
3280,NonResidential,Residence Hall,Poplar Hall,Street,98195.0,Northeast,47.65176,-122.30756,2011,Residence Hall/Dormitory,69.0,3894142.5,62.41,97040.0,97040.0,1.0
3281,NonResidential,Large Office,Amazon Phase VI,Avenue,98109.0,Lake Union,47.62384,-122.33941,2014,Office,99.0,16371039.0,213.7,427181.0,71196.833,1.0
3319,NonResidential,Hotel,Hilton Garden Inn Seattle,Avenue,98101.0,Downtown,47.61665,-122.33261,2015,Hotel,89.0,5525072.5,50.32,144614.0,10329.571,1.0
3320,NonResidential,Large Office,"MAPS 325 Ninth Avenue North, LLC",Avenue,98109.0,Lake Union,47.62146,-122.33976,2014,Office,99.0,12720069.0,147.14,480702.0,40058.5,0.66037
3324,NonResidential,Large Office,"Sidneysea, LLC",Avenue,98109.0,Lake Union,47.62263,-122.33976,2015,Office,98.0,13998638.0,202.12,483397.0,40283.083,0.65617
3329,Nonresidential COS,Large Office,400 FAIRVIEW OFFICE BLDG,Avenue,98109.0,Lake Union,47.62251,-122.3339,2014,Office,98.0,13239050.0,245.16,536697.0,41284.385,0.63171
3337,NonResidential,Hotel,Olympic Hospitality,Avenue,98103.0,Lake Union,47.65476,-122.34732,2014,Hotel,72.0,6042399.5,131.02,126823.0,31705.75,0.67246
3338,NonResidential,Warehouse,Airport - Maintenance Shop - DOT: KCIA,Others,98108.0,Greater Duwamish,47.54425,-122.31776,1955,Non-Refrigerated Warehouse,37.0,3605855.5,157.7,52085.0,52085.0,0.91894
3339,NonResidential,Small- and Mid-Sized Office,Airport - Main Terminal,Others,98108.0,Greater Duwamish,47.53161,-122.29944,1929,Office,9.0,4420650.5,134.8,24990.0,12495.0,1.0
3347,NonResidential,K-12 School,Hamlin Robinson School,Avenue,98144.0,Greater Duwamish,47.58831,-122.3065,2015,K-12 School,77.0,1325972.75,9.24,45000.0,15000.0,1.0
